{"type":"FeatureCollection","features":[{"type":"Feature","properties":{"id":"ulldecona","area_km2":93.8},"geometry":{"type":"Polygon","coordinates":[[[0.2858,40.7625],[0.2742,40.7583],[0.2558,40.76],[0.25,40.755],[0.2367,40.7542],[0.2308,40.7367],[0.225,40.7325],[0.1833,40.7233],[0.1683,40.7158],[0.1692,40.7108],[0.16,40.7025],[0.1583,40.685],[0.125,40.6692],[0.1108,40.6667],[0.11,40.6633],[0.0975,40.6642],[0.0958,40.66],[0.1,40.6542],[0.0908,40.655],[0.0892,40.6508],[0.0958,40.6475],[0.0983,40.64],[0.115,40.6383],[0.12,40.6342],[0.1408,40.6367],[0.1508,40.6442],[0.1758,40.6475],[0.1775,40.6508],[0.2,40.6517],[0.2383,40.6608],[0.235,40.6758],[0.2425,40.6783],[0.2433,40.6967],[0.2508,40.705],[0.2617,40.7067],[0.2667,40.7325],[0.2775,40.7342],[0.2917,40.7492],[0.2858,40.7625]]]}},{"type":"Feature","properties":{"id":"valbona","area_km2":156.5},"geometry":{"type":"Polygon","coordinates":[[[-0.8133,40.4025],[-0.8375,40.4],[-0.8417,40.3933],[-0.8417,40.3758],[-0.8317,40.37],[-0.8383,40.3642],[-0.8317,40.3508],[-0.8342,40.3442],[-0.8417,40.3425],[-0.8458,40.3283],[-0.8342,40.2925],[-0.8358,40.27],[-0.8425,40.2658],[-0.8442,40.2575],[-0.835,40.2517],[-0.8317,40.2425],[-0.8117,40.2508],[-0.8083,40.2567],[-0.7783,40.2567],[-0.7708,40.2617],[-0.7667,40.28],[-0.7775,40.3025],[-0.7525,40.3142],[-0.7317,40.3425],[-0.72,40.34],[-0.7108,40.3458],[-0.6967,40.3342],[-0.6808,40.3367],[-0.6683,40.3325],[-0.6633,40.36],[-0.6483,40.365],[-0.6458,40.3725],[-0.6267,40.3733],[-0.6275,40.3792],[-0.6525,40.3917],[-0.6908,40.3892],[-0.695,40.3942],[-0.7092,40.3917],[-0.7225,40.3975],[-0.7242,40.3892],[-0.7308,40.3867],[-0.7492,40.4025],[-0.7675,40.3917],[-0.7758,40.3783],[-0.7825,40.3783],[-0.8133,40.4025]]]}},{"type":"Feature","properties":{"id":"mora","area_km2":20.9},"geometry":{"type":"Polygon","coordinates":[[[-0.715,40.3458],[-0.72,40.34],[-0.7267,40.3425],[-0.7342,40.3408],[-0.7375,40.3342],[-0.745,40.3275],[-0.745,40.3242],[-0.7508,40.3217],[-0.7517,40.315],[-0.76,40.3108],[-0.7558,40.3075],[-0.7575,40.3],[-0.7575,40.295],[-0.7558,40.2933],[-0.7575,40.2917],[-0.7517,40.29],[-0.7517,40.2767],[-0.7458,40.275],[-0.7458,40.2767],[-0.7408,40.2783],[-0.7358,40.2833],[-0.7325,40.2892],[-0.7292,40.2908],[-0.7292,40.2933],[-0.7233,40.2933],[-0.7167,40.3067],[-0.7175,40.3133],[-0.7158,40.3158],[-0.7075,40.3217],[-0.7067,40.3242],[-0.7025,40.3242],[-0.6983,40.3292],[-0.6908,40.3308],[-0.6917,40.3342],[-0.6967,40.3342],[-0.6983,40.3367],[-0.7058,40.3383],[-0.7058,40.3417],[-0.7083,40.3442],[-0.715,40.3458]]]}},{"type":"Feature","properties":{"id":"balagueras","area_km2":22.6},"geometry":{"type":"Polygon","coordinates":[[[-0.6692,40.3158],[-0.6725,40.3133],[-0.67,40.3108],[-0.6725,40.3058],[-0.6725,40.295],[-0.6658,40.2942],[-0.6608,40.2875],[-0.6625,40.2758],[-0.6658,40.2717],[-0.6658,40.2675],[-0.6633,40.2642],[-0.6642,40.2592],[-0.6667,40.2533],[-0.67,40.2517],[-0.665,40.2458],[-0.6717,40.2442],[-0.6717,40.2408],[-0.68,40.2392],[-0.68,40.2333],[-0.6825,40.2308],[-0.6808,40.2292],[-0.6817,40.2183],[-0.6875,40.215],[-0.685,40.2067],[-0.6758,40.2083],[-0.6725,40.2117],[-0.6733,40.2142],[-0.67,40.215],[-0.6675,40.2192],[-0.6625,40.2192],[-0.6625,40.2258],[-0.6517,40.2283],[-0.6525,40.2308],[-0.655,40.2308],[-0.6517,40.2383],[-0.6533,40.2458],[-0.655,40.2467],[-0.6542,40.2533],[-0.65,40.2592],[-0.6467,40.26],[-0.6458,40.265],[-0.6375,40.2733],[-0.6325,40.2733],[-0.6317,40.2767],[-0.6275,40.2767],[-0.625,40.2792],[-0.6242,40.2858],[-0.6208,40.2892],[-0.6292,40.2917],[-0.6333,40.2958],[-0.6408,40.2958],[-0.6467,40.2983],[-0.655,40.3058],[-0.6583,40.3058],[-0.6692,40.3158]]]}},{"type":"Feature","properties":{"id":"arenos","area_km2":1229.2},"geometry":{"type":"Polygon","coordinates":[[[-0.7708,40.4642],[-0.8458,40.4508],[-0.9208,40.4592],[-0.9317,40.43],[-0.9208,40.4258],[-0.91,40.3608],[-0.9383,40.3442],[-0.9383,40.33],[-0.9517,40.3333],[-0.9617,40.3142],[-0.9533,40.2992],[-0.9983,40.2683],[-0.9942,40.2533],[-1.0125,40.2542],[-1.005,40.2075],[-1.0283,40.1825],[-1.01,40.1492],[-0.9908,40.1458],[-1.035,40.0858],[-1.0117,40.0592],[-1.0158,40.0417],[-0.8775,39.9658],[-0.8675,39.9208],[-0.8317,39.9583],[-0.8458,39.9792],[-0.8325,39.9917],[-0.8392,40.0183],[-0.8142,40.0258],[-0.7775,40.0717],[-0.6592,40.1075],[-0.5717,40.0742],[-0.5442,40.09],[-0.5608,40.1258],[-0.5483,40.1358],[-0.5483,40.1708],[-0.5617,40.2333],[-0.5458,40.2492],[-0.5842,40.2625],[-0.6,40.2833],[-0.6375,40.2733],[-0.6542,40.2533],[-0.6517,40.2283],[-0.6792,40.2067],[-0.6875,40.215],[-0.665,40.2458],[-0.6608,40.2875],[-0.6917,40.3308],[-0.7458,40.275],[-0.7583,40.31],[-0.7767,40.3042],[-0.7667,40.2667],[-0.7783,40.2567],[-0.8317,40.2425],[-0.8442,40.2575],[-0.8383,40.3992],[-0.8067,40.4008],[-0.7825,40.3783],[-0.75,40.4025],[-0.7308,40.3867],[-0.72,40.3975],[-0.7708,40.4642]]]}},{"type":"Feature","properties":{"id":"sichar","area_km2":1058.9},"geometry":{"type":"Polygon","coordinates":[[[-0.63,40.42],[-0.6433,40.3858],[-0.6267,40.3733],[-0.6633,40.36],[-0.6683,40.3325],[-0.6917,40.33],[-0.6208,40.29],[-0.6275,40.2758],[-0.6,40.2833],[-0.5842,40.2625],[-0.5458,40.2492],[-0.5617,40.2317],[-0.5483,40.1708],[-0.5483,40.1358],[-0.5608,40.1258],[-0.545,40.0875],[-0.5717,40.0742],[-0.6575,40.1075],[-0.7242,40.0883],[-0.7775,40.0717],[-0.8142,40.0258],[-0.8392,40.0183],[-0.8367,39.9992],[-0.7883,39.99],[-0.765,40.01],[-0.7358,39.99],[-0.6667,40.0175],[-0.56,39.9892],[-0.5292,40.0058],[-0.4908,40.0067],[-0.4825,39.9858],[-0.4275,39.9717],[-0.4233,39.9483],[-0.395,39.935],[-0.3567,39.9817],[-0.2083,40.01],[-0.225,40.0575],[-0.2525,40.0717],[-0.2675,40.1092],[-0.3367,40.1542],[-0.3592,40.155],[-0.3617,40.1733],[-0.3283,40.1825],[-0.32,40.2108],[-0.3667,40.2383],[-0.3708,40.2625],[-0.4075,40.2508],[-0.46,40.2575],[-0.4925,40.28],[-0.5017,40.2983],[-0.4933,40.3125],[-0.5292,40.33],[-0.5375,40.3742],[-0.5733,40.37],[-0.6017,40.4108],[-0.63,40.42]]]}},{"type":"Feature","properties":{"id":"alcora","area_km2":113.9},"geometry":{"type":"Polygon","coordinates":[[[-0.3017,40.2683],[-0.3117,40.2658],[-0.3125,40.2575],[-0.3175,40.255],[-0.3183,40.2483],[-0.3258,40.2475],[-0.3308,40.235],[-0.3492,40.2317],[-0.3483,40.2242],[-0.32,40.2108],[-0.3242,40.2008],[-0.3217,40.1942],[-0.3283,40.1825],[-0.3425,40.1858],[-0.3617,40.1733],[-0.3625,40.1625],[-0.3567,40.1592],[-0.3592,40.155],[-0.3383,40.155],[-0.31,40.135],[-0.2975,40.1317],[-0.28,40.1108],[-0.2667,40.1083],[-0.2692,40.1],[-0.265,40.0975],[-0.2442,40.0992],[-0.2308,40.0933],[-0.2133,40.0942],[-0.2167,40.1042],[-0.2258,40.1083],[-0.2208,40.1167],[-0.2267,40.1342],[-0.2242,40.1475],[-0.2433,40.1425],[-0.2492,40.16],[-0.2617,40.165],[-0.26,40.17],[-0.2667,40.1875],[-0.2725,40.1867],[-0.265,40.1925],[-0.2692,40.2067],[-0.2633,40.2108],[-0.2658,40.2175],[-0.26,40.2225],[-0.2675,40.2317],[-0.2658,40.2475],[-0.255,40.2542],[-0.2542,40.2625],[-0.2783,40.26],[-0.2817,40.265],[-0.3017,40.2683]]]}},{"type":"Feature","properties":{"id":"maria-cristina","area_km2":1286.8},"geometry":{"type":"Polygon","coordinates":[[[-0.1283,40.4683],[-0.1542,40.4492],[-0.1958,40.4483],[-0.2208,40.4667],[-0.2617,40.4325],[-0.2767,40.4483],[-0.2775,40.4242],[-0.3308,40.4225],[-0.3725,40.3992],[-0.3717,40.3842],[-0.3992,40.3775],[-0.405,40.3892],[-0.4317,40.3683],[-0.465,40.3783],[-0.5292,40.3308],[-0.4933,40.3125],[-0.4975,40.2883],[-0.4733,40.2658],[-0.4075,40.2508],[-0.34,40.3],[-0.3442,40.3142],[-0.3042,40.3533],[-0.26,40.3483],[-0.2883,40.295],[-0.3192,40.2725],[-0.2542,40.2625],[-0.2725,40.1867],[-0.2433,40.1425],[-0.2242,40.1475],[-0.2258,40.1083],[-0.2125,40.095],[-0.26,40.0917],[-0.2483,40.0675],[-0.225,40.0575],[-0.2183,40.0225],[-0.1242,40.0383],[-0.0575,40.0917],[-0.0083,40.0983],[-0.0033,40.0733],[0.0225,40.0792],[0.0367,40.12],[0.07,40.1392],[0.0633,40.1592],[0.0767,40.1575],[0.0883,40.1925],[0.0925,40.2225],[0.0483,40.2208],[0.0183,40.2667],[-0.0067,40.27],[-0.0042,40.2967],[0.025,40.3125],[-0.03,40.3733],[-0.04,40.4558],[-0.0633,40.46],[-0.0817,40.4458],[-0.1283,40.4683]]]}},{"type":"Feature","properties":{"id":"onda","area_km2":20.3},"geometry":{"type":"Polygon","coordinates":[[[-0.3367,39.945],[-0.3433,39.9383],[-0.3433,39.9358],[-0.3483,39.9333],[-0.3658,39.9325],[-0.3717,39.9292],[-0.3808,39.9275],[-0.3842,39.93],[-0.39,39.9308],[-0.3942,39.935],[-0.4008,39.935],[-0.4083,39.9383],[-0.4167,39.9367],[-0.4167,39.935],[-0.4142,39.935],[-0.4133,39.9283],[-0.4092,39.9267],[-0.4075,39.9233],[-0.3908,39.9192],[-0.3883,39.915],[-0.3883,39.91],[-0.3842,39.9067],[-0.3792,39.9058],[-0.3758,39.9008],[-0.3575,39.8975],[-0.3575,39.9],[-0.3542,39.9033],[-0.3508,39.9033],[-0.3475,39.9083],[-0.3383,39.9075],[-0.3342,39.91],[-0.3308,39.9142],[-0.3292,39.9208],[-0.325,39.9233],[-0.325,39.9258],[-0.3283,39.9267],[-0.3283,39.9317],[-0.3258,39.9342],[-0.3267,39.9417],[-0.33,39.945],[-0.3367,39.945]]]}},{"type":"Feature","properties":{"id":"regajo","area_km2":476.0},"geometry":{"type":"Polygon","coordinates":[[[-0.6733,40.0175],[-0.6767,40.0083],[-0.7033,40.0117],[-0.7358,39.99],[-0.765,40.01],[-0.7883,39.99],[-0.835,40.0008],[-0.8325,39.9917],[-0.8458,39.9792],[-0.8317,39.9583],[-0.8467,39.9492],[-0.85,39.9325],[-0.8192,39.8958],[-0.8017,39.8908],[-0.7992,39.8775],[-0.78,39.8667],[-0.7583,39.8692],[-0.7575,39.8575],[-0.7083,39.8242],[-0.69,39.8483],[-0.6817,39.8475],[-0.6825,39.8592],[-0.6533,39.8542],[-0.6483,39.8658],[-0.6092,39.8683],[-0.585,39.8825],[-0.5492,39.865],[-0.5192,39.8758],[-0.52,39.8842],[-0.4867,39.9108],[-0.4658,39.9142],[-0.465,39.9267],[-0.44,39.9392],[-0.4125,39.9375],[-0.4233,39.9483],[-0.4275,39.9717],[-0.4467,39.9817],[-0.4742,39.98],[-0.4908,40.0067],[-0.5292,40.0058],[-0.5733,39.9892],[-0.5983,39.9992],[-0.6167,39.9958],[-0.6233,40.01],[-0.6342,40.0042],[-0.6733,40.0175]]]}},{"type":"Feature","properties":{"id":"algar","area_km2":267.1},"geometry":{"type":"Polygon","coordinates":[[[-0.4358,39.94],[-0.465,39.9267],[-0.4658,39.9142],[-0.4867,39.9108],[-0.52,39.8842],[-0.52,39.8767],[-0.5408,39.8675],[-0.5525,39.8658],[-0.585,39.8825],[-0.6092,39.8683],[-0.6367,39.8617],[-0.6483,39.8658],[-0.6533,39.8542],[-0.6825,39.8592],[-0.6817,39.8475],[-0.69,39.8483],[-0.6967,39.8375],[-0.685,39.8375],[-0.6633,39.8175],[-0.6508,39.8217],[-0.645,39.8158],[-0.6317,39.8183],[-0.625,39.8292],[-0.61,39.8308],[-0.6042,39.81],[-0.5925,39.8042],[-0.5817,39.7833],[-0.5683,39.7933],[-0.5483,39.7958],[-0.545,39.8025],[-0.5075,39.7767],[-0.4917,39.7867],[-0.4583,39.7883],[-0.4575,39.7933],[-0.4258,39.7842],[-0.4208,39.7775],[-0.3842,39.7775],[-0.3767,39.7875],[-0.385,39.8158],[-0.3808,39.8242],[-0.3908,39.8317],[-0.3883,39.8383],[-0.4125,39.8525],[-0.3942,39.8733],[-0.3625,39.88],[-0.36,39.8975],[-0.3858,39.9075],[-0.3908,39.9192],[-0.4075,39.9233],[-0.4142,39.935],[-0.4358,39.94]]]}},{"type":"Feature","properties":{"id":"arquillo","area_km2":813.9},"geometry":{"type":"Polygon","coordinates":[[[-1.4617,40.5817],[-1.4975,40.5633],[-1.5258,40.5775],[-1.5242,40.5658],[-1.5617,40.5458],[-1.5725,40.4858],[-1.6225,40.5],[-1.7142,40.4542],[-1.7317,40.4317],[-1.7242,40.415],[-1.7458,40.4067],[-1.7367,40.3867],[-1.6983,40.3742],[-1.7067,40.3542],[-1.6833,40.3642],[-1.6675,40.3292],[-1.6317,40.3108],[-1.5775,40.3192],[-1.555,40.2767],[-1.5442,40.2967],[-1.5092,40.2925],[-1.5117,40.28],[-1.4933,40.2608],[-1.455,40.2808],[-1.4517,40.3133],[-1.4142,40.33],[-1.405,40.3467],[-1.3267,40.2758],[-1.31,40.2742],[-1.3058,40.2917],[-1.26,40.3],[-1.25,40.3142],[-1.2275,40.3125],[-1.2025,40.3625],[-1.2092,40.3742],[-1.2742,40.3933],[-1.3025,40.4075],[-1.3075,40.4225],[-1.3608,40.4333],[-1.3908,40.4558],[-1.4175,40.4542],[-1.405,40.5142],[-1.4492,40.5358],[-1.4633,40.5567],[-1.4617,40.5817]]]}},{"type":"Feature","properties":{"id":"benageber","area_km2":3358.3},"geometry":{"type":"Polygon","coordinates":[[[-0.9825,40.7533],[-1.0667,40.7292],[-1.105,40.7517],[-1.1542,40.7458],[-1.1392,40.695],[-1.0867,40.6508],[-1.1117,40.6217],[-1.1575,40.6208],[-1.1083,40.5683],[-1.1392,40.5333],[-1.095,40.4992],[-1.1158,40.4808],[-1.0992,40.4658],[-1.1533,40.4333],[-1.2217,40.4642],[-1.305,40.4192],[-1.2025,40.365],[-1.2275,40.3125],[-1.3267,40.2758],[-1.405,40.3467],[-1.4783,40.265],[-1.4258,40.2042],[-1.4608,40.1325],[-1.4392,40.0917],[-1.475,40.075],[-1.4125,40.0508],[-1.2808,39.9417],[-1.2933,39.9317],[-1.2558,39.8833],[-1.2933,39.8675],[-1.32,39.7975],[-1.2025,39.755],[-1.2183,39.725],[-1.1342,39.6375],[-1.1058,39.6575],[-1.1175,39.7133],[-1.0683,39.7433],[-1.1017,39.7817],[-1.0983,39.8242],[-1.0333,39.8417],[-1.07,39.8892],[-1.0367,39.9325],[-1.06,39.9592],[-0.9783,39.9775],[-0.9642,40.0075],[-1.0342,40.0775],[-0.9908,40.1433],[-1.0283,40.1825],[-1.005,40.2075],[-1.0125,40.2542],[-0.91,40.3608],[-0.9283,40.4483],[-0.7775,40.4667],[-0.72,40.3975],[-0.6442,40.385],[-0.635,40.4183],[-0.6042,40.43],[-0.6192,40.4658],[-0.6975,40.485],[-0.7042,40.5267],[-0.7342,40.535],[-0.7208,40.6058],[-0.745,40.6583],[-0.82,40.6517],[-0.8867,40.7117],[-0.9825,40.7533]]]}},{"type":"Feature","properties":{"id":"loriguilla","area_km2":605.7},"geometry":{"type":"Polygon","coordinates":[[[-0.9658,40.0075],[-0.9842,39.9925],[-0.9783,39.9775],[-1.0258,39.9808],[-1.06,39.9592],[-1.0367,39.9325],[-1.0575,39.9067],[-1.07,39.905],[-1.07,39.8892],[-1.0475,39.88],[-1.0333,39.8417],[-1.0442,39.8292],[-1.0983,39.8242],[-1.1025,39.8117],[-1.0917,39.7975],[-1.1017,39.7817],[-1.0833,39.7625],[-1.085,39.7508],[-1.0683,39.7433],[-1.11,39.72],[-1.1225,39.7008],[-1.1233,39.6867],[-1.1092,39.6708],[-1.0733,39.6683],[-1.0217,39.6425],[-1.0033,39.6208],[-0.9533,39.6283],[-0.9517,39.6383],[-0.9258,39.6517],[-0.9225,39.6667],[-0.9017,39.6725],[-0.9067,39.69],[-0.8867,39.7008],[-0.8892,39.7117],[-0.8683,39.73],[-0.9225,39.765],[-0.9008,39.7783],[-0.905,39.7983],[-0.8692,39.8067],[-0.855,39.8217],[-0.8917,39.8483],[-0.8992,39.8658],[-0.8658,39.9033],[-0.8742,39.9133],[-0.8733,39.9417],[-0.905,39.9533],[-0.8975,39.9725],[-0.9125,39.9775],[-0.9142,39.9925],[-0.9658,40.0075]]]}},{"type":"Feature","properties":{"id":"buseo","area_km2":218.6},"geometry":{"type":"Polygon","coordinates":[[[-1.1058,39.6733],[-1.1058,39.6575],[-1.12,39.6583],[-1.1333,39.6367],[-1.1008,39.6217],[-1.0958,39.61],[-1.0842,39.6042],[-1.0892,39.5925],[-1.08,39.5708],[-1.0683,39.57],[-1.0608,39.5583],[-1.0533,39.5583],[-1.0633,39.5325],[-1.0467,39.525],[-1.0492,39.515],[-1.04,39.5058],[-1.0092,39.5008],[-0.9858,39.5133],[-0.9525,39.5067],[-0.95,39.5158],[-0.9358,39.5225],[-0.9367,39.5325],[-0.9217,39.5367],[-0.8775,39.5133],[-0.8625,39.5183],[-0.8667,39.5267],[-0.85,39.5508],[-0.8667,39.5675],[-0.8833,39.5717],[-0.9142,39.595],[-0.9242,39.5883],[-0.935,39.5908],[-0.945,39.6033],[-0.9625,39.6075],[-0.9842,39.6242],[-1.0033,39.6208],[-1.005,39.6292],[-1.0133,39.63],[-1.0217,39.6425],[-1.0733,39.6683],[-1.1058,39.6733]]]}},{"type":"Feature","properties":{"id":"forata","area_km2":1016.6},"geometry":{"type":"Polygon","coordinates":[[[-1.3208,39.7983],[-1.3517,39.7558],[-1.3833,39.7475],[-1.3833,39.7058],[-1.4008,39.7042],[-1.425,39.6692],[-1.4442,39.6675],[-1.445,39.6792],[-1.4733,39.6875],[-1.5,39.6758],[-1.4708,39.6192],[-1.4733,39.5908],[-1.3325,39.5317],[-1.2342,39.5325],[-1.1083,39.4633],[-1.0942,39.44],[-1.1375,39.3958],[-1.1108,39.375],[-1.1283,39.3475],[-1.0908,39.3175],[-1.0508,39.3192],[-1.01,39.3525],[-0.9183,39.3117],[-0.8875,39.3167],[-0.8792,39.3533],[-0.9333,39.4067],[-0.9242,39.4175],[-0.9358,39.4242],[-0.915,39.4267],[-0.9442,39.45],[-0.9408,39.5],[-0.9633,39.5125],[-1.04,39.5058],[-1.0633,39.5325],[-1.0533,39.5583],[-1.08,39.5708],[-1.0842,39.6042],[-1.1942,39.685],[-1.1925,39.715],[-1.2183,39.725],[-1.2025,39.755],[-1.2683,39.78],[-1.2933,39.7767],[-1.3208,39.7983]]]}},{"type":"Feature","properties":{"id":"la-toba","area_km2":375.0},"geometry":{"type":"Polygon","coordinates":[[[-1.8433,40.4042],[-1.8758,40.4008],[-1.8808,40.3817],[-1.9,40.3858],[-1.8742,40.3417],[-1.8317,40.3],[-1.8467,40.2958],[-1.9075,40.31],[-1.9158,40.2983],[-1.9,40.2892],[-1.8908,40.2467],[-1.9067,40.2325],[-1.92,40.2317],[-1.9217,40.2042],[-1.9383,40.1808],[-1.9492,40.1808],[-1.945,40.17],[-1.9567,40.1608],[-1.9358,40.1533],[-1.9267,40.1408],[-1.89,40.135],[-1.8675,40.1525],[-1.8525,40.14],[-1.8525,40.1667],[-1.8283,40.1625],[-1.8267,40.18],[-1.8142,40.1792],[-1.8083,40.2017],[-1.7967,40.2],[-1.7817,40.21],[-1.7692,40.175],[-1.7542,40.1625],[-1.705,40.1842],[-1.6992,40.1983],[-1.6833,40.2],[-1.7175,40.2325],[-1.7108,40.2442],[-1.6933,40.2383],[-1.6792,40.2458],[-1.6892,40.2942],[-1.705,40.2992],[-1.7,40.3067],[-1.7075,40.315],[-1.7233,40.3125],[-1.7208,40.3275],[-1.7383,40.3283],[-1.7683,40.355],[-1.785,40.3517],[-1.8433,40.4042]]]}},{"type":"Feature","properties":{"id":"alarcon","area_km2":2581.6},"geometry":{"type":"Polygon","coordinates":[[[-2.0,40.3492],[-2.0183,40.3342],[-2.0617,40.3442],[-2.1083,40.3058],[-2.1558,40.3008],[-2.1792,40.2392],[-2.2333,40.24],[-2.2658,40.195],[-2.3067,40.185],[-2.3283,40.1192],[-2.3067,40.0692],[-2.3392,40.0617],[-2.38,39.9725],[-2.4583,39.9508],[-2.485,39.915],[-2.4517,39.8492],[-2.4733,39.82],[-2.4033,39.7183],[-2.4358,39.69],[-2.295,39.6667],[-2.2467,39.5875],[-2.2017,39.5717],[-2.2117,39.5533],[-2.175,39.53],[-2.065,39.5767],[-2.0792,39.6292],[-2.04,39.6575],[-2.0842,39.6908],[-2.0542,39.6958],[-2.0542,39.725],[-2.0008,39.7808],[-2.0475,39.87],[-1.9942,39.8725],[-2.03,39.9025],[-1.9833,39.9117],[-1.9992,39.9725],[-1.9783,40.0092],[-1.9475,40.0083],[-1.9567,40.0775],[-1.92,40.0892],[-1.9375,40.1058],[-1.8742,40.1142],[-1.8542,40.1392],[-1.9567,40.1592],[-1.9225,40.2283],[-1.8908,40.2492],[-1.9008,40.29],[-1.9417,40.3142],[-1.9767,40.3092],[-2.0,40.3492]]]}},{"type":"Feature","properties":{"id":"contreras","area_km2":3235.6},"geometry":{"type":"Polygon","coordinates":[[[-1.6858,40.3242],[-1.705,40.2992],[-1.6792,40.2458],[-1.7175,40.2325],[-1.6842,40.1992],[-1.7542,40.1625],[-1.7808,40.21],[-1.8083,40.2017],[-1.8283,40.1625],[-1.8533,40.1658],[-1.8742,40.1142],[-1.9233,40.1125],[-1.9375,40.1033],[-1.92,40.0892],[-1.9567,40.0775],[-1.9408,40.025],[-1.9892,39.9967],[-1.9917,39.9308],[-1.9433,39.9325],[-1.9208,39.9608],[-1.88,39.9133],[-1.9433,39.9083],[-1.9675,39.8792],[-2.0108,39.8875],[-1.995,39.8708],[-2.0408,39.8758],[-2.0467,39.8575],[-2.0158,39.8292],[-2.025,39.8058],[-1.9658,39.7867],[-1.9692,39.77],[-1.8308,39.7167],[-1.7608,39.6617],[-1.705,39.675],[-1.65,39.6375],[-1.6517,39.5992],[-1.59,39.5383],[-1.5033,39.545],[-1.445,39.5142],[-1.415,39.5625],[-1.4733,39.5908],[-1.5008,39.6742],[-1.3842,39.705],[-1.3833,39.7475],[-1.3517,39.7558],[-1.3,39.825],[-1.3025,39.855],[-1.255,39.8992],[-1.3233,39.9883],[-1.365,39.9942],[-1.4125,40.0508],[-1.475,40.075],[-1.4392,40.0917],[-1.4608,40.1325],[-1.4258,40.2042],[-1.45,40.24],[-1.5108,40.2933],[-1.5442,40.2967],[-1.555,40.2767],[-1.5775,40.3192],[-1.6858,40.3242]]]}},{"type":"Feature","properties":{"id":"escalona","area_km2":509.2},"geometry":{"type":"Polygon","coordinates":[[[-0.8833,39.2575],[-0.8967,39.2525],[-0.9075,39.2242],[-0.9242,39.2225],[-0.9175,39.2025],[-0.9575,39.1742],[-0.9142,39.1508],[-0.9175,39.1383],[-0.9483,39.1158],[-0.9183,39.09],[-0.9367,39.0733],[-0.9808,39.0667],[-0.9875,39.0342],[-0.9383,38.9892],[-0.9967,38.965],[-1.0,38.9492],[-0.98,38.94],[-0.94,38.9408],[-0.8842,38.9758],[-0.8325,38.9883],[-0.8317,39.0208],[-0.7783,39.0567],[-0.7708,39.0883],[-0.7542,39.0967],[-0.7275,39.0775],[-0.6892,39.0717],[-0.6792,39.0742],[-0.6825,39.0975],[-0.6558,39.0842],[-0.6475,39.0892],[-0.6733,39.1192],[-0.7,39.13],[-0.6967,39.1392],[-0.72,39.1858],[-0.715,39.1942],[-0.7292,39.2125],[-0.7733,39.2292],[-0.7975,39.2175],[-0.8233,39.2175],[-0.8417,39.2417],[-0.8767,39.2475],[-0.8833,39.2575]]]}},{"type":"Feature","properties":{"id":"tous","area_km2":9208.4},"geometry":{"type":"Polygon","coordinates":[[[-2.0008,39.79],[-2.0542,39.6958],[-2.0842,39.6908],[-2.04,39.6575],[-2.0792,39.6292],[-2.065,39.5767],[-2.1858,39.52],[-2.1625,39.4617],[-2.115,39.4383],[-2.15,39.3667],[-2.0867,39.22],[-2.1225,39.1625],[-2.2,39.1375],[-2.2683,39.0192],[-2.3392,39.0175],[-2.3617,38.9683],[-2.4183,38.9808],[-2.4733,38.9492],[-2.4475,38.93],[-2.4458,38.8833],[-2.4725,38.8417],[-2.4217,38.8142],[-2.5142,38.7525],[-2.4967,38.7267],[-2.4608,38.7367],[-2.425,38.6617],[-2.3592,38.6308],[-2.275,38.6525],[-2.2217,38.6233],[-2.1833,38.7075],[-2.1317,38.7183],[-2.0417,38.7342],[-1.945,38.7008],[-1.8925,38.7383],[-1.8142,38.7458],[-1.7833,38.7242],[-1.7625,38.7458],[-1.7125,38.7308],[-1.6833,38.7575],[-1.6175,38.7417],[-1.5575,38.7842],[-1.5925,38.8217],[-1.6333,38.7958],[-1.675,38.8125],[-1.6683,38.855],[-1.5867,38.91],[-1.4892,38.8833],[-1.49,38.9108],[-1.4033,38.9917],[-1.3242,38.9967],[-1.2667,38.9633],[-1.1475,38.9458],[-1.1133,39.0033],[-1.0167,38.935],[-0.9383,38.9883],[-0.9867,39.0492],[-0.9183,39.09],[-0.9483,39.1158],[-0.9142,39.1508],[-0.9575,39.1742],[-0.8833,39.2575],[-0.8233,39.2175],[-0.7292,39.2125],[-0.6825,39.1208],[-0.625,39.14],[-0.6533,39.2175],[-0.6933,39.225],[-0.7017,39.2742],[-0.7617,39.2783],[-0.7633,39.305],[-0.8933,39.2942],[-1.01,39.3525],[-1.0708,39.3142],[-1.1142,39.3308],[-1.1308,39.3533],[-1.1108,39.375],[-1.1375,39.3975],[-1.0958,39.445],[-1.2342,39.5325],[-1.3283,39.5308],[-1.4133,39.5625],[-1.445,39.5142],[-1.5033,39.545],[-1.59,39.5383],[-1.6517,39.5992],[-1.65,39.6375],[-1.705,39.675],[-1.7608,39.6617],[-2.0008,39.79]]]}},{"type":"Feature","properties":{"id":"bellus","area_km2":490.6},"geometry":{"type":"Polygon","coordinates":[[[-0.3983,38.9875],[-0.4417,38.98],[-0.44,38.9558],[-0.465,38.9392],[-0.515,38.9317],[-0.525,38.92],[-0.57,38.9333],[-0.6333,38.8825],[-0.6542,38.8758],[-0.6617,38.8608],[-0.7158,38.83],[-0.7292,38.8358],[-0.7575,38.8233],[-0.765,38.8167],[-0.7617,38.8],[-0.7383,38.7867],[-0.755,38.76],[-0.7117,38.7492],[-0.6583,38.76],[-0.6467,38.7492],[-0.6558,38.7392],[-0.6425,38.7275],[-0.585,38.7583],[-0.5575,38.7533],[-0.5242,38.7667],[-0.53,38.7942],[-0.5208,38.8075],[-0.4667,38.8033],[-0.46,38.8158],[-0.4042,38.8325],[-0.4033,38.84],[-0.3808,38.835],[-0.3558,38.8492],[-0.3508,38.8575],[-0.3742,38.8583],[-0.3642,38.8908],[-0.38,38.9125],[-0.3642,38.9258],[-0.3608,38.96],[-0.3875,38.9658],[-0.3858,38.9767],[-0.3983,38.9875]]]}},{"type":"Feature","properties":{"id":"beniarres","area_km2":464.6},"geometry":{"type":"Polygon","coordinates":[[[-0.4033,38.84],[-0.4042,38.8325],[-0.46,38.8158],[-0.4667,38.8033],[-0.5208,38.8075],[-0.53,38.7942],[-0.5242,38.7667],[-0.5667,38.755],[-0.5617,38.735],[-0.5775,38.71],[-0.6158,38.69],[-0.6258,38.6683],[-0.6017,38.6508],[-0.585,38.6583],[-0.5042,38.6583],[-0.5017,38.615],[-0.4883,38.6067],[-0.4033,38.6458],[-0.3825,38.64],[-0.3692,38.65],[-0.3458,38.6517],[-0.3375,38.6442],[-0.2858,38.6542],[-0.285,38.6658],[-0.2967,38.6675],[-0.3017,38.6808],[-0.3,38.7067],[-0.2708,38.7192],[-0.2742,38.7358],[-0.2483,38.7475],[-0.2625,38.7458],[-0.2758,38.7608],[-0.2875,38.7608],[-0.2892,38.7708],[-0.3208,38.7808],[-0.3233,38.7958],[-0.3342,38.7975],[-0.3483,38.8158],[-0.3742,38.8175],[-0.4033,38.84]]]}},{"type":"Feature","properties":{"id":"guadalest","area_km2":61.6},"geometry":{"type":"Polygon","coordinates":[[[-0.2592,38.7183],[-0.2617,38.7158],[-0.2775,38.7175],[-0.2858,38.7092],[-0.2933,38.7108],[-0.3,38.7067],[-0.3017,38.7017],[-0.2967,38.6917],[-0.3017,38.6808],[-0.2967,38.6792],[-0.2958,38.6742],[-0.2992,38.6725],[-0.2967,38.6675],[-0.285,38.6658],[-0.2858,38.6533],[-0.2683,38.6492],[-0.2133,38.6492],[-0.2092,38.6567],[-0.215,38.6592],[-0.2142,38.6625],[-0.2075,38.6667],[-0.2033,38.675],[-0.1933,38.6775],[-0.1883,38.6833],[-0.175,38.685],[-0.1708,38.6908],[-0.1642,38.69],[-0.1642,38.695],[-0.1958,38.7033],[-0.2067,38.71],[-0.2592,38.7183]]]}},{"type":"Feature","properties":{"id":"amadorio","area_km2":203.0},"geometry":{"type":"Polygon","coordinates":[[[-0.3008,38.6558],[-0.3375,38.6442],[-0.3483,38.6517],[-0.3742,38.6492],[-0.3825,38.64],[-0.3975,38.6458],[-0.4058,38.64],[-0.415,38.6425],[-0.4183,38.635],[-0.41,38.6308],[-0.3908,38.6],[-0.3975,38.5925],[-0.3917,38.5858],[-0.4075,38.575],[-0.4042,38.565],[-0.3933,38.5583],[-0.3992,38.5442],[-0.3967,38.535],[-0.3617,38.5383],[-0.355,38.5292],[-0.3358,38.5275],[-0.3275,38.52],[-0.2775,38.535],[-0.2658,38.5325],[-0.2533,38.5375],[-0.2483,38.5592],[-0.23,38.58],[-0.2408,38.5917],[-0.2333,38.6025],[-0.2175,38.6108],[-0.1833,38.6117],[-0.1892,38.6292],[-0.1842,38.6408],[-0.1933,38.6508],[-0.2533,38.6483],[-0.3008,38.6558]]]}},{"type":"Feature","properties":{"id":"fuensanta","area_km2":899.0},"geometry":{"type":"Polygon","coordinates":[[[-2.2467,38.3808],[-2.2833,38.3675],[-2.3217,38.3742],[-2.4,38.3458],[-2.4458,38.3567],[-2.4917,38.3075],[-2.5242,38.3067],[-2.5308,38.2683],[-2.5875,38.3017],[-2.6292,38.2583],[-2.6575,38.2517],[-2.6483,38.2267],[-2.6725,38.1892],[-2.6667,38.18],[-2.6842,38.1417],[-2.7058,38.1183],[-2.7208,38.0725],[-2.7117,38.06],[-2.7275,38.0542],[-2.72,38.0233],[-2.7392,38.0108],[-2.7208,37.9625],[-2.6867,37.9758],[-2.6725,37.9583],[-2.6058,37.9958],[-2.5833,38.0242],[-2.5742,38.0142],[-2.5483,38.0233],[-2.5433,38.0142],[-2.4592,38.065],[-2.4533,38.0775],[-2.5092,38.0717],[-2.5192,38.0892],[-2.5242,38.09],[-2.5242,38.0908],[-2.49,38.1225],[-2.4342,38.1333],[-2.3767,38.175],[-2.3833,38.185],[-2.36,38.2167],[-2.3775,38.2183],[-2.385,38.2475],[-2.3325,38.2667],[-2.2975,38.3008],[-2.2767,38.2958],[-2.2108,38.3508],[-2.2133,38.3742],[-2.2358,38.3667],[-2.2467,38.3808]]]}},{"type":"Feature","properties":{"id":"cenajo","area_km2":1701.2},"geometry":{"type":"Polygon","coordinates":[[[-2.1417,38.5342],[-2.3167,38.4842],[-2.5283,38.3675],[-2.5383,38.3408],[-2.5875,38.3333],[-2.585,38.2958],[-2.5567,38.2908],[-2.5392,38.2658],[-2.5242,38.3067],[-2.4917,38.3075],[-2.4458,38.3567],[-2.4,38.3458],[-2.3042,38.3767],[-2.2117,38.3725],[-2.2125,38.3483],[-2.2767,38.2958],[-2.2975,38.3008],[-2.3325,38.2667],[-2.385,38.2475],[-2.3775,38.2183],[-2.36,38.2167],[-2.3767,38.175],[-2.4342,38.1333],[-2.49,38.1225],[-2.525,38.09],[-2.5108,38.0725],[-2.3283,38.0683],[-2.29,38.0908],[-2.24,38.065],[-2.1925,38.0958],[-2.175,38.1408],[-2.135,38.1517],[-2.1308,38.18],[-2.17,38.1867],[-2.1633,38.2],[-2.1833,38.2258],[-1.98,38.2458],[-1.975,38.2833],[-1.9367,38.3108],[-1.8075,38.3333],[-1.8133,38.3508],[-1.7758,38.3633],[-1.8058,38.3817],[-1.82,38.4183],[-1.8567,38.43],[-1.8608,38.4633],[-1.8858,38.4842],[-1.9167,38.4717],[-1.9733,38.4958],[-2.0167,38.4908],[-2.1417,38.5342]]]}},{"type":"Feature","properties":{"id":"talave","area_km2":760.7},"geometry":{"type":"Polygon","coordinates":[[[-2.1733,38.6567],[-2.2192,38.6367],[-2.2217,38.6233],[-2.275,38.6525],[-2.2958,38.645],[-2.3217,38.6533],[-2.3808,38.6175],[-2.4558,38.5358],[-2.5292,38.5067],[-2.4558,38.4725],[-2.45,38.4517],[-2.4608,38.4092],[-2.3875,38.4475],[-2.3575,38.4508],[-2.3108,38.4867],[-2.2867,38.485],[-2.2708,38.5017],[-2.2375,38.5],[-2.2042,38.515],[-2.205,38.5242],[-2.1758,38.5167],[-2.1417,38.5342],[-2.0808,38.5092],[-2.0342,38.5075],[-2.0167,38.4908],[-1.9733,38.4958],[-1.9167,38.4717],[-1.9033,38.4858],[-1.875,38.4733],[-1.8408,38.4842],[-1.875,38.52],[-1.8833,38.54],[-1.8667,38.5583],[-1.885,38.5825],[-1.9267,38.5792],[-1.9575,38.5975],[-1.9592,38.6183],[-2.0017,38.6275],[-2.0833,38.6025],[-2.1183,38.65],[-2.1733,38.6567]]]}},{"type":"Feature","properties":{"id":"camarillas","area_km2":1462.0},"geometry":{"type":"Polygon","coordinates":[[[-1.6833,38.7575],[-1.7608,38.7042],[-1.6983,38.6808],[-1.6825,38.6558],[-1.6983,38.6417],[-1.7175,38.6383],[-1.7342,38.6667],[-1.765,38.67],[-1.775,38.6933],[-1.7825,38.6517],[-1.8275,38.6425],[-1.9167,38.7058],[-1.9825,38.7033],[-2.0417,38.7342],[-2.1833,38.7075],[-2.1983,38.6475],[-2.1183,38.65],[-2.0833,38.6025],[-2.0067,38.6275],[-1.9692,38.6225],[-1.9492,38.59],[-1.885,38.5825],[-1.8733,38.5608],[-1.8642,38.5817],[-1.8167,38.5617],[-1.7892,38.5842],[-1.7508,38.575],[-1.7375,38.5475],[-1.7533,38.5533],[-1.7633,38.52],[-1.7992,38.5158],[-1.8608,38.5558],[-1.8833,38.54],[-1.8408,38.4875],[-1.875,38.4725],[-1.8567,38.43],[-1.835,38.4292],[-1.8042,38.3983],[-1.7842,38.4275],[-1.7292,38.3925],[-1.6675,38.39],[-1.6617,38.3558],[-1.5942,38.3417],[-1.5367,38.3958],[-1.5433,38.4125],[-1.465,38.4408],[-1.4533,38.4892],[-1.4733,38.5233],[-1.4075,38.5425],[-1.4158,38.5733],[-1.3767,38.6192],[-1.3917,38.6542],[-1.3442,38.6783],[-1.3967,38.7008],[-1.4483,38.6492],[-1.5508,38.6383],[-1.5692,38.6692],[-1.585,38.6625],[-1.6008,38.6833],[-1.5958,38.7225],[-1.6142,38.7375],[-1.5992,38.7533],[-1.6183,38.7417],[-1.6833,38.7575]]]}},{"type":"Feature","properties":{"id":"boqueron","area_km2":51.7},"geometry":{"type":"Polygon","coordinates":[[[-1.7892,38.5842],[-1.8017,38.5792],[-1.8142,38.5617],[-1.8233,38.565],[-1.8267,38.5708],[-1.8325,38.5733],[-1.8333,38.5775],[-1.8408,38.5767],[-1.85,38.5825],[-1.8675,38.5808],[-1.8717,38.5775],[-1.8675,38.5742],[-1.87,38.5717],[-1.8667,38.565],[-1.8683,38.5592],[-1.8667,38.5558],[-1.8608,38.5558],[-1.8558,38.5492],[-1.8467,38.5483],[-1.8425,38.5417],[-1.8375,38.5417],[-1.8267,38.5317],[-1.8192,38.5317],[-1.8133,38.5233],[-1.8083,38.52],[-1.8033,38.5208],[-1.7992,38.5158],[-1.7908,38.5233],[-1.7767,38.5208],[-1.775,38.5183],[-1.7633,38.52],[-1.7583,38.5308],[-1.7592,38.545],[-1.7533,38.5533],[-1.7458,38.5533],[-1.7375,38.5475],[-1.7367,38.5542],[-1.7408,38.555],[-1.74,38.5583],[-1.7458,38.5617],[-1.7475,38.565],[-1.745,38.57],[-1.7508,38.575],[-1.7583,38.5725],[-1.7658,38.575],[-1.7692,38.5817],[-1.7742,38.5842],[-1.7792,38.5817],[-1.7892,38.5842]]]}},{"type":"Feature","properties":{"id":"bayco","area_km2":239.4},"geometry":{"type":"Polygon","coordinates":[[[-1.4608,38.7875],[-1.505,38.7725],[-1.5083,38.7608],[-1.5242,38.7675],[-1.535,38.765],[-1.5383,38.7725],[-1.5483,38.77],[-1.555,38.7767],[-1.5917,38.76],[-1.6142,38.735],[-1.5958,38.7225],[-1.6033,38.7167],[-1.5967,38.7042],[-1.6008,38.6833],[-1.5925,38.68],[-1.5942,38.6733],[-1.5858,38.6633],[-1.5692,38.6692],[-1.5492,38.645],[-1.5508,38.6383],[-1.525,38.645],[-1.5017,38.6358],[-1.4833,38.6483],[-1.4467,38.65],[-1.4333,38.6583],[-1.4242,38.6775],[-1.4025,38.6875],[-1.3967,38.7008],[-1.3883,38.6967],[-1.3908,38.71],[-1.3775,38.7108],[-1.3642,38.7375],[-1.4008,38.75],[-1.395,38.7675],[-1.4125,38.7658],[-1.4208,38.7792],[-1.4392,38.7733],[-1.4425,38.7817],[-1.4608,38.7875]]]}},{"type":"Feature","properties":{"id":"charcos","area_km2":28.1},"geometry":{"type":"Polygon","coordinates":[[[-1.755,38.705],[-1.7583,38.7017],[-1.7625,38.7033],[-1.7683,38.7],[-1.7733,38.7],[-1.7758,38.6967],[-1.775,38.6925],[-1.7708,38.6917],[-1.7692,38.6867],[-1.765,38.6842],[-1.7708,38.6808],[-1.765,38.67],[-1.7508,38.6692],[-1.7442,38.6658],[-1.7342,38.6667],[-1.7258,38.6575],[-1.725,38.6492],[-1.7175,38.6383],[-1.7092,38.6433],[-1.7075,38.6467],[-1.7017,38.6417],[-1.6983,38.6417],[-1.6825,38.6517],[-1.6833,38.6592],[-1.6917,38.6633],[-1.6942,38.6692],[-1.7017,38.6767],[-1.6983,38.6792],[-1.6992,38.6817],[-1.7125,38.6817],[-1.7175,38.6867],[-1.7217,38.6867],[-1.7233,38.6925],[-1.7267,38.6942],[-1.7283,38.6983],[-1.7383,38.6992],[-1.7425,38.7025],[-1.755,38.705]]]}},{"type":"Feature","properties":{"id":"la-risca","area_km2":79.5},"geometry":{"type":"Polygon","coordinates":[[[-2.0992,38.2425],[-2.1042,38.2383],[-2.1392,38.2308],[-2.1842,38.225],[-2.175,38.2033],[-2.1633,38.2],[-2.17,38.1867],[-2.1533,38.1825],[-2.1392,38.185],[-2.1308,38.18],[-2.1367,38.1783],[-2.1392,38.1692],[-2.1358,38.1617],[-2.1392,38.1592],[-2.135,38.1517],[-2.1083,38.1483],[-2.1092,38.155],[-2.105,38.1575],[-2.08,38.1558],[-2.0783,38.1658],[-2.0608,38.1683],[-2.0525,38.175],[-2.0525,38.18],[-2.0625,38.1883],[-2.0608,38.2092],[-2.0475,38.2117],[-2.045,38.2167],[-2.0375,38.2192],[-2.0375,38.2292],[-2.0483,38.2358],[-2.08,38.2267],[-2.0817,38.2342],[-2.0992,38.2425]]]}},{"type":"Feature","properties":{"id":"moratalla","area_km2":252.6},"geometry":{"type":"Polygon","coordinates":[[[-1.86,38.2683],[-1.8725,38.2567],[-1.8942,38.255],[-1.9233,38.24],[-1.9542,38.2392],[-1.9558,38.2542],[-1.9908,38.2433],[-2.0333,38.2467],[-2.045,38.2367],[-2.0367,38.22],[-2.0608,38.2092],[-2.0625,38.1883],[-2.0525,38.18],[-2.0558,38.1725],[-2.0433,38.155],[-2.0283,38.1575],[-2.0283,38.1875],[-2.0067,38.1933],[-1.98,38.185],[-1.9658,38.1567],[-1.9517,38.15],[-1.9167,38.1375],[-1.9167,38.15],[-1.9033,38.1525],[-1.885,38.1408],[-1.8833,38.1325],[-1.8675,38.1317],[-1.8208,38.1508],[-1.8067,38.1617],[-1.8067,38.1708],[-1.7775,38.1867],[-1.7542,38.22],[-1.7367,38.225],[-1.7417,38.2508],[-1.7967,38.2383],[-1.8133,38.2417],[-1.8225,38.2592],[-1.86,38.2683]]]}},{"type":"Feature","properties":{"id":"argos","area_km2":451.2},"geometry":{"type":"Polygon","coordinates":[[[-2.0108,38.1933],[-2.0283,38.1875],[-2.0283,38.1575],[-2.0433,38.155],[-2.0567,38.1725],[-2.0783,38.1658],[-2.08,38.1558],[-2.105,38.1575],[-2.1083,38.1483],[-2.1358,38.1517],[-2.14,38.1433],[-2.175,38.1408],[-2.1917,38.1092],[-2.1683,38.0908],[-2.1483,38.0958],[-2.1433,38.0775],[-2.1208,38.0775],[-2.1242,38.0525],[-2.1058,38.0433],[-2.1083,38.0292],[-2.0975,38.0208],[-2.0525,38.0342],[-2.025,38.0108],[-1.9992,38.0275],[-1.9608,38.0283],[-1.9475,38.0442],[-1.895,38.0475],[-1.8925,38.0617],[-1.8592,38.0542],[-1.8092,38.0733],[-1.7967,38.0908],[-1.7517,38.1058],[-1.7442,38.1225],[-1.7275,38.1225],[-1.7317,38.1358],[-1.7158,38.1575],[-1.7267,38.1808],[-1.7425,38.1817],[-1.7733,38.1667],[-1.8058,38.1692],[-1.83,38.1458],[-1.8833,38.1325],[-1.9033,38.1525],[-1.9167,38.15],[-1.9175,38.1375],[-1.9658,38.1567],[-1.98,38.185],[-2.0108,38.1933]]]}},{"type":"Feature","properties":{"id":"alfonso-xiii","area_km2":851.1},"geometry":{"type":"Polygon","coordinates":[[[-1.6392,38.2292],[-1.6408,38.2092],[-1.6992,38.18],[-1.695,38.1725],[-1.71,38.1683],[-1.7317,38.1358],[-1.7267,38.1233],[-1.7442,38.1225],[-1.7675,38.0958],[-1.7967,38.0908],[-1.8092,38.0733],[-1.8592,38.0542],[-1.8925,38.0617],[-1.895,38.0475],[-1.9475,38.0442],[-1.9608,38.0283],[-1.9992,38.0275],[-2.025,38.0108],[-2.0525,38.0342],[-2.0975,38.0208],[-2.1058,38.0433],[-2.1242,38.0525],[-2.1208,38.0775],[-2.1433,38.0775],[-2.1483,38.0958],[-2.1683,38.0908],[-2.1842,38.1075],[-2.24,38.065],[-2.2633,38.0675],[-2.2825,38.0258],[-2.2575,38.0],[-2.255,37.9733],[-2.2325,37.9642],[-2.2267,37.9467],[-2.24,37.9317],[-2.2275,37.9225],[-2.2408,37.9167],[-2.2425,37.8933],[-2.2058,37.88],[-2.1467,37.9033],[-2.1133,37.9],[-2.0792,37.9358],[-2.05,37.94],[-2.0183,37.9158],[-1.9625,37.9283],[-1.9183,37.9708],[-1.8808,37.9725],[-1.8575,37.9942],[-1.8367,37.9883],[-1.7825,38.0283],[-1.6933,38.03],[-1.6458,38.0558],[-1.6275,38.0875],[-1.5883,38.0992],[-1.5817,38.1142],[-1.5175,38.1025],[-1.4817,38.1183],[-1.5058,38.1367],[-1.51,38.1625],[-1.5375,38.17],[-1.5342,38.1833],[-1.5583,38.2033],[-1.5517,38.21],[-1.6392,38.2292]]]}},{"type":"Feature","properties":{"id":"carcabo","area_km2":30.5},"geometry":{"type":"Polygon","coordinates":[[[-1.505,38.2167],[-1.5308,38.2208],[-1.5325,38.2167],[-1.5383,38.2158],[-1.55,38.2083],[-1.5567,38.2083],[-1.5583,38.2033],[-1.5542,38.2017],[-1.5542,38.1983],[-1.55,38.1942],[-1.5433,38.1933],[-1.5433,38.19],[-1.54,38.1883],[-1.5383,38.1833],[-1.5342,38.1833],[-1.5375,38.17],[-1.5333,38.1658],[-1.5183,38.1608],[-1.5108,38.1617],[-1.4942,38.1683],[-1.4908,38.1783],[-1.4883,38.1783],[-1.4817,38.1858],[-1.4825,38.19],[-1.4742,38.1933],[-1.4825,38.2025],[-1.4833,38.21],[-1.49,38.2183],[-1.505,38.2167]]]}},{"type":"Feature","properties":{"id":"judio","area_km2":686.5},"geometry":{"type":"Polygon","coordinates":[[[-1.3475,38.6775],[-1.3917,38.6542],[-1.38,38.6492],[-1.3858,38.6342],[-1.3767,38.6192],[-1.4158,38.5733],[-1.4075,38.5425],[-1.4733,38.5233],[-1.46,38.5108],[-1.4517,38.4725],[-1.4675,38.4533],[-1.4683,38.4342],[-1.4492,38.4142],[-1.465,38.4083],[-1.4642,38.39],[-1.4933,38.3658],[-1.4533,38.3317],[-1.455,38.2967],[-1.4033,38.2683],[-1.3683,38.2742],[-1.3675,38.2908],[-1.3492,38.3017],[-1.3508,38.3175],[-1.3375,38.3308],[-1.3508,38.34],[-1.3342,38.3517],[-1.335,38.3775],[-1.2967,38.4],[-1.2675,38.4017],[-1.2433,38.4425],[-1.2075,38.4308],[-1.175,38.44],[-1.135,38.435],[-1.1083,38.4917],[-1.1567,38.495],[-1.1942,38.5425],[-1.2083,38.5458],[-1.2217,38.57],[-1.2,38.5842],[-1.21,38.595],[-1.2625,38.5867],[-1.2783,38.5733],[-1.2975,38.5917],[-1.2858,38.605],[-1.3208,38.6358],[-1.315,38.645],[-1.3292,38.6708],[-1.3475,38.6775]]]}},{"type":"Feature","properties":{"id":"moro","area_km2":380.6},"geometry":{"type":"Polygon","coordinates":[[[-1.2383,38.4433],[-1.2558,38.4333],[-1.2533,38.4208],[-1.2675,38.4017],[-1.2967,38.4],[-1.3058,38.3875],[-1.3358,38.3767],[-1.3342,38.3517],[-1.3508,38.34],[-1.3375,38.33],[-1.3508,38.3175],[-1.3492,38.3017],[-1.3675,38.2908],[-1.3683,38.2742],[-1.3842,38.2575],[-1.3758,38.24],[-1.3817,38.23],[-1.3458,38.225],[-1.3542,38.2292],[-1.3517,38.2425],[-1.335,38.2567],[-1.2467,38.2508],[-1.2233,38.2725],[-1.1892,38.2642],[-1.1692,38.275],[-1.1658,38.295],[-1.11,38.3075],[-1.1,38.3267],[-1.0683,38.3458],[-1.0775,38.3642],[-1.0942,38.3683],[-1.0867,38.3942],[-1.0925,38.4242],[-1.1075,38.4292],[-1.1458,38.4208],[-1.1675,38.44],[-1.2075,38.4308],[-1.225,38.4325],[-1.2383,38.4433]]]}},{"type":"Feature","properties":{"id":"mayes","area_km2":13.5},"geometry":{"type":"Polygon","coordinates":[[[-1.4142,38.1367],[-1.4308,38.1317],[-1.4308,38.1283],[-1.4275,38.1233],[-1.43,38.1225],[-1.4325,38.1142],[-1.4267,38.1117],[-1.42,38.1058],[-1.4192,38.1017],[-1.4142,38.1008],[-1.4117,38.0967],[-1.4,38.1017],[-1.3958,38.1017],[-1.3892,38.095],[-1.3842,38.0992],[-1.38,38.0992],[-1.38,38.1042],[-1.3742,38.1092],[-1.3742,38.1117],[-1.3717,38.1117],[-1.3742,38.1175],[-1.3792,38.1217],[-1.3842,38.12],[-1.3942,38.1217],[-1.4058,38.1208],[-1.4058,38.13],[-1.4142,38.1367]]]}},{"type":"Feature","properties":{"id":"la-cierva","area_km2":173.0},"geometry":{"type":"Polygon","coordinates":[[[-1.6275,38.0875],[-1.6458,38.0558],[-1.6667,38.0508],[-1.6933,38.03],[-1.7175,38.0325],[-1.7283,38.0275],[-1.7308,38.0317],[-1.7408,38.0225],[-1.7825,38.0283],[-1.7892,38.0217],[-1.7883,38.015],[-1.8225,38.0],[-1.8233,37.9883],[-1.8167,37.985],[-1.8142,37.9742],[-1.8067,37.9758],[-1.8025,37.9692],[-1.7842,37.9667],[-1.77,37.9542],[-1.7425,37.96],[-1.7208,37.94],[-1.7217,37.93],[-1.7125,37.9325],[-1.6967,37.9242],[-1.6908,37.9283],[-1.6892,37.955],[-1.685,37.9567],[-1.6933,37.9742],[-1.6808,37.9775],[-1.6725,37.9867],[-1.6608,37.9842],[-1.6625,37.9908],[-1.6475,37.9958],[-1.6433,38.0108],[-1.6325,38.0133],[-1.63,38.0267],[-1.6175,38.0308],[-1.6075,38.0258],[-1.6058,38.0317],[-1.58,38.0433],[-1.5758,38.0367],[-1.5692,38.0367],[-1.56,38.0467],[-1.5275,38.0458],[-1.5225,38.0525],[-1.4883,38.0583],[-1.4833,38.0642],[-1.4908,38.0733],[-1.5017,38.0733],[-1.5125,38.0808],[-1.5458,38.07],[-1.5692,38.0742],[-1.5733,38.0808],[-1.59,38.0792],[-1.6275,38.0875]]]}},{"type":"Feature","properties":{"id":"dona-ana","area_km2":20.1},"geometry":{"type":"Polygon","coordinates":[[[-1.58,38.0433],[-1.585,38.0383],[-1.5992,38.0358],[-1.6033,38.0317],[-1.6058,38.0317],[-1.6075,38.0258],[-1.6175,38.0308],[-1.62,38.0308],[-1.6242,38.0267],[-1.63,38.0267],[-1.6283,38.0217],[-1.6325,38.0167],[-1.6325,38.0133],[-1.6283,38.0117],[-1.6192,38.0133],[-1.6183,38.0108],[-1.6133,38.01],[-1.6125,38.0075],[-1.6008,38.0008],[-1.58,38.0017],[-1.5758,37.9975],[-1.57,37.9958],[-1.5692,37.9983],[-1.5725,38.0017],[-1.5708,38.0075],[-1.5733,38.0092],[-1.5717,38.0125],[-1.5558,38.0192],[-1.55,38.0183],[-1.5475,38.0208],[-1.5475,38.0242],[-1.5608,38.0342],[-1.5758,38.0367],[-1.5758,38.04],[-1.58,38.0433]]]}},{"type":"Feature","properties":{"id":"pliego","area_km2":202.2},"geometry":{"type":"Polygon","coordinates":[[[-1.6192,38.0133],[-1.6433,38.0108],[-1.6483,37.995],[-1.6625,37.9908],[-1.6608,37.9842],[-1.6725,37.9867],[-1.6933,37.9742],[-1.685,37.9567],[-1.6892,37.955],[-1.6908,37.9283],[-1.7017,37.9108],[-1.6892,37.9058],[-1.6692,37.9092],[-1.6883,37.885],[-1.6608,37.8583],[-1.5975,37.8625],[-1.585,37.8725],[-1.5708,37.8642],[-1.5567,37.8725],[-1.5583,37.8975],[-1.5392,37.8992],[-1.5242,37.9367],[-1.5075,37.9517],[-1.5083,37.9592],[-1.4967,37.9717],[-1.5092,37.975],[-1.52,37.9858],[-1.565,37.9892],[-1.58,38.0017],[-1.6008,38.0008],[-1.6192,38.0133]]]}},{"type":"Feature","properties":{"id":"los-rodeos","area_km2":252.0},"geometry":{"type":"Polygon","coordinates":[[[-1.4333,38.1317],[-1.4567,38.1183],[-1.4675,38.1225],[-1.4767,38.1158],[-1.4958,38.1175],[-1.5175,38.1025],[-1.5817,38.1142],[-1.58,38.1075],[-1.5883,38.0992],[-1.6225,38.0875],[-1.5733,38.0808],[-1.5692,38.0742],[-1.5458,38.07],[-1.5125,38.0808],[-1.4833,38.065],[-1.4883,38.0583],[-1.5225,38.0525],[-1.5275,38.0458],[-1.56,38.0467],[-1.5692,38.0358],[-1.5475,38.0208],[-1.5717,38.0125],[-1.57,37.9933],[-1.52,37.9858],[-1.505,37.9733],[-1.4967,37.9775],[-1.4942,37.99],[-1.485,37.9908],[-1.4867,38.0033],[-1.4575,37.9875],[-1.4192,37.9842],[-1.3658,38.02],[-1.3492,38.01],[-1.335,38.01],[-1.2992,38.03],[-1.2958,38.0433],[-1.2867,38.0492],[-1.29,38.0542],[-1.3025,38.0592],[-1.33,38.055],[-1.3433,38.0692],[-1.38,38.0883],[-1.3842,38.0983],[-1.3892,38.095],[-1.4,38.1017],[-1.4117,38.0967],[-1.4325,38.1142],[-1.4275,38.125],[-1.4333,38.1317]]]}},{"type":"Feature","properties":{"id":"valdeinfierno","area_km2":426.7},"geometry":{"type":"Polygon","coordinates":[[[-2.05,37.94],[-2.0792,37.9358],[-2.11,37.9008],[-2.1467,37.9033],[-2.1567,37.8917],[-2.1858,37.8925],[-2.2067,37.88],[-2.2042,37.8658],[-2.2233,37.8617],[-2.2158,37.855],[-2.18,37.8542],[-2.1767,37.8475],[-2.1875,37.825],[-2.2375,37.8058],[-2.2425,37.79],[-2.2333,37.7742],[-2.2392,37.7383],[-2.2183,37.7083],[-2.1908,37.7042],[-2.1925,37.6758],[-2.1558,37.6883],[-2.1575,37.7075],[-2.135,37.7375],[-2.0925,37.7317],[-2.0758,37.7375],[-2.06,37.7558],[-2.0125,37.7492],[-2.0008,37.76],[-1.9758,37.765],[-1.965,37.8067],[-1.9408,37.815],[-1.9483,37.8217],[-1.9383,37.8275],[-1.9392,37.8392],[-1.975,37.8392],[-1.9658,37.8592],[-1.9933,37.8792],[-2.0042,37.8767],[-2.0067,37.8925],[-2.0158,37.8983],[-2.0125,37.9158],[-2.05,37.94]]]}},{"type":"Feature","properties":{"id":"puentes","area_km2":992.3},"geometry":{"type":"Polygon","coordinates":[[[-1.8258,37.995],[-1.9183,37.9708],[-1.9625,37.9283],[-2.0142,37.9192],[-2.0042,37.8767],[-1.9658,37.8592],[-1.975,37.8392],[-1.9392,37.8392],[-1.9408,37.815],[-1.965,37.8067],[-1.9758,37.765],[-2.0125,37.7492],[-2.06,37.7558],[-2.0925,37.7317],[-2.135,37.7375],[-2.16,37.6842],[-2.235,37.6692],[-2.2492,37.65],[-2.29,37.6517],[-2.3158,37.6217],[-2.3875,37.6317],[-2.3667,37.5892],[-2.3742,37.5567],[-2.3575,37.5475],[-2.3125,37.5575],[-2.2142,37.5525],[-2.1758,37.5867],[-2.1375,37.5575],[-2.1033,37.585],[-2.0508,37.5917],[-2.0117,37.6325],[-1.9833,37.6358],[-1.9883,37.645],[-1.9333,37.6517],[-1.9125,37.64],[-1.8958,37.6517],[-1.8817,37.6875],[-1.8642,37.6917],[-1.86,37.7167],[-1.8183,37.7342],[-1.8233,37.7542],[-1.8083,37.785],[-1.8208,37.815],[-1.8017,37.8592],[-1.7642,37.8975],[-1.7333,37.91],[-1.7133,37.9025],[-1.6967,37.9175],[-1.7208,37.9308],[-1.7425,37.96],[-1.77,37.9542],[-1.8142,37.9742],[-1.8258,37.995]]]}},{"type":"Feature","properties":{"id":"algeciras","area_km2":44.6},"geometry":{"type":"Polygon","coordinates":[[[-1.5042,37.9083],[-1.535,37.9092],[-1.54,37.8983],[-1.5583,37.8975],[-1.5583,37.8883],[-1.52,37.8833],[-1.5183,37.8792],[-1.5125,37.8783],[-1.5125,37.8733],[-1.5058,37.8717],[-1.4733,37.8842],[-1.465,37.8842],[-1.46,37.8792],[-1.4533,37.88],[-1.4475,37.8775],[-1.4475,37.8742],[-1.44,37.8675],[-1.43,37.8683],[-1.4225,37.865],[-1.4,37.8792],[-1.39,37.8808],[-1.3808,37.8958],[-1.39,37.9042],[-1.4,37.9075],[-1.4417,37.9075],[-1.4458,37.9033],[-1.4575,37.9025],[-1.4625,37.8975],[-1.4783,37.9017],[-1.4908,37.8992],[-1.5042,37.9083]]]}},{"type":"Feature","properties":{"id":"jose-bautista","area_km2":1678.2},"geometry":{"type":"Polygon","coordinates":[[[-1.445,37.96],[-1.5133,37.9492],[-1.5333,37.9092],[-1.3808,37.8967],[-1.4192,37.8658],[-1.465,37.8842],[-1.5058,37.8717],[-1.5583,37.8883],[-1.5708,37.8642],[-1.6608,37.8583],[-1.6883,37.885],[-1.6692,37.9092],[-1.7642,37.8975],[-1.8208,37.815],[-1.8083,37.785],[-1.8183,37.7342],[-1.86,37.7167],[-1.895,37.6525],[-1.9125,37.64],[-1.9883,37.645],[-2.0642,37.5892],[-2.0108,37.5583],[-1.8425,37.5167],[-1.8242,37.4842],[-1.7658,37.5475],[-1.6083,37.5275],[-1.565,37.5583],[-1.5783,37.5925],[-1.5083,37.6167],[-1.5325,37.6283],[-1.5117,37.6675],[-1.4525,37.6808],[-1.3892,37.7192],[-1.3517,37.7167],[-1.2958,37.7858],[-1.3067,37.815],[-1.2883,37.835],[-1.3508,37.8892],[-1.3583,37.9275],[-1.445,37.96]]]}},{"type":"Feature","properties":{"id":"santomera","area_km2":146.9},"geometry":{"type":"Polygon","coordinates":[[[-1.1858,38.2675],[-1.1933,38.2625],[-1.1925,38.2433],[-1.1825,38.2367],[-1.1867,38.2267],[-1.1808,38.2158],[-1.2183,38.1808],[-1.2025,38.1733],[-1.2033,38.1642],[-1.1958,38.1583],[-1.1983,38.1525],[-1.1883,38.1475],[-1.1875,38.1308],[-1.1792,38.1275],[-1.1658,38.1108],[-1.1483,38.1058],[-1.14,38.0942],[-1.1142,38.105],[-1.1025,38.1042],[-1.0958,38.0958],[-1.0875,38.0942],[-1.0792,38.1067],[-1.07,38.1067],[-1.0608,38.1275],[-1.0683,38.1383],[-1.0667,38.16],[-1.075,38.1675],[-1.07,38.1767],[-1.0725,38.1892],[-1.0842,38.1942],[-1.09,38.205],[-1.1025,38.2125],[-1.1258,38.2125],[-1.135,38.2208],[-1.145,38.2183],[-1.15,38.2308],[-1.1458,38.2417],[-1.16,38.2475],[-1.1558,38.2583],[-1.1858,38.2675]]]}},{"type":"Feature","properties":{"id":"la-pedrera","area_km2":57.6},"geometry":{"type":"Polygon","coordinates":[[[-0.89,38.0467],[-0.8967,38.0458],[-0.8967,38.0392],[-0.9,38.0383],[-0.9033,38.03],[-0.9167,38.0292],[-0.9233,38.0175],[-0.9267,38.0175],[-0.9275,38.0092],[-0.9225,38.0042],[-0.9225,37.9983],[-0.935,37.99],[-0.925,37.9858],[-0.925,37.9817],[-0.9117,37.9817],[-0.9108,37.9842],[-0.8983,37.9808],[-0.8892,37.9825],[-0.8867,37.9675],[-0.8825,37.9625],[-0.89,37.9583],[-0.89,37.9542],[-0.8633,37.955],[-0.8633,37.9575],[-0.8558,37.9608],[-0.845,37.9608],[-0.8408,37.9667],[-0.8342,37.9675],[-0.8375,37.9783],[-0.8308,37.9883],[-0.8333,37.9992],[-0.8275,38.0033],[-0.8275,38.0075],[-0.8342,38.01],[-0.8475,38.0275],[-0.865,38.0342],[-0.8692,38.04],[-0.875,38.0392],[-0.89,38.0467]]]}},{"type":"Feature","properties":{"id":"crevillente","area_km2":12.4},"geometry":{"type":"Polygon","coordinates":[[[-0.8117,38.2925],[-0.8192,38.2883],[-0.8333,38.29],[-0.8358,38.2892],[-0.8367,38.2858],[-0.8342,38.2842],[-0.8225,38.2842],[-0.8242,38.2817],[-0.8125,38.2708],[-0.8142,38.27],[-0.8142,38.2667],[-0.8117,38.2575],[-0.7967,38.2567],[-0.7933,38.2525],[-0.7867,38.2517],[-0.7858,38.2583],[-0.7817,38.2592],[-0.7833,38.2617],[-0.7817,38.2633],[-0.7825,38.2683],[-0.7758,38.275],[-0.775,38.2833],[-0.7825,38.2858],[-0.7933,38.2842],[-0.8,38.2875],[-0.8033,38.2917],[-0.8117,38.2925]]]}}]}