{"type":"FeatureCollection","name":"Comunitat Valenciana boundary, provinces, coastline, land mask","attribution":"© AEMET. Obra derivada de BDLJE CC-BY ign.es © Instituto Geográfico Nacional de España","features":[{"type":"Feature","properties":{"kind":"province","code":"03","name":"Alicante","area_km2":5820.5},"geometry":{"type":"MultiPolygon","coordinates":[[[[-0.4696,38.1626],[-0.4831,38.167],[-0.4684,38.1659],[-0.4637,38.1636],[-0.4696,38.1626]]],[[[-0.9873,38.1999],[-0.9766,38.2387],[-0.9674,38.2562],[-0.9679,38.2818],[-0.9703,38.2905],[-0.9833,38.3075],[-0.9878,38.321],[-1.0272,38.339],[-1.0574,38.346],[-1.0832,38.3466],[-1.0869,38.3682],[-1.0856,38.3974],[-1.0869,38.4028],[-1.0849,38.4189],[-1.0842,38.4296],[-1.076,38.4319],[-1.093,38.4383],[-1.0809,38.4415],[-1.0581,38.4562],[-1.0337,38.4749],[-1.0147,38.4947],[-1.0127,38.4975],[-1.0249,38.5232],[-1.0147,38.5375],[-1.0083,38.5583],[-1.0004,38.5731],[-1.0065,38.5917],[-1.0108,38.6065],[-1.0147,38.6355],[-1.0228,38.6404],[-1.0257,38.6559],[-1.0096,38.657],[-1.0079,38.6587],[-0.9903,38.6555],[-0.9613,38.6573],[-0.9313,38.6779],[-0.9146,38.6964],[-0.924,38.7051],[-0.9273,38.709],[-0.9265,38.7135],[-0.9367,38.7263],[-0.9383,38.7321],[-0.9447,38.7371],[-0.9602,38.7752],[-0.9488,38.7765],[-0.9277,38.7842],[-0.9137,38.7818],[-0.9163,38.7766],[-0.912,38.77],[-0.9038,38.7675],[-0.8866,38.7695],[-0.8813,38.7724],[-0.8605,38.7713],[-0.859,38.7698],[-0.8345,38.7416],[-0.8364,38.7369],[-0.8334,38.7328],[-0.8305,38.7328],[-0.8162,38.7384],[-0.8092,38.7386],[-0.8054,38.7357],[-0.7999,38.7376],[-0.7915,38.7396],[-0.7864,38.7469],[-0.7825,38.7488],[-0.7784,38.7471],[-0.7645,38.7514],[-0.7603,38.7495],[-0.7509,38.7558],[-0.7422,38.756],[-0.7436,38.7597],[-0.736,38.7571],[-0.7337,38.7598],[-0.7308,38.7567],[-0.7348,38.754],[-0.7321,38.7521],[-0.721,38.7541],[-0.716,38.751],[-0.7072,38.7396],[-0.706,38.7342],[-0.6876,38.7417],[-0.6764,38.7295],[-0.6699,38.732],[-0.652,38.7309],[-0.6422,38.7282],[-0.6424,38.7187],[-0.6388,38.7076],[-0.6413,38.7045],[-0.6283,38.69],[-0.6275,38.687],[-0.6169,38.6871],[-0.6156,38.6901],[-0.6077,38.6948],[-0.5926,38.7003],[-0.583,38.709],[-0.55,38.7175],[-0.5337,38.7334],[-0.5234,38.736],[-0.5221,38.7385],[-0.5147,38.7401],[-0.511,38.7438],[-0.5059,38.7434],[-0.5063,38.7557],[-0.5197,38.7571],[-0.524,38.7606],[-0.5247,38.7643],[-0.5303,38.7676],[-0.5407,38.7642],[-0.5406,38.7622],[-0.5553,38.7579],[-0.5587,38.7543],[-0.5644,38.7558],[-0.5742,38.7645],[-0.5831,38.7688],[-0.5888,38.7773],[-0.5888,38.7849],[-0.5951,38.7907],[-0.5924,38.7923],[-0.594,38.7955],[-0.579,38.8013],[-0.5664,38.8021],[-0.559,38.8045],[-0.5471,38.8061],[-0.5341,38.8108],[-0.5244,38.811],[-0.5146,38.8072],[-0.4783,38.805],[-0.4733,38.8043],[-0.4607,38.808],[-0.4594,38.8153],[-0.4463,38.8201],[-0.4431,38.8209],[-0.4421,38.8195],[-0.4391,38.8242],[-0.4303,38.8269],[-0.4029,38.8335],[-0.4032,38.8393],[-0.401,38.8402],[-0.392,38.8366],[-0.3812,38.8349],[-0.354,38.8502],[-0.3501,38.8567],[-0.3487,38.8577],[-0.3522,38.859],[-0.3436,38.8622],[-0.3345,38.8644],[-0.3225,38.8639],[-0.3115,38.8754],[-0.3096,38.8819],[-0.2981,38.8821],[-0.2879,38.873],[-0.2722,38.8644],[-0.2591,38.8603],[-0.2447,38.859],[-0.2409,38.861],[-0.2294,38.8539],[-0.1951,38.8598],[-0.1965,38.8667],[-0.1875,38.8738],[-0.1789,38.8792],[-0.1664,38.8803],[-0.1611,38.8832],[-0.1596,38.8878],[-0.1526,38.8723],[-0.1539,38.8609],[-0.1469,38.8588],[-0.1009,38.8754],[-0.0943,38.8753],[-0.0909,38.8719],[-0.0886,38.8796],[-0.0771,38.8809],[-0.0775,38.8845],[-0.0694,38.8861],[-0.064,38.879],[-0.0637,38.8752],[-0.0558,38.8695],[-0.0447,38.865],[-0.041,38.8568],[-0.0335,38.8573],[-0.0262,38.862],[-0.0272,38.8676],[-0.0236,38.8727],[-0.0281,38.8743],[-0.0322,38.8797],[-0.0359,38.881],[-0.0365,38.8868],[-0.014,38.8725],[0.0118,38.8661],[0.0163,38.8642],[0.0226,38.8654],[0.0377,38.8603],[0.0558,38.8636],[0.0798,38.8569],[0.0947,38.8549],[0.1016,38.8499],[0.1209,38.8453],[0.1103,38.8475],[0.1121,38.844],[0.1212,38.8365],[0.1232,38.8446],[0.1216,38.8364],[0.1273,38.8332],[0.1312,38.8327],[0.1347,38.8352],[0.1485,38.8319],[0.1519,38.8284],[0.1556,38.8281],[0.1621,38.8211],[0.1679,38.8182],[0.1746,38.814],[0.1856,38.8117],[0.1985,38.8047],[0.1993,38.8019],[0.1912,38.8004],[0.1886,38.7958],[0.1893,38.7996],[0.1852,38.7983],[0.1835,38.7952],[0.1843,38.7881],[0.1918,38.7775],[0.1925,38.7726],[0.1951,38.7732],[0.211,38.7611],[0.2206,38.7606],[0.2219,38.7633],[0.2247,38.7651],[0.2226,38.758],[0.2268,38.755],[0.2248,38.7516],[0.2269,38.745],[0.2339,38.746],[0.2329,38.732],[0.2272,38.7337],[0.2233,38.7312],[0.2197,38.7313],[0.2161,38.7283],[0.215,38.7326],[0.2054,38.7324],[0.1977,38.7296],[0.2004,38.7262],[0.1963,38.7248],[0.1911,38.7246],[0.1856,38.7206],[0.1834,38.7213],[0.1805,38.7172],[0.1763,38.7136],[0.1682,38.7109],[0.1655,38.7039],[0.1592,38.6983],[0.1569,38.6984],[0.1564,38.6872],[0.1544,38.6855],[0.1497,38.6795],[0.147,38.6881],[0.1308,38.6873],[0.1251,38.6846],[0.1163,38.6743],[0.1095,38.6751],[0.0993,38.6732],[0.089,38.665],[0.0895,38.6624],[0.086,38.6599],[0.0792,38.6533],[0.0803,38.6514],[0.0763,38.6477],[0.0746,38.6425],[0.0768,38.6414],[0.0779,38.6365],[0.0814,38.6354],[0.0841,38.6319],[0.0746,38.6325],[0.0711,38.6361],[0.0724,38.6391],[0.0594,38.6422],[0.048,38.6417],[0.0351,38.6353],[0.0315,38.6315],[0.0317,38.6263],[0.0113,38.6332],[0.0068,38.6289],[0.0041,38.631],[-0.0025,38.6313],[-0.0155,38.6269],[-0.0306,38.6166],[-0.0318,38.613],[-0.0391,38.6062],[-0.0406,38.6069],[-0.0412,38.6037],[-0.0526,38.5937],[-0.0517,38.5898],[-0.0543,38.5919],[-0.0628,38.5775],[-0.0627,38.5716],[-0.0478,38.564],[-0.0519,38.5599],[-0.058,38.5589],[-0.0671,38.5477],[-0.0675,38.5442],[-0.0724,38.5418],[-0.0737,38.5391],[-0.0779,38.5381],[-0.0871,38.5315],[-0.0968,38.5238],[-0.1077,38.5293],[-0.1065,38.5319],[-0.1082,38.5336],[-0.1254,38.5354],[-0.1302,38.5329],[-0.1304,38.5347],[-0.1339,38.5365],[-0.1468,38.5363],[-0.158,38.5311],[-0.1608,38.5278],[-0.1591,38.5254],[-0.1627,38.5237],[-0.1665,38.5235],[-0.1729,38.516],[-0.1774,38.5156],[-0.1791,38.5172],[-0.1856,38.5144],[-0.1874,38.5156],[-0.1985,38.5148],[-0.2104,38.5108],[-0.2157,38.5072],[-0.2141,38.5092],[-0.2156,38.5101],[-0.2262,38.5071],[-0.2364,38.4998],[-0.264,38.4949],[-0.3003,38.4823],[-0.3151,38.475],[-0.3177,38.4715],[-0.3328,38.4633],[-0.3417,38.4559],[-0.369,38.4442],[-0.3744,38.4424],[-0.3756,38.4382],[-0.3803,38.4373],[-0.3827,38.432],[-0.3855,38.4321],[-0.3902,38.4223],[-0.3907,38.4151],[-0.4001,38.4125],[-0.4072,38.3825],[-0.408,38.3591],[-0.4015,38.3533],[-0.4113,38.352],[-0.4288,38.3537],[-0.4321,38.3552],[-0.4333,38.3603],[-0.4426,38.3631],[-0.4711,38.3491],[-0.4776,38.3443],[-0.4766,38.3374],[-0.4853,38.3311],[-0.4773,38.3378],[-0.4794,38.3442],[-0.486,38.3398],[-0.4843,38.3383],[-0.481,38.3387],[-0.4835,38.3363],[-0.4888,38.3357],[-0.4852,38.3355],[-0.4873,38.3337],[-0.4902,38.336],[-0.4935,38.3359],[-0.4939,38.3376],[-0.5021,38.3354],[-0.5084,38.3281],[-0.5131,38.3175],[-0.5188,38.298],[-0.5182,38.2753],[-0.5139,38.2407],[-0.5106,38.2319],[-0.5092,38.2247],[-0.5059,38.213],[-0.5088,38.2024],[-0.5132,38.1973],[-0.522,38.1924],[-0.5355,38.1892],[-0.5381,38.1896],[-0.5517,38.1897],[-0.5552,38.1894],[-0.5596,38.1854],[-0.5555,38.1906],[-0.5593,38.1916],[-0.5941,38.1883],[-0.6114,38.1758],[-0.6248,38.1549],[-0.6331,38.1429],[-0.6373,38.1288],[-0.6449,38.0914],[-0.6505,38.0339],[-0.6488,38.0299],[-0.6515,38.0249],[-0.6512,38.0106],[-0.6457,38.0048],[-0.6463,38.0018],[-0.6536,37.9944],[-0.6522,37.9931],[-0.6547,37.992],[-0.6538,37.9862],[-0.6559,37.9848],[-0.6547,37.9833],[-0.6585,37.9841],[-0.6628,37.9808],[-0.6648,37.9764],[-0.6674,37.9776],[-0.6769,37.974],[-0.6789,37.9691],[-0.686,37.9652],[-0.6789,37.97],[-0.678,37.9729],[-0.6802,37.9758],[-0.6819,37.9744],[-0.6858,37.9763],[-0.6917,37.9736],[-0.6927,37.9721],[-0.6867,37.9677],[-0.6941,37.9713],[-0.7021,37.9564],[-0.7037,37.9415],[-0.7092,37.942],[-0.7164,37.9371],[-0.7213,37.9211],[-0.718,37.9126],[-0.7194,37.911],[-0.7278,37.9143],[-0.7349,37.9093],[-0.7392,37.9096],[-0.7453,37.8998],[-0.747,37.9006],[-0.749,37.8991],[-0.7509,37.8887],[-0.7528,37.8724],[-0.7545,37.8681],[-0.7587,37.8676],[-0.7599,37.8656],[-0.761,37.8474],[-0.7701,37.8443],[-0.7818,37.8456],[-0.7963,37.8534],[-0.8027,37.8596],[-0.8295,37.8648],[-0.8403,37.8727],[-0.8501,37.8822],[-0.899,37.9236],[-0.9212,37.9469],[-0.933,37.9693],[-0.9565,37.9974],[-0.9648,38.0131],[-0.9807,38.0297],[-0.9974,38.0518],[-1.0054,38.0554],[-1.0092,38.06],[-1.0214,38.0761],[-1.0291,38.0975],[-1.0294,38.1163],[-1.0356,38.1381],[-1.0076,38.1673],[-1.0037,38.1725],[-0.9949,38.1883],[-0.9873,38.1999]]],[[[-0.127,38.5029],[-0.1282,38.5016],[-0.1312,38.5021],[-0.1295,38.5045],[-0.127,38.5029]]],[[[0.2324,38.7554],[0.2305,38.7539],[0.2295,38.7566],[0.2314,38.7576],[0.2324,38.7554]]]]}},{"type":"Feature","properties":{"kind":"province","code":"12","name":"Castellón","area_km2":6636.3},"geometry":{"type":"MultiPolygon","coordinates":[[[[0.6718,39.8917],[0.6716,39.8921],[0.6723,39.8921],[0.6718,39.8917]]],[[[0.6894,39.901],[0.6895,39.8992],[0.6856,39.897],[0.6869,39.8952],[0.6898,39.8953],[0.6883,39.8937],[0.6855,39.895],[0.6849,39.8976],[0.6894,39.901]]],[[[-0.3271,39.8018],[-0.3767,39.8002],[-0.3876,39.7904],[-0.3906,39.7803],[-0.3847,39.7768],[-0.3857,39.7695],[-0.3878,39.7691],[-0.3949,39.759],[-0.4084,39.7456],[-0.418,39.7464],[-0.4318,39.7368],[-0.4379,39.7372],[-0.4363,39.7335],[-0.4382,39.7304],[-0.4439,39.7193],[-0.4472,39.7168],[-0.4598,39.7157],[-0.4625,39.7209],[-0.4695,39.7268],[-0.4739,39.7322],[-0.4815,39.7346],[-0.497,39.7479],[-0.5047,39.7598],[-0.5073,39.7711],[-0.5123,39.7762],[-0.5126,39.7795],[-0.5294,39.7963],[-0.5472,39.7961],[-0.5573,39.7909],[-0.5758,39.7736],[-0.5801,39.7571],[-0.587,39.7421],[-0.6298,39.7467],[-0.6511,39.7545],[-0.6465,39.7883],[-0.6435,39.792],[-0.6549,39.8363],[-0.6673,39.8408],[-0.6899,39.8528],[-0.6939,39.8504],[-0.7058,39.8355],[-0.7113,39.8172],[-0.7213,39.8136],[-0.7247,39.8149],[-0.7265,39.8166],[-0.7292,39.8152],[-0.7324,39.8188],[-0.7356,39.8211],[-0.7367,39.8278],[-0.7354,39.8295],[-0.7392,39.8323],[-0.744,39.8323],[-0.7439,39.8361],[-0.7528,39.8436],[-0.7723,39.8702],[-0.7919,39.8816],[-0.7965,39.8814],[-0.7964,39.8836],[-0.8007,39.8854],[-0.8037,39.8928],[-0.8232,39.9034],[-0.8317,39.9114],[-0.832,39.9178],[-0.8392,39.9253],[-0.8352,39.9287],[-0.8356,39.9337],[-0.8386,39.9424],[-0.8451,39.9481],[-0.843,39.9544],[-0.838,39.9559],[-0.8345,39.9604],[-0.8402,39.9693],[-0.8336,39.9797],[-0.8231,39.9827],[-0.8151,39.9828],[-0.7988,39.9917],[-0.7884,39.9903],[-0.7757,40.0005],[-0.7755,40.0013],[-0.7661,40.0104],[-0.761,40.0416],[-0.7524,40.047],[-0.7464,40.0382],[-0.7296,40.0428],[-0.7234,40.0397],[-0.7177,40.0391],[-0.7121,40.0426],[-0.7016,40.047],[-0.6824,40.0446],[-0.6629,40.0518],[-0.6447,40.068],[-0.6404,40.0679],[-0.6368,40.07],[-0.6347,40.0679],[-0.6345,40.0725],[-0.6304,40.0708],[-0.6279,40.0751],[-0.626,40.0766],[-0.6219,40.0756],[-0.6218,40.0698],[-0.6175,40.0687],[-0.6124,40.0704],[-0.6275,40.1025],[-0.6081,40.1261],[-0.6053,40.1286],[-0.6028,40.1271],[-0.5973,40.1289],[-0.5956,40.1327],[-0.5896,40.1341],[-0.585,40.1319],[-0.5789,40.1376],[-0.5773,40.1384],[-0.5783,40.1476],[-0.5735,40.1491],[-0.5743,40.152],[-0.5693,40.1558],[-0.568,40.1595],[-0.5728,40.173],[-0.5701,40.1762],[-0.5693,40.1807],[-0.5709,40.1818],[-0.5625,40.189],[-0.5567,40.2012],[-0.5579,40.2105],[-0.5467,40.2446],[-0.543,40.252],[-0.5258,40.2383],[-0.5094,40.2321],[-0.5004,40.2335],[-0.4933,40.2291],[-0.4875,40.2336],[-0.4761,40.2356],[-0.4688,40.2405],[-0.4654,40.2361],[-0.4619,40.2347],[-0.4506,40.2357],[-0.4269,40.2442],[-0.3873,40.262],[-0.3822,40.2657],[-0.3839,40.2738],[-0.3816,40.2787],[-0.3891,40.2883],[-0.3992,40.2952],[-0.3926,40.2981],[-0.3935,40.3007],[-0.3913,40.299],[-0.3888,40.3002],[-0.3903,40.3028],[-0.3889,40.306],[-0.3865,40.3076],[-0.3837,40.3058],[-0.3779,40.3104],[-0.3776,40.3086],[-0.3747,40.3053],[-0.3717,40.3091],[-0.3724,40.3053],[-0.3696,40.3054],[-0.3688,40.307],[-0.3649,40.3055],[-0.3687,40.3105],[-0.362,40.3169],[-0.3583,40.3135],[-0.3537,40.3151],[-0.3524,40.3136],[-0.3509,40.3181],[-0.3473,40.321],[-0.3484,40.3285],[-0.3463,40.3284],[-0.3454,40.3254],[-0.3419,40.3258],[-0.3425,40.3276],[-0.3399,40.3294],[-0.3408,40.3338],[-0.3418,40.3345],[-0.3394,40.3403],[-0.3364,40.3397],[-0.3356,40.3414],[-0.3312,40.3419],[-0.3304,40.3452],[-0.3228,40.3483],[-0.3132,40.3587],[-0.3075,40.358],[-0.3034,40.363],[-0.2969,40.3621],[-0.2885,40.3683],[-0.2879,40.3658],[-0.2842,40.3668],[-0.2812,40.3654],[-0.2827,40.3694],[-0.2788,40.3698],[-0.2795,40.3772],[-0.2842,40.3868],[-0.2947,40.3957],[-0.3003,40.3981],[-0.306,40.4095],[-0.3135,40.4161],[-0.3316,40.4259],[-0.3461,40.4443],[-0.3415,40.4439],[-0.3416,40.4469],[-0.3377,40.4493],[-0.3372,40.4553],[-0.3314,40.4594],[-0.3188,40.4612],[-0.3079,40.4661],[-0.2922,40.4663],[-0.2942,40.4708],[-0.2862,40.4727],[-0.2846,40.4704],[-0.2808,40.4742],[-0.278,40.4731],[-0.2757,40.4762],[-0.2716,40.474],[-0.2702,40.4788],[-0.2729,40.482],[-0.2785,40.4838],[-0.2784,40.4886],[-0.2736,40.4942],[-0.2764,40.5019],[-0.2864,40.5099],[-0.2965,40.5061],[-0.3006,40.5163],[-0.2963,40.5316],[-0.2889,40.5443],[-0.2913,40.547],[-0.2891,40.5534],[-0.2928,40.5543],[-0.2913,40.557],[-0.2948,40.5608],[-0.295,40.5649],[-0.2937,40.5707],[-0.2979,40.5736],[-0.2987,40.5777],[-0.2931,40.5843],[-0.2923,40.5922],[-0.2942,40.5956],[-0.2921,40.5967],[-0.2938,40.6004],[-0.2911,40.6051],[-0.2921,40.6114],[-0.2979,40.6133],[-0.3108,40.6116],[-0.3209,40.6032],[-0.3336,40.6078],[-0.3421,40.6069],[-0.3428,40.6115],[-0.359,40.6159],[-0.3693,40.6139],[-0.3764,40.6192],[-0.3783,40.6252],[-0.3752,40.6367],[-0.3704,40.6423],[-0.3715,40.6479],[-0.3696,40.6511],[-0.3782,40.6574],[-0.3803,40.6619],[-0.3767,40.6679],[-0.3701,40.6682],[-0.3684,40.6704],[-0.3693,40.6726],[-0.355,40.678],[-0.3276,40.6806],[-0.3209,40.6781],[-0.3192,40.6687],[-0.3157,40.664],[-0.3058,40.6598],[-0.3056,40.6638],[-0.2989,40.6675],[-0.2924,40.6743],[-0.2877,40.6727],[-0.2778,40.6805],[-0.2598,40.6854],[-0.2492,40.6911],[-0.2348,40.6914],[-0.2363,40.6983],[-0.2324,40.7089],[-0.2352,40.71],[-0.238,40.7184],[-0.2362,40.7238],[-0.2301,40.7294],[-0.2305,40.7331],[-0.228,40.736],[-0.2293,40.7389],[-0.2255,40.7444],[-0.2228,40.7545],[-0.2116,40.7586],[-0.2092,40.7677],[-0.201,40.7754],[-0.2005,40.7799],[-0.1929,40.7825],[-0.196,40.7848],[-0.1656,40.7861],[-0.1637,40.789],[-0.1433,40.7858],[-0.146,40.7755],[-0.1426,40.769],[-0.1368,40.7662],[-0.1319,40.7583],[-0.1256,40.7537],[-0.1117,40.7487],[-0.1063,40.7437],[-0.1008,40.743],[-0.0853,40.7385],[-0.0786,40.7337],[-0.0635,40.7277],[-0.0525,40.7282],[-0.0425,40.7265],[-0.0302,40.7228],[-0.0214,40.7305],[-0.0165,40.7315],[0.0102,40.73],[0.0158,40.729],[0.0191,40.7262],[0.0173,40.7236],[0.0199,40.7199],[0.0296,40.7135],[0.0257,40.7076],[0.0276,40.6953],[0.0434,40.6913],[0.0739,40.7146],[0.1137,40.7275],[0.1131,40.725],[0.1177,40.7254],[0.125,40.7211],[0.1425,40.7188],[0.163,40.7229],[0.1719,40.7332],[0.1834,40.7286],[0.1922,40.7315],[0.1985,40.7245],[0.2173,40.7326],[0.2273,40.7335],[0.2253,40.726],[0.2278,40.7174],[0.2377,40.702],[0.2431,40.7007],[0.2525,40.7052],[0.2636,40.7062],[0.2713,40.7034],[0.2781,40.6947],[0.293,40.6889],[0.2935,40.6855],[0.2866,40.6793],[0.2833,40.6732],[0.2754,40.67],[0.2695,40.6599],[0.2705,40.6484],[0.2672,40.6451],[0.2722,40.6386],[0.2778,40.6366],[0.28,40.6304],[0.2935,40.6236],[0.2996,40.6263],[0.3019,40.623],[0.317,40.6144],[0.3202,40.6152],[0.331,40.6114],[0.3458,40.6079],[0.352,40.6085],[0.3723,40.6054],[0.3896,40.6071],[0.3935,40.6045],[0.404,40.6023],[0.4076,40.5976],[0.4058,40.5952],[0.4188,40.5882],[0.4326,40.5798],[0.4451,40.5786],[0.4378,40.573],[0.4395,40.5706],[0.4346,40.5657],[0.4376,40.5578],[0.437,40.5502],[0.4392,40.5474],[0.4474,40.5453],[0.4502,40.5416],[0.4565,40.5412],[0.4781,40.5323],[0.4822,40.5325],[0.4882,40.5295],[0.5,40.5282],[0.5163,40.5233],[0.5146,40.5164],[0.5065,40.5073],[0.5072,40.505],[0.4999,40.498],[0.4953,40.4897],[0.4919,40.4883],[0.4863,40.4793],[0.4868,40.477],[0.4788,40.4688],[0.4789,40.4627],[0.4758,40.4665],[0.4678,40.4606],[0.4546,40.443],[0.4483,40.4381],[0.4424,40.429],[0.4374,40.4173],[0.435,40.4165],[0.4326,40.4138],[0.4352,40.4128],[0.4315,40.4122],[0.4184,40.3999],[0.4105,40.3836],[0.4047,40.3637],[0.4056,40.3606],[0.4092,40.3606],[0.4098,40.3579],[0.4073,40.3565],[0.4008,40.3582],[0.4012,40.3558],[0.3936,40.3522],[0.3876,40.3405],[0.3776,40.3341],[0.3752,40.3302],[0.3675,40.3262],[0.3642,40.3204],[0.3553,40.3125],[0.3517,40.3],[0.3482,40.2965],[0.3367,40.292],[0.3343,40.2834],[0.3235,40.2747],[0.319,40.2711],[0.3124,40.2694],[0.3052,40.2599],[0.2969,40.2586],[0.29,40.2527],[0.2885,40.2532],[0.2875,40.2488],[0.2798,40.2445],[0.2777,40.2375],[0.2741,40.2354],[0.2743,40.2287],[0.2662,40.2098],[0.2569,40.2036],[0.2316,40.1983],[0.2112,40.1845],[0.2023,40.1811],[0.1836,40.1609],[0.1621,40.1243],[0.1491,40.0976],[0.1472,40.0882],[0.1488,40.0831],[0.145,40.0815],[0.1434,40.0835],[0.1384,40.0822],[0.1361,40.0803],[0.1373,40.0791],[0.1342,40.0779],[0.1332,40.0719],[0.1217,40.0627],[0.1154,40.0618],[0.1071,40.0569],[0.0912,40.0561],[0.084,40.0569],[0.0717,40.0486],[0.072,40.047],[0.0657,40.0462],[0.0628,40.0427],[0.0529,40.038],[0.0479,40.0323],[0.0403,40.0157],[0.0368,40.0124],[0.0339,40.0022],[0.0293,39.9964],[0.0217,39.9747],[0.023,39.9736],[0.0219,39.9701],[0.0211,39.9737],[0.0184,39.9747],[0.0159,39.9732],[0.0155,39.9708],[0.0252,39.9684],[0.0221,39.9677],[0.0149,39.9706],[0.0126,39.9691],[0.0159,39.967],[0.0115,39.9683],[-0.0047,39.9163],[-0.0089,39.9114],[-0.0651,39.8686],[-0.0678,39.8647],[-0.0668,39.863],[-0.0682,39.8616],[-0.0695,39.8651],[-0.0739,39.8628],[-0.0677,39.8592],[-0.0755,39.8627],[-0.0951,39.8419],[-0.1222,39.8092],[-0.151,39.7705],[-0.1653,39.7528],[-0.1709,39.7464],[-0.18,39.7355],[-0.1873,39.7223],[-0.1944,39.7247],[-0.2246,39.7358],[-0.2328,39.7404],[-0.2396,39.7406],[-0.2456,39.7434],[-0.2586,39.7439],[-0.27,39.7508],[-0.2725,39.7555],[-0.2704,39.7607],[-0.2744,39.7648],[-0.2753,39.7709],[-0.2963,39.7855],[-0.3074,39.7974],[-0.3148,39.8002],[-0.3271,39.8018]]]]}},{"type":"Feature","properties":{"kind":"province","code":"46","name":"Valencia","area_km2":10808.1},"geometry":{"type":"MultiPolygon","coordinates":[[[[-1.1959,39.1771],[-1.188,39.1998],[-1.1794,39.2127],[-1.1752,39.2306],[-1.1757,39.2471],[-1.1746,39.266],[-1.1735,39.2796],[-1.1607,39.3058],[-1.1638,39.3109],[-1.1769,39.315],[-1.1874,39.316],[-1.1903,39.3148],[-1.193,39.3164],[-1.1971,39.3142],[-1.2026,39.3182],[-1.2023,39.3213],[-1.2067,39.3266],[-1.2121,39.3239],[-1.2134,39.3195],[-1.2221,39.3165],[-1.2266,39.3199],[-1.2372,39.323],[-1.2425,39.3218],[-1.2459,39.329],[-1.2496,39.3229],[-1.2537,39.3275],[-1.2614,39.3303],[-1.2671,39.3291],[-1.2725,39.3336],[-1.2762,39.3331],[-1.2807,39.329],[-1.2894,39.3351],[-1.2923,39.332],[-1.2968,39.3315],[-1.3005,39.3344],[-1.2979,39.3381],[-1.3086,39.3408],[-1.3112,39.3435],[-1.3172,39.3436],[-1.3206,39.3398],[-1.3269,39.3427],[-1.3328,39.3409],[-1.3336,39.3399],[-1.3288,39.3367],[-1.3354,39.3344],[-1.3415,39.3406],[-1.352,39.3406],[-1.3563,39.3477],[-1.3609,39.3493],[-1.3662,39.3565],[-1.3763,39.3568],[-1.3839,39.3547],[-1.3804,39.3599],[-1.3825,39.3666],[-1.3897,39.3679],[-1.3979,39.3642],[-1.4018,39.3643],[-1.4079,39.3681],[-1.4055,39.3697],[-1.3978,39.3696],[-1.395,39.3739],[-1.3961,39.3761],[-1.3998,39.3773],[-1.4064,39.3721],[-1.4113,39.3798],[-1.4217,39.3815],[-1.4247,39.3794],[-1.4218,39.374],[-1.4224,39.3644],[-1.4275,39.3623],[-1.4308,39.3645],[-1.4266,39.3717],[-1.4274,39.3765],[-1.4311,39.378],[-1.4329,39.3768],[-1.4309,39.3729],[-1.4373,39.3735],[-1.4417,39.368],[-1.443,39.3621],[-1.4539,39.3612],[-1.4544,39.3639],[-1.4482,39.3669],[-1.451,39.3734],[-1.4476,39.3786],[-1.4565,39.3805],[-1.4614,39.3798],[-1.467,39.3837],[-1.4626,39.3878],[-1.4579,39.3865],[-1.4548,39.3835],[-1.4517,39.3841],[-1.4522,39.3863],[-1.457,39.3891],[-1.4511,39.3906],[-1.4532,39.3934],[-1.4515,39.3991],[-1.4547,39.4011],[-1.4605,39.4007],[-1.465,39.3913],[-1.4721,39.3915],[-1.476,39.3941],[-1.4744,39.3985],[-1.4653,39.4022],[-1.4693,39.4079],[-1.4743,39.4088],[-1.4811,39.4014],[-1.4862,39.4007],[-1.4876,39.402],[-1.4872,39.4178],[-1.4812,39.4192],[-1.482,39.4228],[-1.489,39.4224],[-1.4963,39.4156],[-1.5039,39.4184],[-1.5024,39.4237],[-1.4954,39.4297],[-1.5045,39.4294],[-1.5104,39.4354],[-1.5123,39.4342],[-1.5124,39.4294],[-1.5196,39.4319],[-1.5204,39.4349],[-1.5142,39.4391],[-1.5234,39.4437],[-1.5172,39.4493],[-1.5269,39.4526],[-1.5276,39.4557],[-1.5258,39.4577],[-1.5225,39.4582],[-1.5179,39.4562],[-1.5122,39.4587],[-1.5118,39.4716],[-1.5079,39.4781],[-1.5032,39.4781],[-1.502,39.4797],[-1.5046,39.4816],[-1.5097,39.4816],[-1.5113,39.4836],[-1.5097,39.4861],[-1.5038,39.4881],[-1.5097,39.4908],[-1.5113,39.4964],[-1.5098,39.4969],[-1.5028,39.4918],[-1.4994,39.4957],[-1.5004,39.4978],[-1.4979,39.5008],[-1.506,39.5082],[-1.5061,39.513],[-1.5015,39.5148],[-1.5002,39.5167],[-1.5058,39.5213],[-1.5034,39.5231],[-1.5025,39.5278],[-1.5046,39.5325],[-1.4997,39.5344],[-1.5049,39.5404],[-1.5014,39.5449],[-1.5021,39.5475],[-1.51,39.5459],[-1.5145,39.5491],[-1.5196,39.5492],[-1.5166,39.5518],[-1.5016,39.5526],[-1.5019,39.5566],[-1.4994,39.5585],[-1.5031,39.5643],[-1.4823,39.5695],[-1.4756,39.5695],[-1.4689,39.5722],[-1.4608,39.577],[-1.455,39.5859],[-1.4353,39.6292],[-1.4167,39.6553],[-1.3673,39.69],[-1.3415,39.682],[-1.3246,39.6735],[-1.3066,39.6712],[-1.2907,39.6729],[-1.2784,39.6783],[-1.2608,39.6993],[-1.2701,39.7139],[-1.2697,39.7316],[-1.2743,39.738],[-1.2608,39.7568],[-1.248,39.7729],[-1.2329,39.7832],[-1.22,39.8035],[-1.2138,39.8091],[-1.2157,39.8148],[-1.2105,39.8207],[-1.2095,39.8336],[-1.2096,39.8386],[-1.2056,39.8464],[-1.199,39.8585],[-1.1995,39.8712],[-1.1964,39.8734],[-1.1989,39.8741],[-1.1988,39.8888],[-1.1969,39.9092],[-1.1946,39.9143],[-1.1974,39.9164],[-1.1961,39.9188],[-1.1995,39.9235],[-1.2077,39.9285],[-1.2057,39.9325],[-1.2085,39.9344],[-1.2056,39.9406],[-1.207,39.9442],[-1.2024,39.9499],[-1.1527,39.9642],[-1.1412,39.9722],[-1.1298,39.9711],[-1.1272,39.9633],[-1.1205,39.9612],[-1.1226,39.9664],[-1.1134,39.9731],[-1.1115,39.9735],[-1.1086,39.9694],[-1.1038,39.9753],[-1.0909,39.9682],[-1.0833,39.9722],[-1.0857,39.9736],[-1.0847,39.9767],[-1.0715,39.9799],[-1.0563,39.9808],[-1.0245,39.975],[-1.0013,39.9822],[-0.9979,39.9805],[-0.9882,39.9822],[-0.9751,39.9761],[-0.9672,39.9748],[-0.952,39.9677],[-0.948,39.9676],[-0.9433,39.9632],[-0.9336,39.9603],[-0.9307,39.9564],[-0.9237,39.9594],[-0.9192,39.9648],[-0.9147,39.959],[-0.916,39.9553],[-0.9048,39.9443],[-0.9014,39.9322],[-0.9023,39.9265],[-0.9064,39.9283],[-0.9126,39.9184],[-0.9064,39.9011],[-0.9084,39.899],[-0.9017,39.8975],[-0.899,39.8922],[-0.9069,39.8864],[-0.9073,39.8809],[-0.9116,39.8734],[-0.9075,39.8669],[-0.8874,39.8525],[-0.8781,39.8527],[-0.8728,39.8487],[-0.8623,39.8478],[-0.8568,39.8509],[-0.8552,39.8559],[-0.8475,39.8575],[-0.8376,39.8629],[-0.8275,39.8715],[-0.8138,39.8739],[-0.7965,39.8814],[-0.7919,39.8816],[-0.7723,39.8702],[-0.7528,39.8436],[-0.7439,39.8361],[-0.744,39.8323],[-0.7392,39.8323],[-0.7354,39.8295],[-0.7367,39.8278],[-0.7356,39.8211],[-0.7324,39.8188],[-0.7292,39.8152],[-0.7265,39.8166],[-0.7247,39.8149],[-0.7213,39.8136],[-0.7113,39.8172],[-0.7058,39.8355],[-0.6939,39.8504],[-0.6899,39.8528],[-0.6673,39.8408],[-0.6549,39.8363],[-0.6435,39.792],[-0.6465,39.7883],[-0.6511,39.7545],[-0.6298,39.7467],[-0.587,39.7421],[-0.5801,39.7571],[-0.5758,39.7736],[-0.5573,39.7909],[-0.5472,39.7961],[-0.5294,39.7963],[-0.5126,39.7795],[-0.5123,39.7762],[-0.5073,39.7711],[-0.5047,39.7598],[-0.497,39.7479],[-0.4815,39.7346],[-0.4739,39.7322],[-0.4695,39.7268],[-0.4625,39.7209],[-0.4598,39.7157],[-0.4472,39.7168],[-0.4439,39.7193],[-0.4382,39.7304],[-0.4363,39.7335],[-0.4379,39.7372],[-0.4318,39.7368],[-0.418,39.7464],[-0.4084,39.7456],[-0.3949,39.759],[-0.3878,39.7691],[-0.3857,39.7695],[-0.3847,39.7768],[-0.3906,39.7803],[-0.3876,39.7904],[-0.3767,39.8002],[-0.3271,39.8018],[-0.3148,39.8002],[-0.3074,39.7974],[-0.2963,39.7855],[-0.2753,39.7709],[-0.2744,39.7648],[-0.2704,39.7607],[-0.2725,39.7555],[-0.27,39.7508],[-0.2586,39.7439],[-0.2456,39.7434],[-0.2396,39.7406],[-0.2328,39.7404],[-0.2246,39.7358],[-0.1944,39.7247],[-0.1873,39.7223],[-0.1955,39.7032],[-0.2002,39.6857],[-0.2024,39.6721],[-0.2084,39.6605],[-0.207,39.6435],[-0.2084,39.6528],[-0.2145,39.6557],[-0.219,39.6502],[-0.2166,39.6485],[-0.2278,39.6397],[-0.237,39.6361],[-0.2577,39.6153],[-0.2669,39.5986],[-0.2728,39.5782],[-0.2792,39.5665],[-0.2819,39.5603],[-0.281,39.5645],[-0.2831,39.5609],[-0.2855,39.5605],[-0.2982,39.5455],[-0.3096,39.5308],[-0.3128,39.5254],[-0.3178,39.5149],[-0.3223,39.485],[-0.3201,39.4581],[-0.316,39.4522],[-0.3007,39.4495],[-0.301,39.4408],[-0.3019,39.4491],[-0.3125,39.451],[-0.3134,39.4482],[-0.3139,39.451],[-0.3169,39.4518],[-0.3222,39.4593],[-0.3241,39.4583],[-0.3238,39.4618],[-0.3281,39.4623],[-0.3302,39.4593],[-0.3259,39.4556],[-0.3221,39.4545],[-0.3249,39.4521],[-0.3193,39.4501],[-0.32,39.4489],[-0.3244,39.45],[-0.3238,39.4441],[-0.3149,39.4436],[-0.3239,39.4437],[-0.326,39.4461],[-0.3306,39.4438],[-0.3347,39.4343],[-0.3317,39.4339],[-0.3314,39.4279],[-0.3346,39.425],[-0.3325,39.4242],[-0.3247,39.3898],[-0.3146,39.3605],[-0.2909,39.3097],[-0.2971,39.3099],[-0.2905,39.3081],[-0.274,39.2799],[-0.2731,39.2793],[-0.2435,39.2258],[-0.221,39.1891],[-0.2145,39.1864],[-0.2187,39.1808],[-0.2212,39.1823],[-0.2262,39.182],[-0.2277,39.1789],[-0.2317,39.1809],[-0.2358,39.1787],[-0.24,39.1644],[-0.2383,39.1521],[-0.2346,39.1511],[-0.2381,39.1499],[-0.2376,39.1447],[-0.2345,39.1415],[-0.2364,39.1413],[-0.2349,39.1368],[-0.2208,39.1062],[-0.1983,39.0589],[-0.18,39.0312],[-0.1548,38.9973],[-0.1474,38.997],[-0.1554,38.9959],[-0.1597,38.9927],[-0.1502,38.9963],[-0.1512,38.9945],[-0.1507,38.9902],[-0.1458,38.9838],[-0.1348,38.9714],[-0.1177,38.9544],[-0.1066,38.9439],[-0.0688,38.9107],[-0.0365,38.8868],[-0.0359,38.881],[-0.0322,38.8797],[-0.0281,38.8743],[-0.0236,38.8727],[-0.0272,38.8676],[-0.0262,38.862],[-0.0335,38.8573],[-0.041,38.8568],[-0.0447,38.865],[-0.0558,38.8695],[-0.0637,38.8752],[-0.064,38.879],[-0.0694,38.8861],[-0.0775,38.8845],[-0.0771,38.8809],[-0.0886,38.8796],[-0.0909,38.8719],[-0.0943,38.8753],[-0.1009,38.8754],[-0.1469,38.8588],[-0.1539,38.8609],[-0.1526,38.8723],[-0.1596,38.8878],[-0.1611,38.8832],[-0.1664,38.8803],[-0.1789,38.8792],[-0.1875,38.8738],[-0.1965,38.8667],[-0.1951,38.8598],[-0.2294,38.8539],[-0.2409,38.861],[-0.2447,38.859],[-0.2591,38.8603],[-0.2722,38.8644],[-0.2879,38.873],[-0.2981,38.8821],[-0.3096,38.8819],[-0.3115,38.8754],[-0.3225,38.8639],[-0.3345,38.8644],[-0.3436,38.8622],[-0.3522,38.859],[-0.3487,38.8577],[-0.3501,38.8567],[-0.354,38.8502],[-0.3812,38.8349],[-0.392,38.8366],[-0.401,38.8402],[-0.4032,38.8393],[-0.4029,38.8335],[-0.4303,38.8269],[-0.4391,38.8242],[-0.4421,38.8195],[-0.4431,38.8209],[-0.4463,38.8201],[-0.4594,38.8153],[-0.4607,38.808],[-0.4733,38.8043],[-0.4783,38.805],[-0.5146,38.8072],[-0.5244,38.811],[-0.5341,38.8108],[-0.5471,38.8061],[-0.559,38.8045],[-0.5664,38.8021],[-0.579,38.8013],[-0.594,38.7955],[-0.5924,38.7923],[-0.5951,38.7907],[-0.5888,38.7849],[-0.5888,38.7773],[-0.5831,38.7688],[-0.5742,38.7645],[-0.5644,38.7558],[-0.5587,38.7543],[-0.5553,38.7579],[-0.5406,38.7622],[-0.5407,38.7642],[-0.5303,38.7676],[-0.5247,38.7643],[-0.524,38.7606],[-0.5197,38.7571],[-0.5063,38.7557],[-0.5059,38.7434],[-0.511,38.7438],[-0.5147,38.7401],[-0.5221,38.7385],[-0.5234,38.736],[-0.5337,38.7334],[-0.55,38.7175],[-0.583,38.709],[-0.5926,38.7003],[-0.6077,38.6948],[-0.6156,38.6901],[-0.6169,38.6871],[-0.6275,38.687],[-0.6283,38.69],[-0.6413,38.7045],[-0.6388,38.7076],[-0.6424,38.7187],[-0.6422,38.7282],[-0.652,38.7309],[-0.6699,38.732],[-0.6764,38.7295],[-0.6876,38.7417],[-0.706,38.7342],[-0.7072,38.7396],[-0.716,38.751],[-0.721,38.7541],[-0.7321,38.7521],[-0.7348,38.754],[-0.7308,38.7567],[-0.7337,38.7598],[-0.736,38.7571],[-0.7436,38.7597],[-0.7422,38.756],[-0.7509,38.7558],[-0.7603,38.7495],[-0.7645,38.7514],[-0.7784,38.7471],[-0.7825,38.7488],[-0.7864,38.7469],[-0.7915,38.7396],[-0.7999,38.7376],[-0.8054,38.7357],[-0.8092,38.7386],[-0.8162,38.7384],[-0.8305,38.7328],[-0.8334,38.7328],[-0.8364,38.7369],[-0.8345,38.7416],[-0.859,38.7698],[-0.8605,38.7713],[-0.8813,38.7724],[-0.8866,38.7695],[-0.9038,38.7675],[-0.912,38.77],[-0.9163,38.7766],[-0.9137,38.7818],[-0.9277,38.7842],[-0.9326,38.7944],[-0.9316,38.8117],[-0.9266,38.8161],[-0.9237,38.8238],[-0.93,38.8302],[-0.9345,38.8563],[-0.9295,38.864],[-0.9314,38.8683],[-0.9307,38.8801],[-0.9233,38.8922],[-0.9396,38.9],[-0.9493,38.9119],[-0.9522,38.9199],[-0.9553,38.9205],[-0.9582,38.945],[-0.9761,38.9432],[-0.9866,38.9481],[-0.9981,38.9499],[-1.0059,38.9465],[-1.0122,38.9396],[-1.0334,38.9348],[-1.0414,38.9372],[-1.1047,38.9289],[-1.1279,38.9298],[-1.1371,38.928],[-1.1454,38.9298],[-1.1533,38.9401],[-1.1597,38.9552],[-1.192,38.9886],[-1.2006,38.9934],[-1.2074,39.0054],[-1.2253,39.0251],[-1.2383,39.031],[-1.2508,39.0399],[-1.258,39.0417],[-1.2627,39.0455],[-1.2655,39.0514],[-1.2626,39.0687],[-1.2645,39.0759],[-1.2546,39.0844],[-1.2545,39.1066],[-1.2393,39.1141],[-1.2311,39.1341],[-1.2258,39.1521],[-1.2093,39.1626],[-1.1959,39.1771]]],[[[-1.455,40.1313],[-1.456,40.1354],[-1.4476,40.1457],[-1.4306,40.1396],[-1.4212,40.1427],[-1.4105,40.1412],[-1.3923,40.1347],[-1.3837,40.1386],[-1.3756,40.1406],[-1.3624,40.139],[-1.3626,40.1322],[-1.3605,40.13],[-1.3559,40.1293],[-1.3348,40.1425],[-1.3185,40.1468],[-1.3154,40.15],[-1.3182,40.1565],[-1.3161,40.1645],[-1.3213,40.172],[-1.3218,40.1852],[-1.3138,40.2017],[-1.2995,40.2067],[-1.2959,40.2099],[-1.297,40.212],[-1.2918,40.2073],[-1.2955,40.1996],[-1.2858,40.1823],[-1.2831,40.1719],[-1.2755,40.1676],[-1.2753,40.1626],[-1.2512,40.1437],[-1.2445,40.1474],[-1.2431,40.1463],[-1.2476,40.136],[-1.2446,40.1284],[-1.2494,40.1243],[-1.2437,40.1165],[-1.2351,40.1138],[-1.2204,40.116],[-1.2072,40.1107],[-1.2001,40.1114],[-1.1902,40.1111],[-1.1643,40.1152],[-1.1486,40.1151],[-1.1464,40.1146],[-1.1427,40.1089],[-1.1344,40.1045],[-1.1322,40.0978],[-1.1215,40.0961],[-1.1166,40.0932],[-1.1106,40.0932],[-1.0815,40.0716],[-1.0769,40.0692],[-1.0782,40.0674],[-1.0709,40.0608],[-1.0705,40.052],[-1.0754,40.0482],[-1.083,40.0366],[-1.0967,40.033],[-1.106,40.0267],[-1.1329,40.0161],[-1.145,40.0171],[-1.1522,40.013],[-1.164,40.0105],[-1.1717,40.0112],[-1.1905,40.0019],[-1.1983,40.0038],[-1.2059,40.0022],[-1.2154,40.0019],[-1.2468,39.9954],[-1.2661,40.0005],[-1.2736,40.004],[-1.2852,40.0085],[-1.3068,40.0108],[-1.3271,40.0138],[-1.3345,40.017],[-1.3488,40.0155],[-1.3577,40.0127],[-1.3631,40.0125],[-1.3756,40.0169],[-1.38,40.0275],[-1.3819,40.0393],[-1.3925,40.0535],[-1.3995,40.0674],[-1.4119,40.0816],[-1.4123,40.0864],[-1.419,40.0939],[-1.4064,40.1018],[-1.409,40.1049],[-1.4281,40.114],[-1.4416,40.1184],[-1.455,40.1313]]]]}},{"type":"Feature","properties":{"kind":"region","code":"77","name":"Comunitat Valenciana","area_km2":23264.9},"geometry":{"type":"MultiPolygon","coordinates":[[[[-0.9766,38.2387],[-0.9674,38.2562],[-0.9679,38.2818],[-0.9703,38.2905],[-0.9833,38.3075],[-0.9878,38.321],[-1.0272,38.339],[-1.0574,38.346],[-1.0832,38.3466],[-1.0869,38.3682],[-1.0856,38.3974],[-1.0869,38.4028],[-1.0849,38.4189],[-1.0842,38.4296],[-1.076,38.4319],[-1.093,38.4383],[-1.0809,38.4415],[-1.0581,38.4562],[-1.0337,38.4749],[-1.0147,38.4947],[-1.0127,38.4975],[-1.0249,38.5232],[-1.0147,38.5375],[-1.0083,38.5583],[-1.0004,38.5731],[-1.0065,38.5917],[-1.0108,38.6065],[-1.0147,38.6355],[-1.0228,38.6404],[-1.0257,38.6559],[-1.0096,38.657],[-1.0079,38.6587],[-0.9903,38.6555],[-0.9613,38.6573],[-0.9313,38.6779],[-0.9146,38.6964],[-0.924,38.7051],[-0.9273,38.709],[-0.9265,38.7135],[-0.9367,38.7263],[-0.9383,38.7321],[-0.9447,38.7371],[-0.9602,38.7752],[-0.9488,38.7765],[-0.9277,38.7842],[-0.9326,38.7944],[-0.9316,38.8117],[-0.9266,38.8161],[-0.9237,38.8238],[-0.93,38.8302],[-0.9345,38.8563],[-0.9295,38.864],[-0.9314,38.8683],[-0.9307,38.8801],[-0.9233,38.8922],[-0.9396,38.9],[-0.9493,38.9119],[-0.9522,38.9199],[-0.9553,38.9205],[-0.9582,38.945],[-0.9761,38.9432],[-0.9866,38.9481],[-0.9981,38.9499],[-1.0059,38.9465],[-1.0122,38.9396],[-1.0334,38.9348],[-1.0414,38.9372],[-1.1047,38.9289],[-1.1279,38.9298],[-1.1371,38.928],[-1.1454,38.9298],[-1.1533,38.9401],[-1.1597,38.9552],[-1.192,38.9886],[-1.2006,38.9934],[-1.2074,39.0054],[-1.2253,39.0251],[-1.2383,39.031],[-1.2508,39.0399],[-1.258,39.0417],[-1.2627,39.0455],[-1.2655,39.0514],[-1.2626,39.0687],[-1.2645,39.0759],[-1.2546,39.0844],[-1.2545,39.1066],[-1.2393,39.1141],[-1.2311,39.1341],[-1.2258,39.1521],[-1.2093,39.1626],[-1.1959,39.1771],[-1.188,39.1998],[-1.1794,39.2127],[-1.1752,39.2306],[-1.1757,39.2471],[-1.1746,39.266],[-1.1735,39.2796],[-1.1607,39.3058],[-1.1638,39.3109],[-1.1769,39.315],[-1.1874,39.316],[-1.1903,39.3148],[-1.193,39.3164],[-1.1971,39.3142],[-1.2026,39.3182],[-1.2023,39.3213],[-1.2067,39.3266],[-1.2121,39.3239],[-1.2134,39.3195],[-1.2221,39.3165],[-1.2266,39.3199],[-1.2372,39.323],[-1.2425,39.3218],[-1.2459,39.329],[-1.2496,39.3229],[-1.2537,39.3275],[-1.2614,39.3303],[-1.2671,39.3291],[-1.2725,39.3336],[-1.2762,39.3331],[-1.2807,39.329],[-1.2894,39.3351],[-1.2923,39.332],[-1.2968,39.3315],[-1.3005,39.3344],[-1.2979,39.3381],[-1.3086,39.3408],[-1.3112,39.3435],[-1.3172,39.3436],[-1.3206,39.3398],[-1.3269,39.3427],[-1.3328,39.3409],[-1.3336,39.3399],[-1.3288,39.3367],[-1.3354,39.3344],[-1.3415,39.3406],[-1.352,39.3406],[-1.3563,39.3477],[-1.3609,39.3493],[-1.3662,39.3565],[-1.3763,39.3568],[-1.3839,39.3547],[-1.3804,39.3599],[-1.3825,39.3666],[-1.3897,39.3679],[-1.3979,39.3642],[-1.4018,39.3643],[-1.4079,39.3681],[-1.4055,39.3697],[-1.3978,39.3696],[-1.395,39.3739],[-1.3961,39.3761],[-1.3998,39.3773],[-1.4064,39.3721],[-1.4113,39.3798],[-1.4217,39.3815],[-1.4247,39.3794],[-1.4218,39.374],[-1.4224,39.3644],[-1.4275,39.3623],[-1.4308,39.3645],[-1.4266,39.3717],[-1.4274,39.3765],[-1.4311,39.378],[-1.4329,39.3768],[-1.4309,39.3729],[-1.4373,39.3735],[-1.4417,39.368],[-1.443,39.3621],[-1.4539,39.3612],[-1.4544,39.3639],[-1.4482,39.3669],[-1.451,39.3734],[-1.4476,39.3786],[-1.4565,39.3805],[-1.4614,39.3798],[-1.467,39.3837],[-1.4626,39.3878],[-1.4579,39.3865],[-1.4548,39.3835],[-1.4517,39.3841],[-1.4522,39.3863],[-1.457,39.3891],[-1.4511,39.3906],[-1.4532,39.3934],[-1.4515,39.3991],[-1.4547,39.4011],[-1.4605,39.4007],[-1.465,39.3913],[-1.4721,39.3915],[-1.476,39.3941],[-1.4744,39.3985],[-1.4653,39.4022],[-1.4693,39.4079],[-1.4743,39.4088],[-1.4811,39.4014],[-1.4862,39.4007],[-1.4876,39.402],[-1.4872,39.4178],[-1.4812,39.4192],[-1.482,39.4228],[-1.489,39.4224],[-1.4963,39.4156],[-1.5039,39.4184],[-1.5024,39.4237],[-1.4954,39.4297],[-1.5045,39.4294],[-1.5104,39.4354],[-1.5123,39.4342],[-1.5124,39.4294],[-1.5196,39.4319],[-1.5204,39.4349],[-1.5142,39.4391],[-1.5234,39.4437],[-1.5172,39.4493],[-1.5269,39.4526],[-1.5276,39.4557],[-1.5258,39.4577],[-1.5225,39.4582],[-1.5179,39.4562],[-1.5122,39.4587],[-1.5118,39.4716],[-1.5079,39.4781],[-1.5032,39.4781],[-1.502,39.4797],[-1.5046,39.4816],[-1.5097,39.4816],[-1.5113,39.4836],[-1.5097,39.4861],[-1.5038,39.4881],[-1.5097,39.4908],[-1.5113,39.4964],[-1.5098,39.4969],[-1.5028,39.4918],[-1.4994,39.4957],[-1.5004,39.4978],[-1.4979,39.5008],[-1.506,39.5082],[-1.5061,39.513],[-1.5015,39.5148],[-1.5002,39.5167],[-1.5058,39.5213],[-1.5034,39.5231],[-1.5025,39.5278],[-1.5046,39.5325],[-1.4997,39.5344],[-1.5049,39.5404],[-1.5014,39.5449],[-1.5021,39.5475],[-1.51,39.5459],[-1.5145,39.5491],[-1.5196,39.5492],[-1.5166,39.5518],[-1.5016,39.5526],[-1.5019,39.5566],[-1.4994,39.5585],[-1.5031,39.5643],[-1.4823,39.5695],[-1.4756,39.5695],[-1.4689,39.5722],[-1.4608,39.577],[-1.455,39.5859],[-1.4353,39.6292],[-1.4167,39.6553],[-1.3673,39.69],[-1.3415,39.682],[-1.3246,39.6735],[-1.3066,39.6712],[-1.2907,39.6729],[-1.2784,39.6783],[-1.2608,39.6993],[-1.2701,39.7139],[-1.2697,39.7316],[-1.2743,39.738],[-1.2608,39.7568],[-1.248,39.7729],[-1.2329,39.7832],[-1.22,39.8035],[-1.2138,39.8091],[-1.2157,39.8148],[-1.2105,39.8207],[-1.2095,39.8336],[-1.2096,39.8386],[-1.2056,39.8464],[-1.199,39.8585],[-1.1995,39.8712],[-1.1964,39.8734],[-1.1989,39.8741],[-1.1988,39.8888],[-1.1969,39.9092],[-1.1946,39.9143],[-1.1974,39.9164],[-1.1961,39.9188],[-1.1995,39.9235],[-1.2077,39.9285],[-1.2057,39.9325],[-1.2085,39.9344],[-1.2056,39.9406],[-1.207,39.9442],[-1.2024,39.9499],[-1.1527,39.9642],[-1.1412,39.9722],[-1.1298,39.9711],[-1.1272,39.9633],[-1.1205,39.9612],[-1.1226,39.9664],[-1.1134,39.9731],[-1.1115,39.9735],[-1.1086,39.9694],[-1.1038,39.9753],[-1.0909,39.9682],[-1.0833,39.9722],[-1.0857,39.9736],[-1.0847,39.9767],[-1.0715,39.9799],[-1.0563,39.9808],[-1.0245,39.975],[-1.0013,39.9822],[-0.9979,39.9805],[-0.9882,39.9822],[-0.9751,39.9761],[-0.9672,39.9748],[-0.952,39.9677],[-0.948,39.9676],[-0.9433,39.9632],[-0.9336,39.9603],[-0.9307,39.9564],[-0.9237,39.9594],[-0.9192,39.9648],[-0.9147,39.959],[-0.916,39.9553],[-0.9048,39.9443],[-0.9014,39.9322],[-0.9023,39.9265],[-0.9064,39.9283],[-0.9126,39.9184],[-0.9064,39.9011],[-0.9084,39.899],[-0.9017,39.8975],[-0.899,39.8922],[-0.9069,39.8864],[-0.9073,39.8809],[-0.9116,39.8734],[-0.9075,39.8669],[-0.8874,39.8525],[-0.8781,39.8527],[-0.8728,39.8487],[-0.8623,39.8478],[-0.8568,39.8509],[-0.8552,39.8559],[-0.8475,39.8575],[-0.8376,39.8629],[-0.8275,39.8715],[-0.8138,39.8739],[-0.7965,39.8814],[-0.7964,39.8836],[-0.8007,39.8854],[-0.8037,39.8928],[-0.8232,39.9034],[-0.8317,39.9114],[-0.832,39.9178],[-0.8392,39.9253],[-0.8352,39.9287],[-0.8356,39.9337],[-0.8386,39.9424],[-0.8451,39.9481],[-0.843,39.9544],[-0.838,39.9559],[-0.8345,39.9604],[-0.8402,39.9693],[-0.8336,39.9797],[-0.8231,39.9827],[-0.8151,39.9828],[-0.7988,39.9917],[-0.7884,39.9903],[-0.7757,40.0005],[-0.7755,40.0013],[-0.7661,40.0104],[-0.761,40.0416],[-0.7524,40.047],[-0.7464,40.0382],[-0.7296,40.0428],[-0.7234,40.0397],[-0.7177,40.0391],[-0.7121,40.0426],[-0.7016,40.047],[-0.6824,40.0446],[-0.6629,40.0518],[-0.6447,40.068],[-0.6404,40.0679],[-0.6368,40.07],[-0.6347,40.0679],[-0.6345,40.0725],[-0.6304,40.0708],[-0.6279,40.0751],[-0.626,40.0766],[-0.6219,40.0756],[-0.6218,40.0698],[-0.6175,40.0687],[-0.6124,40.0704],[-0.6275,40.1025],[-0.6081,40.1261],[-0.6053,40.1286],[-0.6028,40.1271],[-0.5973,40.1289],[-0.5956,40.1327],[-0.5896,40.1341],[-0.585,40.1319],[-0.5789,40.1376],[-0.5773,40.1384],[-0.5783,40.1476],[-0.5735,40.1491],[-0.5743,40.152],[-0.5693,40.1558],[-0.568,40.1595],[-0.5728,40.173],[-0.5701,40.1762],[-0.5693,40.1807],[-0.5709,40.1818],[-0.5625,40.189],[-0.5567,40.2012],[-0.5579,40.2105],[-0.5467,40.2446],[-0.543,40.252],[-0.5258,40.2383],[-0.5094,40.2321],[-0.5004,40.2335],[-0.4933,40.2291],[-0.4875,40.2336],[-0.4761,40.2356],[-0.4688,40.2405],[-0.4654,40.2361],[-0.4619,40.2347],[-0.4506,40.2357],[-0.4269,40.2442],[-0.3873,40.262],[-0.3822,40.2657],[-0.3839,40.2738],[-0.3816,40.2787],[-0.3891,40.2883],[-0.3992,40.2952],[-0.3926,40.2981],[-0.3935,40.3007],[-0.3913,40.299],[-0.3888,40.3002],[-0.3903,40.3028],[-0.3889,40.306],[-0.3865,40.3076],[-0.3837,40.3058],[-0.3779,40.3104],[-0.3776,40.3086],[-0.3747,40.3053],[-0.3717,40.3091],[-0.3724,40.3053],[-0.3696,40.3054],[-0.3688,40.307],[-0.3649,40.3055],[-0.3687,40.3105],[-0.362,40.3169],[-0.3583,40.3135],[-0.3537,40.3151],[-0.3524,40.3136],[-0.3509,40.3181],[-0.3473,40.321],[-0.3484,40.3285],[-0.3463,40.3284],[-0.3454,40.3254],[-0.3419,40.3258],[-0.3425,40.3276],[-0.3399,40.3294],[-0.3408,40.3338],[-0.3418,40.3345],[-0.3394,40.3403],[-0.3364,40.3397],[-0.3356,40.3414],[-0.3312,40.3419],[-0.3304,40.3452],[-0.3228,40.3483],[-0.3132,40.3587],[-0.3075,40.358],[-0.3034,40.363],[-0.2969,40.3621],[-0.2885,40.3683],[-0.2879,40.3658],[-0.2842,40.3668],[-0.2812,40.3654],[-0.2827,40.3694],[-0.2788,40.3698],[-0.2795,40.3772],[-0.2842,40.3868],[-0.2947,40.3957],[-0.3003,40.3981],[-0.306,40.4095],[-0.3135,40.4161],[-0.3316,40.4259],[-0.3461,40.4443],[-0.3415,40.4439],[-0.3416,40.4469],[-0.3377,40.4493],[-0.3372,40.4553],[-0.3314,40.4594],[-0.3188,40.4612],[-0.3079,40.4661],[-0.2922,40.4663],[-0.2942,40.4708],[-0.2862,40.4727],[-0.2846,40.4704],[-0.2808,40.4742],[-0.278,40.4731],[-0.2757,40.4762],[-0.2716,40.474],[-0.2702,40.4788],[-0.2729,40.482],[-0.2785,40.4838],[-0.2784,40.4886],[-0.2736,40.4942],[-0.2764,40.5019],[-0.2864,40.5099],[-0.2965,40.5061],[-0.3006,40.5163],[-0.2963,40.5316],[-0.2889,40.5443],[-0.2913,40.547],[-0.2891,40.5534],[-0.2928,40.5543],[-0.2913,40.557],[-0.2948,40.5608],[-0.295,40.5649],[-0.2937,40.5707],[-0.2979,40.5736],[-0.2987,40.5777],[-0.2931,40.5843],[-0.2923,40.5922],[-0.2942,40.5956],[-0.2921,40.5967],[-0.2938,40.6004],[-0.2911,40.6051],[-0.2921,40.6114],[-0.2979,40.6133],[-0.3108,40.6116],[-0.3209,40.6032],[-0.3336,40.6078],[-0.3421,40.6069],[-0.3428,40.6115],[-0.359,40.6159],[-0.3693,40.6139],[-0.3764,40.6192],[-0.3783,40.6252],[-0.3752,40.6367],[-0.3704,40.6423],[-0.3715,40.6479],[-0.3696,40.6511],[-0.3782,40.6574],[-0.3803,40.6619],[-0.3767,40.6679],[-0.3701,40.6682],[-0.3684,40.6704],[-0.3693,40.6726],[-0.355,40.678],[-0.3276,40.6806],[-0.3209,40.6781],[-0.3192,40.6687],[-0.3157,40.664],[-0.3058,40.6598],[-0.3056,40.6638],[-0.2989,40.6675],[-0.2924,40.6743],[-0.2877,40.6727],[-0.2778,40.6805],[-0.2598,40.6854],[-0.2492,40.6911],[-0.2348,40.6914],[-0.2363,40.6983],[-0.2324,40.7089],[-0.2352,40.71],[-0.238,40.7184],[-0.2362,40.7238],[-0.2301,40.7294],[-0.2305,40.7331],[-0.228,40.736],[-0.2293,40.7389],[-0.2255,40.7444],[-0.2228,40.7545],[-0.2116,40.7586],[-0.2092,40.7677],[-0.201,40.7754],[-0.2005,40.7799],[-0.1929,40.7825],[-0.196,40.7848],[-0.1656,40.7861],[-0.1637,40.789],[-0.1433,40.7858],[-0.146,40.7755],[-0.1426,40.769],[-0.1368,40.7662],[-0.1319,40.7583],[-0.1256,40.7537],[-0.1117,40.7487],[-0.1063,40.7437],[-0.1008,40.743],[-0.0853,40.7385],[-0.0786,40.7337],[-0.0635,40.7277],[-0.0525,40.7282],[-0.0425,40.7265],[-0.0302,40.7228],[-0.0214,40.7305],[-0.0165,40.7315],[0.0102,40.73],[0.0158,40.729],[0.0191,40.7262],[0.0173,40.7236],[0.0199,40.7199],[0.0296,40.7135],[0.0257,40.7076],[0.0276,40.6953],[0.0434,40.6913],[0.0739,40.7146],[0.1137,40.7275],[0.1131,40.725],[0.1177,40.7254],[0.125,40.7211],[0.1425,40.7188],[0.163,40.7229],[0.1719,40.7332],[0.1834,40.7286],[0.1922,40.7315],[0.1985,40.7245],[0.2173,40.7326],[0.2273,40.7335],[0.2253,40.726],[0.2278,40.7174],[0.2377,40.702],[0.2431,40.7007],[0.2525,40.7052],[0.2636,40.7062],[0.2713,40.7034],[0.2781,40.6947],[0.293,40.6889],[0.2935,40.6855],[0.2866,40.6793],[0.2833,40.6732],[0.2754,40.67],[0.2695,40.6599],[0.2705,40.6484],[0.2672,40.6451],[0.2722,40.6386],[0.2778,40.6366],[0.28,40.6304],[0.2935,40.6236],[0.2996,40.6263],[0.3019,40.623],[0.317,40.6144],[0.3202,40.6152],[0.331,40.6114],[0.3458,40.6079],[0.352,40.6085],[0.3723,40.6054],[0.3896,40.6071],[0.3935,40.6045],[0.404,40.6023],[0.4076,40.5976],[0.4058,40.5952],[0.4188,40.5882],[0.4326,40.5798],[0.4451,40.5786],[0.4378,40.573],[0.4395,40.5706],[0.4346,40.5657],[0.4376,40.5578],[0.437,40.5502],[0.4392,40.5474],[0.4474,40.5453],[0.4502,40.5416],[0.4565,40.5412],[0.4781,40.5323],[0.4822,40.5325],[0.4882,40.5295],[0.5,40.5282],[0.5163,40.5233],[0.5146,40.5164],[0.5065,40.5073],[0.5072,40.505],[0.4999,40.498],[0.4953,40.4897],[0.4919,40.4883],[0.4863,40.4793],[0.4868,40.477],[0.4788,40.4688],[0.4789,40.4627],[0.4758,40.4665],[0.4678,40.4606],[0.4546,40.443],[0.4483,40.4381],[0.4424,40.429],[0.4374,40.4173],[0.435,40.4165],[0.4326,40.4138],[0.4352,40.4128],[0.4315,40.4122],[0.4184,40.3999],[0.4105,40.3836],[0.4047,40.3637],[0.4056,40.3606],[0.4092,40.3606],[0.4098,40.3579],[0.4073,40.3565],[0.4008,40.3582],[0.4012,40.3558],[0.3936,40.3522],[0.3876,40.3405],[0.3776,40.3341],[0.3752,40.3302],[0.3675,40.3262],[0.3642,40.3204],[0.3553,40.3125],[0.3517,40.3],[0.3482,40.2965],[0.3367,40.292],[0.3343,40.2834],[0.3235,40.2747],[0.319,40.2711],[0.3124,40.2694],[0.3052,40.2599],[0.2969,40.2586],[0.29,40.2527],[0.2885,40.2532],[0.2875,40.2488],[0.2798,40.2445],[0.2777,40.2375],[0.2741,40.2354],[0.2743,40.2287],[0.2662,40.2098],[0.2569,40.2036],[0.2316,40.1983],[0.2112,40.1845],[0.2023,40.1811],[0.1836,40.1609],[0.1621,40.1243],[0.1491,40.0976],[0.1472,40.0882],[0.1488,40.0831],[0.145,40.0815],[0.1434,40.0835],[0.1384,40.0822],[0.1361,40.0803],[0.1373,40.0791],[0.1342,40.0779],[0.1332,40.0719],[0.1217,40.0627],[0.1154,40.0618],[0.1071,40.0569],[0.0912,40.0561],[0.084,40.0569],[0.0717,40.0486],[0.072,40.047],[0.0657,40.0462],[0.0628,40.0427],[0.0529,40.038],[0.0479,40.0323],[0.0403,40.0157],[0.0368,40.0124],[0.0339,40.0022],[0.0293,39.9964],[0.0217,39.9747],[0.023,39.9736],[0.0219,39.9701],[0.0211,39.9737],[0.0184,39.9747],[0.0159,39.9732],[0.0155,39.9708],[0.0252,39.9684],[0.0221,39.9677],[0.0149,39.9706],[0.0126,39.9691],[0.0159,39.967],[0.0115,39.9683],[-0.0047,39.9163],[-0.0089,39.9114],[-0.0651,39.8686],[-0.0678,39.8647],[-0.0668,39.863],[-0.0682,39.8616],[-0.0695,39.8651],[-0.0739,39.8628],[-0.0677,39.8592],[-0.0755,39.8627],[-0.0951,39.8419],[-0.1222,39.8092],[-0.151,39.7705],[-0.1653,39.7528],[-0.1709,39.7464],[-0.18,39.7355],[-0.1873,39.7223],[-0.1955,39.7032],[-0.2002,39.6857],[-0.2024,39.6721],[-0.2084,39.6605],[-0.207,39.6435],[-0.2084,39.6528],[-0.2145,39.6557],[-0.219,39.6502],[-0.2166,39.6485],[-0.2278,39.6397],[-0.237,39.6361],[-0.2577,39.6153],[-0.2669,39.5986],[-0.2728,39.5782],[-0.2792,39.5665],[-0.2819,39.5603],[-0.281,39.5645],[-0.2831,39.5609],[-0.2855,39.5605],[-0.2982,39.5455],[-0.3096,39.5308],[-0.3128,39.5254],[-0.3178,39.5149],[-0.3223,39.485],[-0.3201,39.4581],[-0.316,39.4522],[-0.3007,39.4495],[-0.301,39.4408],[-0.3019,39.4491],[-0.3125,39.451],[-0.3134,39.4482],[-0.3139,39.451],[-0.3169,39.4518],[-0.3222,39.4593],[-0.3241,39.4583],[-0.3238,39.4618],[-0.3281,39.4623],[-0.3302,39.4593],[-0.3259,39.4556],[-0.3221,39.4545],[-0.3249,39.4521],[-0.3193,39.4501],[-0.32,39.4489],[-0.3244,39.45],[-0.3238,39.4441],[-0.3149,39.4436],[-0.3239,39.4437],[-0.326,39.4461],[-0.3306,39.4438],[-0.3347,39.4343],[-0.3317,39.4339],[-0.3314,39.4279],[-0.3346,39.425],[-0.3325,39.4242],[-0.3247,39.3898],[-0.3146,39.3605],[-0.2909,39.3097],[-0.2971,39.3099],[-0.2905,39.3081],[-0.274,39.2799],[-0.2731,39.2793],[-0.2435,39.2258],[-0.221,39.1891],[-0.2145,39.1864],[-0.2187,39.1808],[-0.2212,39.1823],[-0.2262,39.182],[-0.2277,39.1789],[-0.2317,39.1809],[-0.2358,39.1787],[-0.24,39.1644],[-0.2383,39.1521],[-0.2346,39.1511],[-0.2381,39.1499],[-0.2376,39.1447],[-0.2345,39.1415],[-0.2364,39.1413],[-0.2349,39.1368],[-0.2208,39.1062],[-0.1983,39.0589],[-0.18,39.0312],[-0.1548,38.9973],[-0.1474,38.997],[-0.1554,38.9959],[-0.1597,38.9927],[-0.1502,38.9963],[-0.1512,38.9945],[-0.1507,38.9902],[-0.1458,38.9838],[-0.1348,38.9714],[-0.1177,38.9544],[-0.1066,38.9439],[-0.0688,38.9107],[-0.0365,38.8868],[-0.014,38.8725],[0.0118,38.8661],[0.0163,38.8642],[0.0226,38.8654],[0.0377,38.8603],[0.0558,38.8636],[0.0798,38.8569],[0.0947,38.8549],[0.1016,38.8499],[0.1209,38.8453],[0.1103,38.8475],[0.1121,38.844],[0.1212,38.8365],[0.1232,38.8446],[0.1216,38.8364],[0.1273,38.8332],[0.1312,38.8327],[0.1347,38.8352],[0.1485,38.8319],[0.1519,38.8284],[0.1556,38.8281],[0.1621,38.8211],[0.1679,38.8182],[0.1746,38.814],[0.1856,38.8117],[0.1985,38.8047],[0.1993,38.8019],[0.1912,38.8004],[0.1886,38.7958],[0.1893,38.7996],[0.1852,38.7983],[0.1835,38.7952],[0.1843,38.7881],[0.1918,38.7775],[0.1925,38.7726],[0.1951,38.7732],[0.211,38.7611],[0.2206,38.7606],[0.2219,38.7633],[0.2247,38.7651],[0.2226,38.758],[0.2268,38.755],[0.2248,38.7516],[0.2269,38.745],[0.2339,38.746],[0.2329,38.732],[0.2272,38.7337],[0.2233,38.7312],[0.2197,38.7313],[0.2161,38.7283],[0.215,38.7326],[0.2054,38.7324],[0.1977,38.7296],[0.2004,38.7262],[0.1963,38.7248],[0.1911,38.7246],[0.1856,38.7206],[0.1834,38.7213],[0.1805,38.7172],[0.1763,38.7136],[0.1682,38.7109],[0.1655,38.7039],[0.1592,38.6983],[0.1569,38.6984],[0.1564,38.6872],[0.1544,38.6855],[0.1497,38.6795],[0.147,38.6881],[0.1308,38.6873],[0.1251,38.6846],[0.1163,38.6743],[0.1095,38.6751],[0.0993,38.6732],[0.089,38.665],[0.0895,38.6624],[0.086,38.6599],[0.0792,38.6533],[0.0803,38.6514],[0.0763,38.6477],[0.0746,38.6425],[0.0768,38.6414],[0.0779,38.6365],[0.0814,38.6354],[0.0841,38.6319],[0.0746,38.6325],[0.0711,38.6361],[0.0724,38.6391],[0.0594,38.6422],[0.048,38.6417],[0.0351,38.6353],[0.0315,38.6315],[0.0317,38.6263],[0.0113,38.6332],[0.0068,38.6289],[0.0041,38.631],[-0.0025,38.6313],[-0.0155,38.6269],[-0.0306,38.6166],[-0.0318,38.613],[-0.0391,38.6062],[-0.0406,38.6069],[-0.0412,38.6037],[-0.0526,38.5937],[-0.0517,38.5898],[-0.0543,38.5919],[-0.0628,38.5775],[-0.0627,38.5716],[-0.0478,38.564],[-0.0519,38.5599],[-0.058,38.5589],[-0.0671,38.5477],[-0.0675,38.5442],[-0.0724,38.5418],[-0.0737,38.5391],[-0.0779,38.5381],[-0.0871,38.5315],[-0.0968,38.5238],[-0.1077,38.5293],[-0.1065,38.5319],[-0.1082,38.5336],[-0.1254,38.5354],[-0.1302,38.5329],[-0.1304,38.5347],[-0.1339,38.5365],[-0.1468,38.5363],[-0.158,38.5311],[-0.1608,38.5278],[-0.1591,38.5254],[-0.1627,38.5237],[-0.1665,38.5235],[-0.1729,38.516],[-0.1774,38.5156],[-0.1791,38.5172],[-0.1856,38.5144],[-0.1874,38.5156],[-0.1985,38.5148],[-0.2104,38.5108],[-0.2157,38.5072],[-0.2141,38.5092],[-0.2156,38.5101],[-0.2262,38.5071],[-0.2364,38.4998],[-0.264,38.4949],[-0.3003,38.4823],[-0.3151,38.475],[-0.3177,38.4715],[-0.3328,38.4633],[-0.3417,38.4559],[-0.369,38.4442],[-0.3744,38.4424],[-0.3756,38.4382],[-0.3803,38.4373],[-0.3827,38.432],[-0.3855,38.4321],[-0.3902,38.4223],[-0.3907,38.4151],[-0.4001,38.4125],[-0.4072,38.3825],[-0.408,38.3591],[-0.4015,38.3533],[-0.4113,38.352],[-0.4288,38.3537],[-0.4321,38.3552],[-0.4333,38.3603],[-0.4426,38.3631],[-0.4711,38.3491],[-0.4776,38.3443],[-0.4766,38.3374],[-0.4853,38.3311],[-0.4773,38.3378],[-0.4794,38.3442],[-0.486,38.3398],[-0.4843,38.3383],[-0.481,38.3387],[-0.4835,38.3363],[-0.4888,38.3357],[-0.4852,38.3355],[-0.4873,38.3337],[-0.4902,38.336],[-0.4935,38.3359],[-0.4939,38.3376],[-0.5021,38.3354],[-0.5084,38.3281],[-0.5131,38.3175],[-0.5188,38.298],[-0.5182,38.2753],[-0.5139,38.2407],[-0.5106,38.2319],[-0.5092,38.2247],[-0.5059,38.213],[-0.5088,38.2024],[-0.5132,38.1973],[-0.522,38.1924],[-0.5355,38.1892],[-0.5381,38.1896],[-0.5517,38.1897],[-0.5552,38.1894],[-0.5596,38.1854],[-0.5555,38.1906],[-0.5593,38.1916],[-0.5941,38.1883],[-0.6114,38.1758],[-0.6248,38.1549],[-0.6331,38.1429],[-0.6373,38.1288],[-0.6449,38.0914],[-0.6505,38.0339],[-0.6488,38.0299],[-0.6515,38.0249],[-0.6512,38.0106],[-0.6457,38.0048],[-0.6463,38.0018],[-0.6536,37.9944],[-0.6522,37.9931],[-0.6547,37.992],[-0.6538,37.9862],[-0.6559,37.9848],[-0.6547,37.9833],[-0.6585,37.9841],[-0.6628,37.9808],[-0.6648,37.9764],[-0.6674,37.9776],[-0.6769,37.974],[-0.6789,37.9691],[-0.686,37.9652],[-0.6789,37.97],[-0.678,37.9729],[-0.6802,37.9758],[-0.6819,37.9744],[-0.6858,37.9763],[-0.6917,37.9736],[-0.6927,37.9721],[-0.6867,37.9677],[-0.6941,37.9713],[-0.7021,37.9564],[-0.7037,37.9415],[-0.7092,37.942],[-0.7164,37.9371],[-0.7213,37.9211],[-0.718,37.9126],[-0.7194,37.911],[-0.7278,37.9143],[-0.7349,37.9093],[-0.7392,37.9096],[-0.7453,37.8998],[-0.747,37.9006],[-0.749,37.8991],[-0.7509,37.8887],[-0.7528,37.8724],[-0.7545,37.8681],[-0.7587,37.8676],[-0.7599,37.8656],[-0.761,37.8474],[-0.7701,37.8443],[-0.7818,37.8456],[-0.7963,37.8534],[-0.8027,37.8596],[-0.8295,37.8648],[-0.8403,37.8727],[-0.8501,37.8822],[-0.899,37.9236],[-0.9212,37.9469],[-0.933,37.9693],[-0.9565,37.9974],[-0.9648,38.0131],[-0.9807,38.0297],[-0.9974,38.0518],[-1.0054,38.0554],[-1.0092,38.06],[-1.0214,38.0761],[-1.0291,38.0975],[-1.0294,38.1163],[-1.0356,38.1381],[-1.0076,38.1673],[-1.0037,38.1725],[-0.9949,38.1883],[-0.9873,38.1999],[-0.9766,38.2387]]],[[[-1.455,40.1313],[-1.456,40.1354],[-1.4476,40.1457],[-1.4306,40.1396],[-1.4212,40.1427],[-1.4105,40.1412],[-1.3923,40.1347],[-1.3837,40.1386],[-1.3756,40.1406],[-1.3624,40.139],[-1.3626,40.1322],[-1.3605,40.13],[-1.3559,40.1293],[-1.3348,40.1425],[-1.3185,40.1468],[-1.3154,40.15],[-1.3182,40.1565],[-1.3161,40.1645],[-1.3213,40.172],[-1.3218,40.1852],[-1.3138,40.2017],[-1.2995,40.2067],[-1.2959,40.2099],[-1.297,40.212],[-1.2918,40.2073],[-1.2955,40.1996],[-1.2858,40.1823],[-1.2831,40.1719],[-1.2755,40.1676],[-1.2753,40.1626],[-1.2512,40.1437],[-1.2445,40.1474],[-1.2431,40.1463],[-1.2476,40.136],[-1.2446,40.1284],[-1.2494,40.1243],[-1.2437,40.1165],[-1.2351,40.1138],[-1.2204,40.116],[-1.2072,40.1107],[-1.2001,40.1114],[-1.1902,40.1111],[-1.1643,40.1152],[-1.1486,40.1151],[-1.1464,40.1146],[-1.1427,40.1089],[-1.1344,40.1045],[-1.1322,40.0978],[-1.1215,40.0961],[-1.1166,40.0932],[-1.1106,40.0932],[-1.0815,40.0716],[-1.0769,40.0692],[-1.0782,40.0674],[-1.0709,40.0608],[-1.0705,40.052],[-1.0754,40.0482],[-1.083,40.0366],[-1.0967,40.033],[-1.106,40.0267],[-1.1329,40.0161],[-1.145,40.0171],[-1.1522,40.013],[-1.164,40.0105],[-1.1717,40.0112],[-1.1905,40.0019],[-1.1983,40.0038],[-1.2059,40.0022],[-1.2154,40.0019],[-1.2468,39.9954],[-1.2661,40.0005],[-1.2736,40.004],[-1.2852,40.0085],[-1.3068,40.0108],[-1.3271,40.0138],[-1.3345,40.017],[-1.3488,40.0155],[-1.3577,40.0127],[-1.3631,40.0125],[-1.3756,40.0169],[-1.38,40.0275],[-1.3819,40.0393],[-1.3925,40.0535],[-1.3995,40.0674],[-1.4119,40.0816],[-1.4123,40.0864],[-1.419,40.0939],[-1.4064,40.1018],[-1.409,40.1049],[-1.4281,40.114],[-1.4416,40.1184],[-1.455,40.1313]]],[[[-0.4684,38.1659],[-0.4637,38.1636],[-0.4696,38.1626],[-0.4831,38.167],[-0.4684,38.1659]]],[[[-0.1282,38.5016],[-0.1312,38.5021],[-0.1295,38.5045],[-0.127,38.5029],[-0.1282,38.5016]]],[[[0.2295,38.7566],[0.2314,38.7576],[0.2324,38.7554],[0.2305,38.7539],[0.2295,38.7566]]],[[[0.6718,39.8917],[0.6716,39.8921],[0.6723,39.8921],[0.6718,39.8917]]],[[[0.6856,39.897],[0.6869,39.8952],[0.6898,39.8953],[0.6883,39.8937],[0.6855,39.895],[0.6849,39.8976],[0.6894,39.901],[0.6895,39.8992],[0.6856,39.897]]]]}},{"type":"Feature","properties":{"kind":"coastline","name":"Costa de la Comunitat Valenciana","length_km":474.6},"geometry":{"type":"MultiLineString","coordinates":[[[0.5154,40.5197],[0.5146,40.5164],[0.5065,40.5073],[0.5072,40.505],[0.4999,40.498],[0.4953,40.4897],[0.4919,40.4883],[0.4863,40.4793],[0.4868,40.477],[0.4788,40.4688],[0.4789,40.4627],[0.4758,40.4665],[0.4678,40.4606],[0.4546,40.443],[0.4483,40.4381],[0.4424,40.429],[0.4374,40.4173],[0.435,40.4165],[0.4326,40.4138],[0.4352,40.4128],[0.4315,40.4122],[0.4184,40.3999],[0.4105,40.3836],[0.4047,40.3637],[0.4056,40.3606],[0.4092,40.3606],[0.4098,40.3579],[0.4073,40.3565],[0.4008,40.3582],[0.4012,40.3558],[0.3936,40.3522],[0.3876,40.3405],[0.3776,40.3341],[0.3752,40.3302],[0.3675,40.3262],[0.3642,40.3204],[0.3553,40.3125],[0.3517,40.3],[0.3482,40.2965],[0.3367,40.292],[0.3343,40.2834],[0.3235,40.2747],[0.319,40.2711],[0.3124,40.2694],[0.3052,40.2599],[0.2969,40.2586],[0.29,40.2527],[0.2885,40.2532],[0.2875,40.2488],[0.2798,40.2445],[0.2777,40.2375],[0.2741,40.2354],[0.2743,40.2287],[0.2662,40.2098],[0.2569,40.2036],[0.2316,40.1983],[0.2112,40.1845],[0.2023,40.1811],[0.1836,40.1609],[0.1621,40.1243],[0.1491,40.0976],[0.1472,40.0882],[0.1488,40.0831],[0.145,40.0815],[0.1434,40.0835],[0.1384,40.0822],[0.1361,40.0803],[0.1373,40.0791],[0.1342,40.0779],[0.1332,40.0719],[0.1217,40.0627],[0.1154,40.0618],[0.1071,40.0569],[0.0912,40.0561],[0.084,40.0569],[0.0717,40.0486],[0.072,40.047],[0.0657,40.0462],[0.0628,40.0427],[0.0529,40.038],[0.0479,40.0323],[0.0403,40.0157],[0.0368,40.0124],[0.0339,40.0022],[0.0293,39.9964],[0.0217,39.9747],[0.023,39.9736],[0.0219,39.9701],[0.0211,39.9737],[0.0184,39.9747],[0.0159,39.9732],[0.0155,39.9708],[0.0252,39.9684],[0.0221,39.9677],[0.0149,39.9706],[0.0126,39.9691],[0.0159,39.967],[0.0115,39.9683],[-0.0047,39.9163],[-0.0089,39.9114],[-0.0651,39.8686],[-0.0678,39.8647],[-0.0668,39.863],[-0.0682,39.8616],[-0.0695,39.8651],[-0.0739,39.8628],[-0.0677,39.8592],[-0.0755,39.8627],[-0.0951,39.8419],[-0.1222,39.8092],[-0.151,39.7705],[-0.1653,39.7528],[-0.1709,39.7464],[-0.18,39.7355],[-0.1873,39.7223],[-0.1955,39.7032],[-0.2002,39.6857],[-0.2024,39.6721],[-0.2084,39.6605],[-0.207,39.6435],[-0.2084,39.6528],[-0.2145,39.6557],[-0.219,39.6502],[-0.2166,39.6485],[-0.2278,39.6397],[-0.237,39.6361],[-0.2577,39.6153],[-0.2669,39.5986],[-0.2728,39.5782],[-0.2792,39.5665],[-0.2819,39.5603],[-0.281,39.5645],[-0.2831,39.5609],[-0.2855,39.5605],[-0.2982,39.5455],[-0.3096,39.5308],[-0.3128,39.5254],[-0.3178,39.5149],[-0.3223,39.485],[-0.3201,39.4581],[-0.316,39.4522],[-0.3007,39.4495],[-0.301,39.4408],[-0.3019,39.4491],[-0.3125,39.451],[-0.3134,39.4482],[-0.3139,39.451],[-0.3169,39.4518],[-0.3222,39.4593],[-0.3241,39.4583],[-0.3238,39.4618],[-0.3281,39.4623],[-0.3302,39.4593],[-0.3259,39.4556],[-0.3221,39.4545],[-0.3249,39.4521],[-0.3193,39.4501],[-0.32,39.4489],[-0.3244,39.45],[-0.3238,39.4441],[-0.3149,39.4436],[-0.3239,39.4437],[-0.326,39.4461],[-0.3306,39.4438],[-0.3347,39.4343],[-0.3317,39.4339],[-0.3314,39.4279],[-0.3346,39.425],[-0.3325,39.4242],[-0.3247,39.3898],[-0.3146,39.3605],[-0.2909,39.3097],[-0.2971,39.3099],[-0.2905,39.3081],[-0.274,39.2799],[-0.2731,39.2793],[-0.2435,39.2258],[-0.221,39.1891],[-0.2145,39.1864],[-0.2187,39.1808],[-0.2212,39.1823],[-0.2262,39.182],[-0.2277,39.1789],[-0.2317,39.1809],[-0.2358,39.1787],[-0.24,39.1644],[-0.2383,39.1521],[-0.2346,39.1511],[-0.2381,39.1499],[-0.2376,39.1447],[-0.2345,39.1415],[-0.2364,39.1413],[-0.2349,39.1368],[-0.2208,39.1062],[-0.1983,39.0589],[-0.18,39.0312],[-0.1548,38.9973],[-0.1474,38.997],[-0.1554,38.9959],[-0.1597,38.9927],[-0.1502,38.9963],[-0.1512,38.9945],[-0.1507,38.9902],[-0.1458,38.9838],[-0.1348,38.9714],[-0.1177,38.9544],[-0.1066,38.9439],[-0.0688,38.9107],[-0.0365,38.8868],[-0.014,38.8725],[0.0118,38.8661],[0.0163,38.8642],[0.0226,38.8654],[0.0377,38.8603],[0.0558,38.8636],[0.0798,38.8569],[0.0947,38.8549],[0.1016,38.8499],[0.1209,38.8453],[0.1103,38.8475],[0.1121,38.844],[0.1212,38.8365],[0.1232,38.8446],[0.1216,38.8364],[0.1273,38.8332],[0.1312,38.8327],[0.1347,38.8352],[0.1485,38.8319],[0.1519,38.8284],[0.1556,38.8281],[0.1621,38.8211],[0.1679,38.8182],[0.1746,38.814],[0.1856,38.8117],[0.1985,38.8047],[0.1993,38.8019],[0.1912,38.8004],[0.1886,38.7958],[0.1893,38.7996],[0.1852,38.7983],[0.1835,38.7952],[0.1843,38.7881],[0.1918,38.7775],[0.1925,38.7726],[0.1951,38.7732],[0.211,38.7611],[0.2206,38.7606],[0.2219,38.7633],[0.2247,38.7651],[0.2226,38.758],[0.2268,38.755],[0.2248,38.7516],[0.2269,38.745],[0.2339,38.746],[0.2329,38.732],[0.2272,38.7337],[0.2233,38.7312],[0.2197,38.7313],[0.2161,38.7283],[0.215,38.7326],[0.2054,38.7324],[0.1977,38.7296],[0.2004,38.7262],[0.1963,38.7248],[0.1911,38.7246],[0.1856,38.7206],[0.1834,38.7213],[0.1805,38.7172],[0.1763,38.7136],[0.1682,38.7109],[0.1655,38.7039],[0.1592,38.6983],[0.1569,38.6984],[0.1564,38.6872],[0.1544,38.6855],[0.1497,38.6795],[0.147,38.6881],[0.1308,38.6873],[0.1251,38.6846],[0.1163,38.6743],[0.1095,38.6751],[0.0993,38.6732],[0.089,38.665],[0.0895,38.6624],[0.086,38.6599],[0.0792,38.6533],[0.0803,38.6514],[0.0763,38.6477],[0.0746,38.6425],[0.0768,38.6414],[0.0779,38.6365],[0.0814,38.6354],[0.0841,38.6319],[0.0746,38.6325],[0.0711,38.6361],[0.0724,38.6391],[0.0594,38.6422],[0.048,38.6417],[0.0351,38.6353],[0.0315,38.6315],[0.0317,38.6263],[0.0113,38.6332],[0.0068,38.6289],[0.0041,38.631],[-0.0025,38.6313],[-0.0155,38.6269],[-0.0306,38.6166],[-0.0318,38.613],[-0.0391,38.6062],[-0.0406,38.6069],[-0.0412,38.6037],[-0.0526,38.5937],[-0.0517,38.5898],[-0.0543,38.5919],[-0.0628,38.5775],[-0.0627,38.5716],[-0.0478,38.564],[-0.0519,38.5599],[-0.058,38.5589],[-0.0671,38.5477],[-0.0675,38.5442],[-0.0724,38.5418],[-0.0737,38.5391],[-0.0779,38.5381],[-0.0871,38.5315],[-0.0968,38.5238],[-0.1077,38.5293],[-0.1065,38.5319],[-0.1082,38.5336],[-0.1254,38.5354],[-0.1302,38.5329],[-0.1304,38.5347],[-0.1339,38.5365],[-0.1468,38.5363],[-0.158,38.5311],[-0.1608,38.5278],[-0.1591,38.5254],[-0.1627,38.5237],[-0.1665,38.5235],[-0.1729,38.516],[-0.1774,38.5156],[-0.1791,38.5172],[-0.1856,38.5144],[-0.1874,38.5156],[-0.1985,38.5148],[-0.2104,38.5108],[-0.2157,38.5072],[-0.2141,38.5092],[-0.2156,38.5101],[-0.2262,38.5071],[-0.2364,38.4998],[-0.264,38.4949],[-0.3003,38.4823],[-0.3151,38.475],[-0.3177,38.4715],[-0.3328,38.4633],[-0.3417,38.4559],[-0.369,38.4442],[-0.3744,38.4424],[-0.3756,38.4382],[-0.3803,38.4373],[-0.3827,38.432],[-0.3855,38.4321],[-0.3902,38.4223],[-0.3907,38.4151],[-0.4001,38.4125],[-0.4072,38.3825],[-0.408,38.3591],[-0.4015,38.3533],[-0.4113,38.352],[-0.4288,38.3537],[-0.4321,38.3552],[-0.4333,38.3603],[-0.4426,38.3631],[-0.4711,38.3491],[-0.4776,38.3443],[-0.4766,38.3374],[-0.4853,38.3311],[-0.4773,38.3378],[-0.4794,38.3442],[-0.486,38.3398],[-0.4843,38.3383],[-0.481,38.3387],[-0.4835,38.3363],[-0.4888,38.3357],[-0.4852,38.3355],[-0.4873,38.3337],[-0.4902,38.336],[-0.4935,38.3359],[-0.4939,38.3376],[-0.5021,38.3354],[-0.5084,38.3281],[-0.5131,38.3175],[-0.5188,38.298],[-0.5182,38.2753],[-0.5139,38.2407],[-0.5106,38.2319],[-0.5092,38.2247],[-0.5059,38.213],[-0.5088,38.2024],[-0.5132,38.1973],[-0.522,38.1924],[-0.5355,38.1892],[-0.5381,38.1896],[-0.5517,38.1897],[-0.5552,38.1894],[-0.5596,38.1854],[-0.5555,38.1906],[-0.5593,38.1916],[-0.5941,38.1883],[-0.6114,38.1758],[-0.6248,38.1549],[-0.6331,38.1429],[-0.6373,38.1288],[-0.6449,38.0914],[-0.6505,38.0339],[-0.6488,38.0299],[-0.6515,38.0249],[-0.6512,38.0106],[-0.6457,38.0048],[-0.6463,38.0018],[-0.6536,37.9944],[-0.6522,37.9931],[-0.6547,37.992],[-0.6538,37.9862],[-0.6559,37.9848],[-0.6547,37.9833],[-0.6585,37.9841],[-0.6628,37.9808],[-0.6648,37.9764],[-0.6674,37.9776],[-0.6769,37.974],[-0.6789,37.9691],[-0.686,37.9652],[-0.6789,37.97],[-0.678,37.9729],[-0.6802,37.9758],[-0.6819,37.9744],[-0.6858,37.9763],[-0.6917,37.9736],[-0.6927,37.9721],[-0.6867,37.9677],[-0.6941,37.9713],[-0.7021,37.9564],[-0.7037,37.9415],[-0.7092,37.942],[-0.7164,37.9371],[-0.7213,37.9211],[-0.718,37.9126],[-0.7194,37.911],[-0.7278,37.9143],[-0.7349,37.9093],[-0.7392,37.9096],[-0.7453,37.8998],[-0.747,37.9006],[-0.749,37.8991],[-0.7509,37.8887],[-0.7528,37.8724],[-0.7545,37.8681],[-0.7587,37.8676],[-0.7599,37.8656],[-0.7608,37.851]],[[-0.4684,38.1659],[-0.4637,38.1636],[-0.4696,38.1626],[-0.4831,38.167],[-0.4684,38.1659]]]}},{"type":"Feature","properties":{"kind":"land_box","name":"Land inside the Riuà box (+0.3° margin)"},"geometry":{"type":"MultiPolygon","coordinates":[[[[1.0994,41.0683],[1.0519,41.0648],[0.9676,41.0288],[0.9331,40.9918],[0.9185,40.9884],[0.8635,40.9472],[0.8589,40.935],[0.835,40.9163],[0.7935,40.867],[0.7703,40.8576],[0.7638,40.847],[0.7531,40.8465],[0.7429,40.824],[0.7008,40.8042],[0.7105,40.7863],[0.7415,40.7658],[0.7637,40.7622],[0.7859,40.77],[0.774,40.7793],[0.7324,40.7886],[0.7633,40.7935],[0.7801,40.7861],[0.839,40.7307],[0.8556,40.7302],[0.8446,40.729],[0.8648,40.7218],[0.8753,40.7344],[0.8887,40.7197],[0.8777,40.7017],[0.8426,40.6761],[0.7927,40.6613],[0.7692,40.6482],[0.7092,40.5852],[0.6813,40.5646],[0.651,40.5555],[0.6251,40.5548],[0.6102,40.5594],[0.599,40.5748],[0.612,40.5788],[0.6197,40.5725],[0.6181,40.5868],[0.6572,40.5819],[0.6616,40.5922],[0.6888,40.5902],[0.6905,40.6023],[0.6891,40.5904],[0.7125,40.5925],[0.7471,40.6365],[0.7278,40.6421],[0.6959,40.6367],[0.6949,40.6413],[0.6644,40.6269],[0.6038,40.6224],[0.5993,40.6208],[0.6036,40.6167],[0.6003,40.6143],[0.5997,40.6195],[0.5946,40.6167],[0.6057,40.6095],[0.5957,40.6155],[0.5491,40.5749],[0.5557,40.5711],[0.5487,40.5741],[0.5394,40.5678],[0.4789,40.4627],[0.4758,40.4665],[0.4678,40.4606],[0.4424,40.429],[0.4373,40.4113],[0.435,40.4165],[0.4184,40.3999],[0.4047,40.3637],[0.4098,40.3579],[0.3936,40.3522],[0.3343,40.2834],[0.2798,40.2445],[0.2662,40.2098],[0.2023,40.1811],[0.1621,40.1243],[0.1488,40.0831],[0.1384,40.0822],[0.1217,40.0627],[0.084,40.0569],[0.0479,40.0323],[0.0217,39.9747],[0.0294,39.9691],[0.0184,39.9747],[0.0155,39.9708],[0.0252,39.9684],[0.0115,39.9683],[-0.0047,39.9163],[-0.0651,39.8686],[-0.0658,39.8581],[-0.0695,39.8651],[-0.0739,39.8628],[-0.0677,39.8592],[-0.0755,39.8627],[-0.1222,39.8092],[-0.1873,39.7223],[-0.2084,39.6605],[-0.207,39.6435],[-0.2145,39.6557],[-0.219,39.6502],[-0.2131,39.6473],[-0.237,39.6361],[-0.2577,39.6153],[-0.2819,39.5603],[-0.281,39.5645],[-0.3128,39.5254],[-0.3223,39.485],[-0.3201,39.4581],[-0.3007,39.4495],[-0.301,39.4408],[-0.3019,39.4491],[-0.3134,39.4482],[-0.3281,39.4623],[-0.3178,39.4444],[-0.3238,39.4441],[-0.3149,39.4436],[-0.3239,39.4437],[-0.326,39.4461],[-0.3347,39.4343],[-0.3247,39.3898],[-0.2909,39.3097],[-0.2971,39.3099],[-0.2905,39.3081],[-0.2145,39.1864],[-0.2187,39.1808],[-0.2358,39.1787],[-0.2376,39.1447],[-0.1983,39.0589],[-0.1548,38.9973],[-0.1474,38.997],[-0.1554,38.9959],[-0.1597,38.9927],[-0.1502,38.9963],[-0.1458,38.9838],[-0.1066,38.9439],[-0.014,38.8725],[0.0377,38.8603],[0.0558,38.8636],[0.1209,38.8453],[0.1269,38.8489],[0.121,38.8451],[0.1103,38.8475],[0.1212,38.8365],[0.1232,38.8446],[0.1273,38.8332],[0.1485,38.8319],[0.1985,38.8047],[0.1852,38.7983],[0.1843,38.7881],[0.1925,38.7726],[0.211,38.7611],[0.2247,38.7651],[0.2329,38.732],[0.2161,38.7283],[0.2054,38.7324],[0.1834,38.7213],[0.1569,38.6984],[0.1497,38.6795],[0.147,38.6881],[0.1308,38.6873],[0.1163,38.6743],[0.0993,38.6732],[0.0763,38.6477],[0.0841,38.6319],[0.0746,38.6325],[0.0724,38.6391],[0.048,38.6417],[0.0351,38.6353],[0.0317,38.6263],[0.0113,38.6332],[-0.0155,38.6269],[-0.0406,38.6069],[-0.0628,38.5775],[-0.0627,38.5716],[-0.0478,38.564],[-0.0968,38.5238],[-0.1082,38.5336],[-0.1468,38.5363],[-0.1729,38.516],[-0.2262,38.5071],[-0.3151,38.475],[-0.3417,38.4559],[-0.3744,38.4424],[-0.3907,38.4151],[-0.4001,38.4125],[-0.408,38.3591],[-0.4015,38.3533],[-0.4288,38.3537],[-0.4426,38.3631],[-0.4776,38.3443],[-0.4766,38.3374],[-0.4853,38.3311],[-0.4773,38.3378],[-0.4794,38.3442],[-0.4873,38.3337],[-0.4939,38.3376],[-0.5084,38.3281],[-0.5188,38.298],[-0.5088,38.2024],[-0.5373,38.1861],[-0.5517,38.1897],[-0.5596,38.1854],[-0.5593,38.1916],[-0.5941,38.1883],[-0.6114,38.1758],[-0.6373,38.1288],[-0.6515,38.0249],[-0.6457,38.0048],[-0.6547,37.9833],[-0.686,37.9652],[-0.678,37.9729],[-0.6917,37.9736],[-0.6867,37.9677],[-0.6941,37.9713],[-0.7037,37.9415],[-0.7164,37.9371],[-0.718,37.9126],[-0.7392,37.9096],[-0.749,37.8991],[-0.761,37.8474],[-0.7562,37.8236],[-0.7495,37.8219],[-0.7554,37.8231],[-0.757,37.8172],[-0.747,37.7911],[-0.7537,37.7885],[-0.7754,37.8202],[-0.7832,37.8196],[-0.8025,37.7982],[-0.7967,37.7853],[-0.8262,37.7562],[-0.8454,37.7475],[-0.8589,37.7219],[-0.8242,37.6757],[-0.8041,37.6596],[-0.75,37.6424],[-0.7466,37.6352],[-0.7269,37.6351],[-0.7189,37.6498],[-0.7221,37.6589],[-0.7394,37.6618],[-0.7285,37.6622],[-0.7445,37.7065],[-0.738,37.738],[-0.7442,37.7483],[-0.7407,37.7436],[-0.7409,37.7479],[-0.7325,37.7473],[-0.744,37.7497],[-0.7494,37.7784],[-0.7565,37.7802],[-0.7442,37.7831],[-0.7391,37.7728],[-0.7442,37.7595],[-0.734,37.7497],[-0.7268,37.7507],[-0.7204,37.7403],[-0.7262,37.7472],[-0.7318,37.7474],[-0.7376,37.7005],[-0.7105,37.6446],[-0.7017,37.6357],[-0.6879,37.6372],[-0.6874,37.6332],[-0.7006,37.631],[-0.7167,37.6074],[-0.7306,37.602],[-0.7825,37.5946],[-0.8184,37.5756],[-0.8412,37.5779],[-0.8404,37.5857],[-0.8497,37.5881],[-0.8514,37.5812],[-0.8774,37.5785],[-0.8775,37.5707],[-0.9186,37.555],[-0.9612,37.5618],[-0.944,37.5716],[-0.9739,37.5774],[-0.9741,37.5893],[-0.9822,37.5895],[-0.9705,37.5935],[-0.9747,37.5995],[-0.9886,37.5976],[-0.9927,37.602],[-0.9821,37.5846],[-1.0079,37.5864],[-1.012,37.5751],[-1.0723,37.5846],[-1.0917,37.5715],[-1.1077,37.5697],[-1.1259,37.5527],[-1.1099,37.5346],[-1.1641,37.5421],[-1.1732,37.5516],[-1.1676,37.5583],[-1.2004,37.5741],[-1.2451,37.5768],[-1.2571,37.5666],[-1.2556,37.5584],[-1.2651,37.5612],[-1.2865,37.5562],[-1.3242,37.5629],[-1.3534,37.5506],[-1.3715,37.5329],[-1.3888,37.5254],[-1.4011,37.5077],[-1.4265,37.5038],[-1.4587,37.487],[-1.4803,37.4532],[-1.4831,37.4361],[-1.4765,37.429],[-1.4913,37.422],[-1.501,37.4323],[-1.5173,37.4324],[-1.546,37.4109],[-1.5588,37.4115],[-1.5595,37.4047],[-1.5701,37.4086],[-1.5787,37.401],[-1.5896,37.4026],[-1.6243,37.3809],[-1.6247,37.3746],[-1.6434,37.3719],[-1.6521,37.3548],[-1.6718,37.3564],[-1.7026,37.3118],[-2.7,37.3],[-2.7,41.3],[1.1,41.3],[1.0994,41.0683]]],[[[-1.5463,37.4098],[-1.5427,37.4094],[-1.5457,37.4077],[-1.5463,37.4098]]],[[[-1.2659,37.5588],[-1.2662,37.5548],[-1.2696,37.5561],[-1.2659,37.5588]]],[[[-0.9658,37.5603],[-0.9688,37.5594],[-0.9679,37.5609],[-0.9658,37.5603]]],[[[-0.746,37.6662],[-0.7478,37.6654],[-0.7484,37.6666],[-0.746,37.6662]]],[[[-0.739,37.6711],[-0.7375,37.6698],[-0.7397,37.6687],[-0.739,37.6711]]],[[[-0.7682,37.6906],[-0.7749,37.6962],[-0.7702,37.7034],[-0.7639,37.6947],[-0.7682,37.6906]]],[[[-0.7953,37.7021],[-0.7965,37.6965],[-0.8022,37.7032],[-0.7953,37.7021]]],[[[-0.7034,37.7288],[-0.7082,37.7308],[-0.7049,37.731],[-0.7034,37.7288]]],[[[-0.7555,37.7842],[-0.7588,37.7882],[-0.7528,37.784],[-0.7555,37.7842]]],[[[-0.7579,37.7909],[-0.7605,37.7891],[-0.761,37.791],[-0.7579,37.7909]]],[[[-0.7589,37.7934],[-0.7604,37.7922],[-0.7602,37.7945],[-0.7589,37.7934]]],[[[-0.4831,38.167],[-0.4684,38.1659],[-0.4637,38.1636],[-0.4696,38.1626],[-0.4831,38.167]]],[[[-0.1295,38.5045],[-0.1282,38.5016],[-0.1312,38.5021],[-0.1295,38.5045]]],[[[0.2324,38.7554],[0.2295,38.7566],[0.2314,38.7576],[0.2324,38.7554]]],[[[0.6718,39.8917],[0.6716,39.8921],[0.6723,39.8921],[0.6718,39.8917]]],[[[0.6894,39.901],[0.6855,39.895],[0.6849,39.8976],[0.6894,39.901]]],[[[0.8642,40.725],[0.862,40.7286],[0.8577,40.7306],[0.862,40.7299],[0.8642,40.725]]]]}}]}