{"type":"FeatureCollection","name":"AEMET Meteoalerta zones — Comunitat Valenciana","attribution":"© AEMET. Obra derivada de BDLJE CC-BY ign.es © Instituto Geográfico Nacional de España","features":[{"type":"Feature","properties":{"code":"770301","name":"Litoral norte de Alicante","province":"Alicante","province_code":"03","area_km2":1411.5,"label_lon":-0.1397,"label_lat":38.7325},"geometry":{"type":"MultiPolygon","coordinates":[[[[-0.594,38.7955],[-0.579,38.8013],[-0.5664,38.8021],[-0.559,38.8045],[-0.5471,38.8061],[-0.5341,38.8108],[-0.5244,38.811],[-0.5146,38.8072],[-0.4783,38.805],[-0.4733,38.8043],[-0.4607,38.808],[-0.4594,38.8153],[-0.4463,38.8201],[-0.4431,38.8209],[-0.4421,38.8195],[-0.4391,38.8242],[-0.4303,38.8269],[-0.4029,38.8335],[-0.4032,38.8393],[-0.401,38.8402],[-0.392,38.8366],[-0.3812,38.8349],[-0.354,38.8502],[-0.3501,38.8567],[-0.3487,38.8577],[-0.3522,38.859],[-0.3436,38.8622],[-0.3345,38.8644],[-0.3225,38.8639],[-0.3115,38.8754],[-0.3096,38.8819],[-0.2981,38.8821],[-0.2879,38.873],[-0.2722,38.8644],[-0.2591,38.8603],[-0.2447,38.859],[-0.2409,38.861],[-0.2294,38.8539],[-0.1951,38.8598],[-0.1965,38.8667],[-0.1875,38.8738],[-0.1789,38.8792],[-0.1664,38.8803],[-0.1611,38.8832],[-0.1596,38.8878],[-0.1526,38.8723],[-0.1539,38.8609],[-0.1469,38.8588],[-0.1009,38.8754],[-0.0943,38.8753],[-0.0909,38.8719],[-0.0886,38.8796],[-0.0771,38.8809],[-0.0775,38.8845],[-0.0694,38.8861],[-0.064,38.879],[-0.0637,38.8752],[-0.0558,38.8695],[-0.0447,38.865],[-0.041,38.8568],[-0.0335,38.8573],[-0.0262,38.862],[-0.0272,38.8676],[-0.0236,38.8727],[-0.0281,38.8743],[-0.0322,38.8797],[-0.0359,38.881],[-0.0365,38.8868],[-0.014,38.8725],[0.0118,38.8661],[0.0163,38.8642],[0.0226,38.8654],[0.0377,38.8603],[0.0558,38.8636],[0.0798,38.8569],[0.0947,38.8549],[0.1016,38.8499],[0.1209,38.8453],[0.1103,38.8475],[0.1121,38.844],[0.1212,38.8365],[0.1232,38.8446],[0.1216,38.8364],[0.1273,38.8332],[0.1312,38.8327],[0.1347,38.8352],[0.1485,38.8319],[0.1519,38.8284],[0.1556,38.8281],[0.1621,38.8211],[0.1679,38.8182],[0.1746,38.814],[0.1856,38.8117],[0.1985,38.8047],[0.1993,38.8019],[0.1912,38.8004],[0.1886,38.7958],[0.1893,38.7996],[0.1852,38.7983],[0.1835,38.7952],[0.1843,38.7881],[0.1918,38.7775],[0.1925,38.7726],[0.1951,38.7732],[0.211,38.7611],[0.2206,38.7606],[0.2219,38.7633],[0.2247,38.7651],[0.2226,38.758],[0.2268,38.755],[0.2248,38.7516],[0.2269,38.745],[0.2339,38.746],[0.2329,38.732],[0.2272,38.7337],[0.2233,38.7312],[0.2197,38.7313],[0.2161,38.7283],[0.215,38.7326],[0.2054,38.7324],[0.1977,38.7296],[0.2004,38.7262],[0.1963,38.7248],[0.1911,38.7246],[0.1856,38.7206],[0.1834,38.7213],[0.1805,38.7172],[0.1763,38.7136],[0.1682,38.7109],[0.1655,38.7039],[0.1592,38.6983],[0.1569,38.6984],[0.1564,38.6872],[0.1544,38.6855],[0.1497,38.6795],[0.147,38.6881],[0.1308,38.6873],[0.1251,38.6846],[0.1163,38.6743],[0.1095,38.6751],[0.0993,38.6732],[0.089,38.665],[0.0895,38.6624],[0.086,38.6599],[0.0792,38.6533],[0.0803,38.6514],[0.0763,38.6477],[0.0746,38.6425],[0.0768,38.6414],[0.0779,38.6365],[0.0814,38.6354],[0.0841,38.6319],[0.0746,38.6325],[0.0711,38.6361],[0.0724,38.6391],[0.0594,38.6422],[0.048,38.6417],[0.0351,38.6353],[0.0315,38.6315],[0.0317,38.6263],[0.0113,38.6332],[0.0068,38.6289],[0.0041,38.631],[-0.0025,38.6313],[-0.0155,38.6269],[-0.0306,38.6166],[-0.0318,38.613],[-0.0391,38.6062],[-0.0406,38.6069],[-0.0412,38.6037],[-0.0526,38.5937],[-0.0517,38.5898],[-0.0543,38.5919],[-0.0628,38.5775],[-0.0732,38.5862],[-0.0731,38.5894],[-0.0789,38.5965],[-0.0837,38.604],[-0.0829,38.6066],[-0.0769,38.6067],[-0.0799,38.6205],[-0.087,38.6215],[-0.0923,38.6255],[-0.0958,38.6252],[-0.0961,38.6276],[-0.0998,38.6278],[-0.105,38.6301],[-0.1057,38.6286],[-0.1114,38.63],[-0.1244,38.6409],[-0.125,38.6388],[-0.1314,38.6416],[-0.1449,38.6415],[-0.1502,38.6428],[-0.1551,38.6477],[-0.1657,38.6446],[-0.1709,38.6377],[-0.1786,38.6365],[-0.1726,38.6253],[-0.1783,38.6207],[-0.1855,38.6105],[-0.1965,38.6085],[-0.2149,38.6111],[-0.2233,38.6084],[-0.2321,38.6027],[-0.2397,38.5955],[-0.2398,38.5919],[-0.2491,38.5962],[-0.2699,38.5857],[-0.2769,38.5902],[-0.2856,38.5899],[-0.2913,38.5926],[-0.2941,38.5962],[-0.2919,38.5969],[-0.2953,38.6037],[-0.3025,38.6052],[-0.3097,38.6036],[-0.3128,38.6096],[-0.3219,38.6188],[-0.3274,38.6189],[-0.3319,38.6221],[-0.3303,38.6248],[-0.3325,38.6316],[-0.3283,38.6378],[-0.3232,38.6376],[-0.3154,38.6419],[-0.3264,38.6469],[-0.3249,38.6491],[-0.3276,38.6523],[-0.3344,38.6544],[-0.3522,38.6496],[-0.3532,38.6617],[-0.3506,38.6634],[-0.35,38.6676],[-0.3482,38.6692],[-0.3458,38.6679],[-0.344,38.673],[-0.3423,38.6732],[-0.3449,38.6807],[-0.3409,38.6845],[-0.3469,38.6863],[-0.3484,38.685],[-0.3532,38.6858],[-0.3583,38.7045],[-0.3642,38.7091],[-0.3686,38.7095],[-0.3702,38.7123],[-0.3767,38.7103],[-0.3786,38.7072],[-0.3731,38.7014],[-0.3793,38.6951],[-0.3829,38.696],[-0.3851,38.6925],[-0.3906,38.6907],[-0.406,38.6911],[-0.416,38.689],[-0.4282,38.6917],[-0.4352,38.6885],[-0.4428,38.702],[-0.4481,38.7033],[-0.4466,38.7062],[-0.4494,38.7142],[-0.4576,38.7166],[-0.4637,38.7161],[-0.474,38.7245],[-0.493,38.7343],[-0.4928,38.7387],[-0.5059,38.7434],[-0.5063,38.7557],[-0.5197,38.7571],[-0.524,38.7606],[-0.5247,38.7643],[-0.5303,38.7676],[-0.5407,38.7642],[-0.5406,38.7622],[-0.5553,38.7579],[-0.5587,38.7543],[-0.5644,38.7558],[-0.5742,38.7645],[-0.5831,38.7688],[-0.5888,38.7773],[-0.5888,38.7849],[-0.5951,38.7907],[-0.5924,38.7923],[-0.594,38.7955]]],[[[0.2305,38.7539],[0.2295,38.7566],[0.2314,38.7576],[0.2324,38.7554],[0.2305,38.7539]]]]}},{"type":"Feature","properties":{"code":"770302","name":"Interior de Alicante","province":"Alicante","province_code":"03","area_km2":1875.8,"label_lon":-0.7015,"label_lat":38.5552},"geometry":{"type":"Polygon","coordinates":[[[-0.9277,38.7842],[-0.9137,38.7818],[-0.9163,38.7766],[-0.912,38.77],[-0.9038,38.7675],[-0.8866,38.7695],[-0.8813,38.7724],[-0.8605,38.7713],[-0.859,38.7698],[-0.8345,38.7416],[-0.8364,38.7369],[-0.8334,38.7328],[-0.8305,38.7328],[-0.8162,38.7384],[-0.8092,38.7386],[-0.8054,38.7357],[-0.7999,38.7376],[-0.7915,38.7396],[-0.7864,38.7469],[-0.7825,38.7488],[-0.7784,38.7471],[-0.7645,38.7514],[-0.7603,38.7495],[-0.7509,38.7558],[-0.7422,38.756],[-0.7436,38.7597],[-0.736,38.7571],[-0.7337,38.7598],[-0.7308,38.7567],[-0.7348,38.754],[-0.7321,38.7521],[-0.721,38.7541],[-0.716,38.751],[-0.7072,38.7396],[-0.706,38.7342],[-0.6876,38.7417],[-0.6764,38.7295],[-0.6699,38.732],[-0.652,38.7309],[-0.6422,38.7282],[-0.6424,38.7187],[-0.6388,38.7076],[-0.6413,38.7045],[-0.6283,38.69],[-0.6275,38.687],[-0.6169,38.6871],[-0.6156,38.6901],[-0.6077,38.6948],[-0.5926,38.7003],[-0.583,38.709],[-0.55,38.7175],[-0.5337,38.7334],[-0.5234,38.736],[-0.5221,38.7385],[-0.5147,38.7401],[-0.511,38.7438],[-0.5059,38.7434],[-0.4928,38.7387],[-0.493,38.7343],[-0.474,38.7245],[-0.4637,38.7161],[-0.4576,38.7166],[-0.4494,38.7142],[-0.4466,38.7062],[-0.4481,38.7033],[-0.4428,38.702],[-0.4352,38.6885],[-0.4282,38.6917],[-0.416,38.689],[-0.406,38.6911],[-0.3906,38.6907],[-0.3851,38.6925],[-0.3829,38.696],[-0.3793,38.6951],[-0.3731,38.7014],[-0.3786,38.7072],[-0.3767,38.7103],[-0.3702,38.7123],[-0.3686,38.7095],[-0.3642,38.7091],[-0.3583,38.7045],[-0.3532,38.6858],[-0.3484,38.685],[-0.3469,38.6863],[-0.3409,38.6845],[-0.3449,38.6807],[-0.3423,38.6732],[-0.344,38.673],[-0.3458,38.6679],[-0.3482,38.6692],[-0.35,38.6676],[-0.3506,38.6634],[-0.3532,38.6617],[-0.3522,38.6496],[-0.3344,38.6544],[-0.3276,38.6523],[-0.3249,38.6491],[-0.3264,38.6469],[-0.3154,38.6419],[-0.3232,38.6376],[-0.3283,38.6378],[-0.3325,38.6316],[-0.3303,38.6248],[-0.3319,38.6221],[-0.3429,38.6181],[-0.3484,38.6126],[-0.357,38.606],[-0.3625,38.6052],[-0.3642,38.6012],[-0.3768,38.5974],[-0.3749,38.5914],[-0.39,38.5874],[-0.3981,38.5796],[-0.4077,38.5741],[-0.4019,38.5653],[-0.3941,38.5611],[-0.3938,38.5521],[-0.3987,38.5411],[-0.4102,38.5393],[-0.4171,38.5403],[-0.4217,38.5388],[-0.4244,38.5353],[-0.4275,38.5336],[-0.4302,38.5341],[-0.4314,38.5267],[-0.4296,38.5261],[-0.4335,38.5236],[-0.4336,38.5208],[-0.4321,38.5206],[-0.4319,38.5176],[-0.4345,38.5139],[-0.4375,38.5125],[-0.4392,38.5095],[-0.4466,38.5062],[-0.4466,38.5036],[-0.4445,38.5012],[-0.4471,38.4987],[-0.4475,38.4968],[-0.4512,38.4945],[-0.4622,38.4929],[-0.479,38.4839],[-0.5035,38.4756],[-0.5124,38.4807],[-0.5169,38.4794],[-0.5229,38.4787],[-0.526,38.4744],[-0.5309,38.4736],[-0.5366,38.4721],[-0.5406,38.4759],[-0.5532,38.4774],[-0.5609,38.4813],[-0.5939,38.4745],[-0.6136,38.4767],[-0.6185,38.4789],[-0.6203,38.4827],[-0.6253,38.4861],[-0.6256,38.4897],[-0.6292,38.4941],[-0.6302,38.5027],[-0.6343,38.4984],[-0.6527,38.4956],[-0.6544,38.4945],[-0.6521,38.4862],[-0.6595,38.4739],[-0.6673,38.4662],[-0.7046,38.4525],[-0.7074,38.4541],[-0.7186,38.4534],[-0.7327,38.4429],[-0.7558,38.439],[-0.7816,38.4379],[-0.7908,38.4358],[-0.7947,38.433],[-0.7973,38.4346],[-0.8053,38.4342],[-0.8063,38.4312],[-0.8032,38.4267],[-0.8073,38.4252],[-0.8149,38.4145],[-0.8204,38.4084],[-0.8312,38.4009],[-0.8646,38.3891],[-0.8506,38.3758],[-0.8483,38.3755],[-0.8494,38.3734],[-0.8389,38.3692],[-0.8393,38.3618],[-0.8311,38.3576],[-0.8546,38.351],[-0.8726,38.3482],[-0.9244,38.3298],[-0.936,38.3308],[-0.9441,38.3294],[-0.9703,38.33],[-0.9878,38.321],[-1.0272,38.339],[-1.0574,38.346],[-1.0832,38.3466],[-1.0869,38.3682],[-1.0856,38.3974],[-1.0869,38.4028],[-1.0849,38.4189],[-1.0842,38.4296],[-1.076,38.4319],[-1.093,38.4383],[-1.0809,38.4415],[-1.0581,38.4562],[-1.0337,38.4749],[-1.0147,38.4947],[-1.0127,38.4975],[-1.0249,38.5232],[-1.0147,38.5375],[-1.0083,38.5583],[-1.0004,38.5731],[-1.0065,38.5917],[-1.0108,38.6065],[-1.0147,38.6355],[-1.0228,38.6404],[-1.0257,38.6559],[-1.0096,38.657],[-1.0079,38.6587],[-0.9903,38.6555],[-0.9613,38.6573],[-0.9313,38.6779],[-0.9146,38.6964],[-0.924,38.7051],[-0.9273,38.709],[-0.9265,38.7135],[-0.9367,38.7263],[-0.9383,38.7321],[-0.9447,38.7371],[-0.9602,38.7752],[-0.9488,38.7765],[-0.9277,38.7842]]]}},{"type":"Feature","properties":{"code":"770303","name":"Litoral sur de Alicante","province":"Alicante","province_code":"03","area_km2":2533.1,"label_lon":-0.7432,"label_lat":38.2484},"geometry":{"type":"MultiPolygon","coordinates":[[[[-1.0076,38.1673],[-1.0037,38.1725],[-0.9949,38.1883],[-0.9873,38.1999],[-0.9766,38.2387],[-0.9674,38.2562],[-0.9679,38.2818],[-0.9703,38.2905],[-0.9833,38.3075],[-0.9878,38.321],[-0.9703,38.33],[-0.9441,38.3294],[-0.936,38.3308],[-0.9244,38.3298],[-0.8726,38.3482],[-0.8546,38.351],[-0.8311,38.3576],[-0.8393,38.3618],[-0.8389,38.3692],[-0.8494,38.3734],[-0.8483,38.3755],[-0.8506,38.3758],[-0.8646,38.3891],[-0.8312,38.4009],[-0.8204,38.4084],[-0.8149,38.4145],[-0.8073,38.4252],[-0.8032,38.4267],[-0.8063,38.4312],[-0.8053,38.4342],[-0.7973,38.4346],[-0.7947,38.433],[-0.7908,38.4358],[-0.7816,38.4379],[-0.7558,38.439],[-0.7327,38.4429],[-0.7186,38.4534],[-0.7074,38.4541],[-0.7046,38.4525],[-0.6673,38.4662],[-0.6595,38.4739],[-0.6521,38.4862],[-0.6544,38.4945],[-0.6527,38.4956],[-0.6343,38.4984],[-0.6302,38.5027],[-0.6292,38.4941],[-0.6256,38.4897],[-0.6253,38.4861],[-0.6203,38.4827],[-0.6185,38.4789],[-0.6136,38.4767],[-0.5939,38.4745],[-0.5609,38.4813],[-0.5532,38.4774],[-0.5406,38.4759],[-0.5366,38.4721],[-0.5309,38.4736],[-0.526,38.4744],[-0.5229,38.4787],[-0.5169,38.4794],[-0.5124,38.4807],[-0.5035,38.4756],[-0.479,38.4839],[-0.4622,38.4929],[-0.4512,38.4945],[-0.4475,38.4968],[-0.4471,38.4987],[-0.4445,38.5012],[-0.4466,38.5036],[-0.4466,38.5062],[-0.4392,38.5095],[-0.4375,38.5125],[-0.4345,38.5139],[-0.4319,38.5176],[-0.4321,38.5206],[-0.4336,38.5208],[-0.4335,38.5236],[-0.4296,38.5261],[-0.4314,38.5267],[-0.4302,38.5341],[-0.4275,38.5336],[-0.4244,38.5353],[-0.4217,38.5388],[-0.4171,38.5403],[-0.4102,38.5393],[-0.3987,38.5411],[-0.3938,38.5521],[-0.3941,38.5611],[-0.4019,38.5653],[-0.4077,38.5741],[-0.3981,38.5796],[-0.39,38.5874],[-0.3749,38.5914],[-0.3768,38.5974],[-0.3642,38.6012],[-0.3625,38.6052],[-0.357,38.606],[-0.3484,38.6126],[-0.3429,38.6181],[-0.3319,38.6221],[-0.3274,38.6189],[-0.3219,38.6188],[-0.3128,38.6096],[-0.3097,38.6036],[-0.3025,38.6052],[-0.2953,38.6037],[-0.2919,38.5969],[-0.2941,38.5962],[-0.2913,38.5926],[-0.2856,38.5899],[-0.2769,38.5902],[-0.2699,38.5857],[-0.2491,38.5962],[-0.2398,38.5919],[-0.2397,38.5955],[-0.2321,38.6027],[-0.2233,38.6084],[-0.2149,38.6111],[-0.1965,38.6085],[-0.1855,38.6105],[-0.1783,38.6207],[-0.1726,38.6253],[-0.1786,38.6365],[-0.1709,38.6377],[-0.1657,38.6446],[-0.1551,38.6477],[-0.1502,38.6428],[-0.1449,38.6415],[-0.1314,38.6416],[-0.125,38.6388],[-0.1244,38.6409],[-0.1114,38.63],[-0.1057,38.6286],[-0.105,38.6301],[-0.0998,38.6278],[-0.0961,38.6276],[-0.0958,38.6252],[-0.0923,38.6255],[-0.087,38.6215],[-0.0799,38.6205],[-0.0769,38.6067],[-0.0829,38.6066],[-0.0837,38.604],[-0.0789,38.5965],[-0.0731,38.5894],[-0.0732,38.5862],[-0.0628,38.5775],[-0.0627,38.5716],[-0.0478,38.564],[-0.0519,38.5599],[-0.058,38.5589],[-0.0671,38.5477],[-0.0675,38.5442],[-0.0724,38.5418],[-0.0737,38.5391],[-0.0779,38.5381],[-0.0871,38.5315],[-0.0968,38.5238],[-0.1077,38.5293],[-0.1065,38.5319],[-0.1082,38.5336],[-0.1254,38.5354],[-0.1302,38.5329],[-0.1304,38.5347],[-0.1339,38.5365],[-0.1468,38.5363],[-0.158,38.5311],[-0.1608,38.5278],[-0.1591,38.5254],[-0.1627,38.5237],[-0.1665,38.5235],[-0.1729,38.516],[-0.1774,38.5156],[-0.1791,38.5172],[-0.1856,38.5144],[-0.1874,38.5156],[-0.1985,38.5148],[-0.2104,38.5108],[-0.2157,38.5072],[-0.2141,38.5092],[-0.2156,38.5101],[-0.2262,38.5071],[-0.2364,38.4998],[-0.264,38.4949],[-0.3003,38.4823],[-0.3151,38.475],[-0.3177,38.4715],[-0.3328,38.4633],[-0.3417,38.4559],[-0.369,38.4442],[-0.3744,38.4424],[-0.3756,38.4382],[-0.3803,38.4373],[-0.3827,38.432],[-0.3855,38.4321],[-0.3902,38.4223],[-0.3907,38.4151],[-0.4001,38.4125],[-0.4072,38.3825],[-0.408,38.3591],[-0.4015,38.3533],[-0.4113,38.352],[-0.4288,38.3537],[-0.4321,38.3552],[-0.4333,38.3603],[-0.4426,38.3631],[-0.4711,38.3491],[-0.4776,38.3443],[-0.4766,38.3374],[-0.4853,38.3311],[-0.4773,38.3378],[-0.4794,38.3442],[-0.486,38.3398],[-0.4843,38.3383],[-0.481,38.3387],[-0.4835,38.3363],[-0.4888,38.3357],[-0.4852,38.3355],[-0.4873,38.3337],[-0.4902,38.336],[-0.4935,38.3359],[-0.4939,38.3376],[-0.5021,38.3354],[-0.5084,38.3281],[-0.5131,38.3175],[-0.5188,38.298],[-0.5182,38.2753],[-0.5139,38.2407],[-0.5106,38.2319],[-0.5092,38.2247],[-0.5059,38.213],[-0.5088,38.2024],[-0.5132,38.1973],[-0.522,38.1924],[-0.5355,38.1892],[-0.5381,38.1896],[-0.5517,38.1897],[-0.5552,38.1894],[-0.5596,38.1854],[-0.5555,38.1906],[-0.5593,38.1916],[-0.5941,38.1883],[-0.6114,38.1758],[-0.6248,38.1549],[-0.6331,38.1429],[-0.6373,38.1288],[-0.6449,38.0914],[-0.6505,38.0339],[-0.6488,38.0299],[-0.6515,38.0249],[-0.6512,38.0106],[-0.6457,38.0048],[-0.6463,38.0018],[-0.6536,37.9944],[-0.6522,37.9931],[-0.6547,37.992],[-0.6538,37.9862],[-0.6559,37.9848],[-0.6547,37.9833],[-0.6585,37.9841],[-0.6628,37.9808],[-0.6648,37.9764],[-0.6674,37.9776],[-0.6769,37.974],[-0.6789,37.9691],[-0.686,37.9652],[-0.6789,37.97],[-0.678,37.9729],[-0.6802,37.9758],[-0.6819,37.9744],[-0.6858,37.9763],[-0.6917,37.9736],[-0.6927,37.9721],[-0.6867,37.9677],[-0.6941,37.9713],[-0.7021,37.9564],[-0.7037,37.9415],[-0.7092,37.942],[-0.7164,37.9371],[-0.7213,37.9211],[-0.718,37.9126],[-0.7194,37.911],[-0.7278,37.9143],[-0.7349,37.9093],[-0.7392,37.9096],[-0.7453,37.8998],[-0.747,37.9006],[-0.749,37.8991],[-0.7509,37.8887],[-0.7528,37.8724],[-0.7545,37.8681],[-0.7587,37.8676],[-0.7599,37.8656],[-0.761,37.8474],[-0.7701,37.8443],[-0.7818,37.8456],[-0.7963,37.8534],[-0.8027,37.8596],[-0.8295,37.8648],[-0.8403,37.8727],[-0.8501,37.8822],[-0.899,37.9236],[-0.9212,37.9469],[-0.933,37.9693],[-0.9565,37.9974],[-0.9648,38.0131],[-0.9807,38.0297],[-0.9974,38.0518],[-1.0054,38.0554],[-1.0092,38.06],[-1.0214,38.0761],[-1.0291,38.0975],[-1.0294,38.1163],[-1.0356,38.1381],[-1.0076,38.1673]]],[[[-0.1282,38.5016],[-0.1312,38.5021],[-0.1295,38.5045],[-0.127,38.5029],[-0.1282,38.5016]]],[[[-0.4684,38.1659],[-0.4637,38.1636],[-0.4696,38.1626],[-0.4831,38.167],[-0.4684,38.1659]]]]}},{"type":"Feature","properties":{"code":"771201","name":"Interior norte de Castellón","province":"Castellón","province_code":"12","area_km2":1494.1,"label_lon":-0.0954,"label_lat":40.5429},"geometry":{"type":"Polygon","coordinates":[[[0.2695,40.6599],[0.2564,40.6636],[0.2501,40.6603],[0.24,40.6611],[0.2005,40.652],[0.192,40.6519],[0.1864,40.6499],[0.1786,40.6507],[0.174,40.6474],[0.1592,40.6465],[0.1522,40.6442],[0.1493,40.6409],[0.1406,40.6371],[0.1483,40.6301],[0.1559,40.6274],[0.1587,40.614],[0.1639,40.6152],[0.1756,40.6107],[0.1778,40.6045],[0.1861,40.5991],[0.187,40.5959],[0.1785,40.5902],[0.1758,40.5844],[0.1644,40.5797],[0.147,40.5749],[0.1294,40.5809],[0.1221,40.5858],[0.1157,40.5868],[0.1005,40.5833],[0.0798,40.5724],[0.079,40.5662],[0.0864,40.5559],[0.0843,40.5489],[0.0876,40.5497],[0.0962,40.5478],[0.0996,40.5415],[0.1,40.5376],[0.0969,40.5365],[0.0938,40.53],[0.0949,40.5259],[0.0918,40.5189],[0.087,40.5153],[0.0809,40.5031],[0.0831,40.502],[0.0928,40.4814],[0.0862,40.4778],[0.0792,40.4687],[0.0667,40.4684],[0.0593,40.4653],[0.0553,40.466],[0.044,40.4507],[0.0416,40.4489],[0.0354,40.4496],[0.0328,40.4473],[0.0153,40.4414],[-0.0061,40.4084],[-0.0173,40.3958],[-0.0364,40.3853],[-0.044,40.3672],[-0.0274,40.3628],[-0.0435,40.3441],[-0.0435,40.3404],[-0.0472,40.3371],[-0.0576,40.3219],[-0.0846,40.2982],[-0.1036,40.3133],[-0.1043,40.3238],[-0.1007,40.3287],[-0.0892,40.3312],[-0.0824,40.3347],[-0.0866,40.3377],[-0.0914,40.3377],[-0.0861,40.3503],[-0.0876,40.3594],[-0.091,40.3583],[-0.0983,40.3509],[-0.1431,40.3609],[-0.1536,40.3567],[-0.1595,40.3565],[-0.17,40.36],[-0.1837,40.3619],[-0.19,40.359],[-0.196,40.3599],[-0.1989,40.3507],[-0.202,40.3514],[-0.2037,40.3538],[-0.2118,40.3527],[-0.2133,40.358],[-0.2184,40.3595],[-0.2186,40.3616],[-0.2134,40.3604],[-0.2159,40.3625],[-0.2133,40.3618],[-0.2114,40.3656],[-0.2152,40.3651],[-0.2161,40.3687],[-0.2219,40.3691],[-0.2212,40.3718],[-0.227,40.3733],[-0.2266,40.371],[-0.2328,40.3711],[-0.2316,40.3728],[-0.2348,40.3746],[-0.2397,40.3739],[-0.2429,40.3754],[-0.2441,40.3736],[-0.2468,40.3761],[-0.2482,40.3738],[-0.2518,40.3754],[-0.25,40.373],[-0.2545,40.3735],[-0.2573,40.3716],[-0.2581,40.3687],[-0.2615,40.3679],[-0.2704,40.3698],[-0.271,40.3726],[-0.2748,40.37],[-0.275,40.3674],[-0.2788,40.3698],[-0.2795,40.3772],[-0.2842,40.3868],[-0.2947,40.3957],[-0.3003,40.3981],[-0.306,40.4095],[-0.3135,40.4161],[-0.3316,40.4259],[-0.3461,40.4443],[-0.3415,40.4439],[-0.3416,40.4469],[-0.3377,40.4493],[-0.3372,40.4553],[-0.3314,40.4594],[-0.3188,40.4612],[-0.3079,40.4661],[-0.2922,40.4663],[-0.2942,40.4708],[-0.2862,40.4727],[-0.2846,40.4704],[-0.2808,40.4742],[-0.278,40.4731],[-0.2757,40.4762],[-0.2716,40.474],[-0.2702,40.4788],[-0.2729,40.482],[-0.2785,40.4838],[-0.2784,40.4886],[-0.2736,40.4942],[-0.2764,40.5019],[-0.2864,40.5099],[-0.2965,40.5061],[-0.3006,40.5163],[-0.2963,40.5316],[-0.2889,40.5443],[-0.2913,40.547],[-0.2891,40.5534],[-0.2928,40.5543],[-0.2913,40.557],[-0.2948,40.5608],[-0.295,40.5649],[-0.2937,40.5707],[-0.2979,40.5736],[-0.2987,40.5777],[-0.2931,40.5843],[-0.2923,40.5922],[-0.2942,40.5956],[-0.2921,40.5967],[-0.2938,40.6004],[-0.2911,40.6051],[-0.2921,40.6114],[-0.2979,40.6133],[-0.3108,40.6116],[-0.3209,40.6032],[-0.3336,40.6078],[-0.3421,40.6069],[-0.3428,40.6115],[-0.359,40.6159],[-0.3693,40.6139],[-0.3764,40.6192],[-0.3783,40.6252],[-0.3752,40.6367],[-0.3704,40.6423],[-0.3715,40.6479],[-0.3696,40.6511],[-0.3782,40.6574],[-0.3803,40.6619],[-0.3767,40.6679],[-0.3701,40.6682],[-0.3684,40.6704],[-0.3693,40.6726],[-0.355,40.678],[-0.3276,40.6806],[-0.3209,40.6781],[-0.3192,40.6687],[-0.3157,40.664],[-0.3058,40.6598],[-0.3056,40.6638],[-0.2989,40.6675],[-0.2924,40.6743],[-0.2877,40.6727],[-0.2778,40.6805],[-0.2598,40.6854],[-0.2492,40.6911],[-0.2348,40.6914],[-0.2363,40.6983],[-0.2324,40.7089],[-0.2352,40.71],[-0.238,40.7184],[-0.2362,40.7238],[-0.2301,40.7294],[-0.2305,40.7331],[-0.228,40.736],[-0.2293,40.7389],[-0.2255,40.7444],[-0.2228,40.7545],[-0.2116,40.7586],[-0.2092,40.7677],[-0.201,40.7754],[-0.2005,40.7799],[-0.1929,40.7825],[-0.196,40.7848],[-0.1656,40.7861],[-0.1637,40.789],[-0.1433,40.7858],[-0.146,40.7755],[-0.1426,40.769],[-0.1368,40.7662],[-0.1319,40.7583],[-0.1256,40.7537],[-0.1117,40.7487],[-0.1063,40.7437],[-0.1008,40.743],[-0.0853,40.7385],[-0.0786,40.7337],[-0.0635,40.7277],[-0.0525,40.7282],[-0.0425,40.7265],[-0.0302,40.7228],[-0.0214,40.7305],[-0.0165,40.7315],[0.0102,40.73],[0.0158,40.729],[0.0191,40.7262],[0.0173,40.7236],[0.0199,40.7199],[0.0296,40.7135],[0.0257,40.7076],[0.0276,40.6953],[0.0434,40.6913],[0.0739,40.7146],[0.1137,40.7275],[0.1131,40.725],[0.1177,40.7254],[0.125,40.7211],[0.1425,40.7188],[0.163,40.7229],[0.1719,40.7332],[0.1834,40.7286],[0.1922,40.7315],[0.1985,40.7245],[0.2173,40.7326],[0.2273,40.7335],[0.2253,40.726],[0.2278,40.7174],[0.2377,40.702],[0.2431,40.7007],[0.2525,40.7052],[0.2636,40.7062],[0.2713,40.7034],[0.2781,40.6947],[0.293,40.6889],[0.2935,40.6855],[0.2866,40.6793],[0.2833,40.6732],[0.2754,40.67],[0.2695,40.6599]]]}},{"type":"Feature","properties":{"code":"771202","name":"Litoral norte de Castellón","province":"Castellón","province_code":"12","area_km2":838.2,"label_lon":0.2913,"label_lat":40.469},"geometry":{"type":"Polygon","coordinates":[[[0.0928,40.4814],[0.0831,40.502],[0.0809,40.5031],[0.087,40.5153],[0.0918,40.5189],[0.0949,40.5259],[0.0938,40.53],[0.0969,40.5365],[0.1,40.5376],[0.0996,40.5415],[0.0962,40.5478],[0.0876,40.5497],[0.0843,40.5489],[0.0864,40.5559],[0.079,40.5662],[0.0798,40.5724],[0.1005,40.5833],[0.1157,40.5868],[0.1221,40.5858],[0.1294,40.5809],[0.147,40.5749],[0.1644,40.5797],[0.1758,40.5844],[0.1785,40.5902],[0.187,40.5959],[0.1861,40.5991],[0.1778,40.6045],[0.1756,40.6107],[0.1639,40.6152],[0.1587,40.614],[0.1559,40.6274],[0.1483,40.6301],[0.1406,40.6371],[0.1493,40.6409],[0.1522,40.6442],[0.1592,40.6465],[0.174,40.6474],[0.1786,40.6507],[0.1864,40.6499],[0.192,40.6519],[0.2005,40.652],[0.24,40.6611],[0.2501,40.6603],[0.2564,40.6636],[0.2695,40.6599],[0.2705,40.6484],[0.2672,40.6451],[0.2722,40.6386],[0.2778,40.6366],[0.28,40.6304],[0.2935,40.6236],[0.2996,40.6263],[0.3019,40.623],[0.317,40.6144],[0.3202,40.6152],[0.331,40.6114],[0.3458,40.6079],[0.352,40.6085],[0.3723,40.6054],[0.3896,40.6071],[0.3935,40.6045],[0.404,40.6023],[0.4076,40.5976],[0.4058,40.5952],[0.4188,40.5882],[0.4326,40.5798],[0.4451,40.5786],[0.4378,40.573],[0.4395,40.5706],[0.4346,40.5657],[0.4376,40.5578],[0.437,40.5502],[0.4392,40.5474],[0.4474,40.5453],[0.4502,40.5416],[0.4565,40.5412],[0.4781,40.5323],[0.4822,40.5325],[0.4882,40.5295],[0.5,40.5282],[0.5163,40.5233],[0.5146,40.5164],[0.5065,40.5073],[0.5072,40.505],[0.4999,40.498],[0.4953,40.4897],[0.4919,40.4883],[0.4863,40.4793],[0.4868,40.477],[0.4788,40.4688],[0.4789,40.4627],[0.4758,40.4665],[0.4678,40.4606],[0.4546,40.443],[0.4483,40.4381],[0.4424,40.429],[0.4374,40.4173],[0.435,40.4165],[0.4326,40.4138],[0.4352,40.4128],[0.4315,40.4122],[0.4184,40.3999],[0.4105,40.3836],[0.4047,40.3637],[0.4056,40.3606],[0.4092,40.3606],[0.4098,40.3579],[0.4073,40.3565],[0.4008,40.3582],[0.4012,40.3558],[0.3936,40.3522],[0.3876,40.3405],[0.3776,40.3341],[0.3752,40.3302],[0.3675,40.3262],[0.3642,40.3204],[0.3553,40.3125],[0.3517,40.3],[0.3482,40.2965],[0.3367,40.292],[0.3343,40.2834],[0.3235,40.2747],[0.2971,40.3075],[0.3036,40.3238],[0.2433,40.3629],[0.1907,40.3938],[0.1925,40.4039],[0.2029,40.4133],[0.2068,40.4159],[0.2169,40.4163],[0.2127,40.4215],[0.2072,40.4266],[0.1981,40.4269],[0.1948,40.4236],[0.1889,40.425],[0.1598,40.438],[0.1124,40.4631],[0.1032,40.4693],[0.0928,40.4814]]]}},{"type":"Feature","properties":{"code":"771203","name":"Interior sur de Castellón","province":"Castellón","province_code":"12","area_km2":2467.4,"label_lon":-0.481,"label_lat":40.0458},"geometry":{"type":"Polygon","coordinates":[[[-0.2788,40.3698],[-0.275,40.3674],[-0.2748,40.37],[-0.271,40.3726],[-0.2704,40.3698],[-0.2615,40.3679],[-0.2581,40.3687],[-0.2573,40.3716],[-0.2545,40.3735],[-0.25,40.373],[-0.2518,40.3754],[-0.2482,40.3738],[-0.2468,40.3761],[-0.2441,40.3736],[-0.2429,40.3754],[-0.2397,40.3739],[-0.2348,40.3746],[-0.2316,40.3728],[-0.2328,40.3711],[-0.2266,40.371],[-0.227,40.3733],[-0.2212,40.3718],[-0.2219,40.3691],[-0.2161,40.3687],[-0.2152,40.3651],[-0.2114,40.3656],[-0.2133,40.3618],[-0.2159,40.3625],[-0.2134,40.3604],[-0.2186,40.3616],[-0.2184,40.3595],[-0.2133,40.358],[-0.2118,40.3527],[-0.2037,40.3538],[-0.202,40.3514],[-0.1989,40.3507],[-0.196,40.3599],[-0.19,40.359],[-0.1837,40.3619],[-0.17,40.36],[-0.1595,40.3565],[-0.1536,40.3567],[-0.1431,40.3609],[-0.0983,40.3509],[-0.091,40.3583],[-0.0876,40.3594],[-0.0861,40.3503],[-0.0914,40.3377],[-0.0866,40.3377],[-0.0824,40.3347],[-0.0892,40.3312],[-0.1007,40.3287],[-0.1043,40.3238],[-0.1036,40.3133],[-0.0846,40.2982],[-0.0576,40.3219],[-0.0472,40.3371],[-0.0435,40.3404],[-0.0435,40.3441],[-0.0274,40.3628],[-0.0146,40.3523],[-0.0164,40.3448],[-0.0305,40.3298],[-0.0324,40.3223],[-0.0382,40.3152],[-0.0435,40.3149],[-0.0474,40.3025],[-0.0543,40.3001],[-0.056,40.2852],[-0.0672,40.2791],[-0.0639,40.2755],[-0.0678,40.2749],[-0.0693,40.2649],[-0.0806,40.2612],[-0.0805,40.257],[-0.0743,40.2537],[-0.0765,40.2388],[-0.0802,40.2267],[-0.0837,40.2257],[-0.0843,40.2204],[-0.079,40.2183],[-0.0834,40.2131],[-0.079,40.2073],[-0.0789,40.199],[-0.0749,40.1872],[-0.0805,40.1739],[-0.0805,40.1691],[-0.0846,40.1649],[-0.0953,40.1501],[-0.0965,40.1432],[-0.1063,40.1305],[-0.1289,40.1299],[-0.1339,40.1275],[-0.1368,40.1209],[-0.1417,40.1165],[-0.1363,40.1119],[-0.1418,40.111],[-0.1402,40.1059],[-0.1469,40.1028],[-0.1421,40.0899],[-0.1476,40.0884],[-0.1524,40.0864],[-0.1543,40.0811],[-0.1617,40.0759],[-0.1646,40.0713],[-0.163,40.0663],[-0.1534,40.0623],[-0.1505,40.059],[-0.1508,40.056],[-0.1558,40.0532],[-0.1534,40.0501],[-0.1595,40.0369],[-0.1568,40.0334],[-0.1632,40.0294],[-0.1601,40.0261],[-0.16,40.0202],[-0.1711,40.0228],[-0.2062,40.0118],[-0.2095,40.0212],[-0.2125,40.023],[-0.2182,40.0232],[-0.2238,40.0262],[-0.2311,40.0264],[-0.2423,40.0316],[-0.254,40.034],[-0.2626,40.0393],[-0.2754,40.0439],[-0.2819,40.0487],[-0.2864,40.0483],[-0.2749,40.0403],[-0.2642,40.0247],[-0.2571,40.022],[-0.2474,40.021],[-0.2485,40.0159],[-0.2538,40.0115],[-0.2601,40.016],[-0.2697,40.0117],[-0.2798,40.0137],[-0.2835,40.0119],[-0.2801,40.0022],[-0.2905,39.9943],[-0.2985,39.9836],[-0.3117,39.9757],[-0.2941,39.9678],[-0.2943,39.9546],[-0.2997,39.9509],[-0.2912,39.9536],[-0.2886,39.9525],[-0.2871,39.9468],[-0.2743,39.9331],[-0.2596,39.9264],[-0.2672,39.9226],[-0.2773,39.9233],[-0.2792,39.9217],[-0.2775,39.9208],[-0.2806,39.909],[-0.2898,39.9106],[-0.2909,39.9079],[-0.295,39.9074],[-0.3006,39.9091],[-0.306,39.9086],[-0.3122,39.9021],[-0.3186,39.9025],[-0.3261,39.8976],[-0.3295,39.8866],[-0.3358,39.8865],[-0.3367,39.8783],[-0.3347,39.8747],[-0.3428,39.8747],[-0.3435,39.8719],[-0.3395,39.8647],[-0.3436,39.8575],[-0.3431,39.8509],[-0.3484,39.8437],[-0.3496,39.8376],[-0.3479,39.833],[-0.337,39.8296],[-0.3284,39.8239],[-0.3253,39.8249],[-0.3123,39.8231],[-0.3093,39.8144],[-0.3148,39.8002],[-0.3271,39.8018],[-0.3767,39.8002],[-0.3876,39.7904],[-0.3906,39.7803],[-0.3847,39.7768],[-0.3857,39.7695],[-0.3878,39.7691],[-0.3949,39.759],[-0.4084,39.7456],[-0.418,39.7464],[-0.4318,39.7368],[-0.4379,39.7372],[-0.4363,39.7335],[-0.4382,39.7304],[-0.4439,39.7193],[-0.4472,39.7168],[-0.4598,39.7157],[-0.4625,39.7209],[-0.4695,39.7268],[-0.4739,39.7322],[-0.4815,39.7346],[-0.497,39.7479],[-0.5047,39.7598],[-0.5073,39.7711],[-0.5123,39.7762],[-0.5126,39.7795],[-0.5294,39.7963],[-0.5472,39.7961],[-0.5573,39.7909],[-0.5758,39.7736],[-0.5801,39.7571],[-0.587,39.7421],[-0.6298,39.7467],[-0.6511,39.7545],[-0.6465,39.7883],[-0.6435,39.792],[-0.6549,39.8363],[-0.6673,39.8408],[-0.6899,39.8528],[-0.6939,39.8504],[-0.7058,39.8355],[-0.7113,39.8172],[-0.7213,39.8136],[-0.7247,39.8149],[-0.7265,39.8166],[-0.7292,39.8152],[-0.7324,39.8188],[-0.7356,39.8211],[-0.7367,39.8278],[-0.7354,39.8295],[-0.7392,39.8323],[-0.744,39.8323],[-0.7439,39.8361],[-0.7528,39.8436],[-0.7723,39.8702],[-0.7919,39.8816],[-0.7965,39.8814],[-0.7964,39.8836],[-0.8007,39.8854],[-0.8037,39.8928],[-0.8232,39.9034],[-0.8317,39.9114],[-0.832,39.9178],[-0.8392,39.9253],[-0.8352,39.9287],[-0.8356,39.9337],[-0.8386,39.9424],[-0.8451,39.9481],[-0.843,39.9544],[-0.838,39.9559],[-0.8345,39.9604],[-0.8402,39.9693],[-0.8336,39.9797],[-0.8231,39.9827],[-0.8151,39.9828],[-0.7988,39.9917],[-0.7884,39.9903],[-0.7757,40.0005],[-0.7755,40.0013],[-0.7661,40.0104],[-0.761,40.0416],[-0.7524,40.047],[-0.7464,40.0382],[-0.7296,40.0428],[-0.7234,40.0397],[-0.7177,40.0391],[-0.7121,40.0426],[-0.7016,40.047],[-0.6824,40.0446],[-0.6629,40.0518],[-0.6447,40.068],[-0.6404,40.0679],[-0.6368,40.07],[-0.6347,40.0679],[-0.6345,40.0725],[-0.6304,40.0708],[-0.6279,40.0751],[-0.626,40.0766],[-0.6219,40.0756],[-0.6218,40.0698],[-0.6175,40.0687],[-0.6124,40.0704],[-0.6275,40.1025],[-0.6081,40.1261],[-0.6053,40.1286],[-0.6028,40.1271],[-0.5973,40.1289],[-0.5956,40.1327],[-0.5896,40.1341],[-0.585,40.1319],[-0.5789,40.1376],[-0.5773,40.1384],[-0.5783,40.1476],[-0.5735,40.1491],[-0.5743,40.152],[-0.5693,40.1558],[-0.568,40.1595],[-0.5728,40.173],[-0.5701,40.1762],[-0.5693,40.1807],[-0.5709,40.1818],[-0.5625,40.189],[-0.5567,40.2012],[-0.5579,40.2105],[-0.5467,40.2446],[-0.543,40.252],[-0.5258,40.2383],[-0.5094,40.2321],[-0.5004,40.2335],[-0.4933,40.2291],[-0.4875,40.2336],[-0.4761,40.2356],[-0.4688,40.2405],[-0.4654,40.2361],[-0.4619,40.2347],[-0.4506,40.2357],[-0.4269,40.2442],[-0.3873,40.262],[-0.3822,40.2657],[-0.3839,40.2738],[-0.3816,40.2787],[-0.3891,40.2883],[-0.3992,40.2952],[-0.3926,40.2981],[-0.3935,40.3007],[-0.3913,40.299],[-0.3888,40.3002],[-0.3903,40.3028],[-0.3889,40.306],[-0.3865,40.3076],[-0.3837,40.3058],[-0.3779,40.3104],[-0.3776,40.3086],[-0.3747,40.3053],[-0.3717,40.3091],[-0.3724,40.3053],[-0.3696,40.3054],[-0.3688,40.307],[-0.3649,40.3055],[-0.3687,40.3105],[-0.362,40.3169],[-0.3583,40.3135],[-0.3537,40.3151],[-0.3524,40.3136],[-0.3509,40.3181],[-0.3473,40.321],[-0.3484,40.3285],[-0.3463,40.3284],[-0.3454,40.3254],[-0.3419,40.3258],[-0.3425,40.3276],[-0.3399,40.3294],[-0.3408,40.3338],[-0.3418,40.3345],[-0.3394,40.3403],[-0.3364,40.3397],[-0.3356,40.3414],[-0.3312,40.3419],[-0.3304,40.3452],[-0.3228,40.3483],[-0.3132,40.3587],[-0.3075,40.358],[-0.3034,40.363],[-0.2969,40.3621],[-0.2885,40.3683],[-0.2879,40.3658],[-0.2842,40.3668],[-0.2812,40.3654],[-0.2827,40.3694],[-0.2788,40.3698]]]}},{"type":"Feature","properties":{"code":"771204","name":"Litoral sur de Castellón","province":"Castellón","province_code":"12","area_km2":1836.7,"label_lon":0.0022,"label_lat":40.1002},"geometry":{"type":"MultiPolygon","coordinates":[[[[0.6883,39.8937],[0.6855,39.895],[0.6849,39.8976],[0.6894,39.901],[0.6895,39.8992],[0.6856,39.897],[0.6869,39.8952],[0.6898,39.8953],[0.6883,39.8937]]],[[[0.6716,39.8921],[0.6723,39.8921],[0.6718,39.8917],[0.6716,39.8921]]],[[[-0.0274,40.3628],[-0.044,40.3672],[-0.0364,40.3853],[-0.0173,40.3958],[-0.0061,40.4084],[0.0153,40.4414],[0.0328,40.4473],[0.0354,40.4496],[0.0416,40.4489],[0.044,40.4507],[0.0553,40.466],[0.0593,40.4653],[0.0667,40.4684],[0.0792,40.4687],[0.0862,40.4778],[0.0928,40.4814],[0.1032,40.4693],[0.1124,40.4631],[0.1598,40.438],[0.1889,40.425],[0.1948,40.4236],[0.1981,40.4269],[0.2072,40.4266],[0.2127,40.4215],[0.2169,40.4163],[0.2068,40.4159],[0.2029,40.4133],[0.1925,40.4039],[0.1907,40.3938],[0.2433,40.3629],[0.3036,40.3238],[0.2971,40.3075],[0.3235,40.2747],[0.319,40.2711],[0.3124,40.2694],[0.3052,40.2599],[0.2969,40.2586],[0.29,40.2527],[0.2885,40.2532],[0.2875,40.2488],[0.2798,40.2445],[0.2777,40.2375],[0.2741,40.2354],[0.2743,40.2287],[0.2662,40.2098],[0.2569,40.2036],[0.2316,40.1983],[0.2112,40.1845],[0.2023,40.1811],[0.1836,40.1609],[0.1621,40.1243],[0.1491,40.0976],[0.1472,40.0882],[0.1488,40.0831],[0.145,40.0815],[0.1434,40.0835],[0.1384,40.0822],[0.1361,40.0803],[0.1373,40.0791],[0.1342,40.0779],[0.1332,40.0719],[0.1217,40.0627],[0.1154,40.0618],[0.1071,40.0569],[0.0912,40.0561],[0.084,40.0569],[0.0717,40.0486],[0.072,40.047],[0.0657,40.0462],[0.0628,40.0427],[0.0529,40.038],[0.0479,40.0323],[0.0403,40.0157],[0.0368,40.0124],[0.0339,40.0022],[0.0293,39.9964],[0.0217,39.9747],[0.023,39.9736],[0.0219,39.9701],[0.0211,39.9737],[0.0184,39.9747],[0.0159,39.9732],[0.0155,39.9708],[0.0252,39.9684],[0.0221,39.9677],[0.0149,39.9706],[0.0126,39.9691],[0.0159,39.967],[0.0115,39.9683],[-0.0047,39.9163],[-0.0089,39.9114],[-0.0651,39.8686],[-0.0678,39.8647],[-0.0668,39.863],[-0.0682,39.8616],[-0.0695,39.8651],[-0.0739,39.8628],[-0.0677,39.8592],[-0.0755,39.8627],[-0.0951,39.8419],[-0.1222,39.8092],[-0.151,39.7705],[-0.1653,39.7528],[-0.1709,39.7464],[-0.18,39.7355],[-0.1873,39.7223],[-0.1944,39.7247],[-0.2246,39.7358],[-0.2328,39.7404],[-0.2396,39.7406],[-0.2456,39.7434],[-0.2586,39.7439],[-0.27,39.7508],[-0.2725,39.7555],[-0.2704,39.7607],[-0.2744,39.7648],[-0.2753,39.7709],[-0.2963,39.7855],[-0.3074,39.7974],[-0.3148,39.8002],[-0.3093,39.8144],[-0.3123,39.8231],[-0.3253,39.8249],[-0.3284,39.8239],[-0.337,39.8296],[-0.3479,39.833],[-0.3496,39.8376],[-0.3484,39.8437],[-0.3431,39.8509],[-0.3436,39.8575],[-0.3395,39.8647],[-0.3435,39.8719],[-0.3428,39.8747],[-0.3347,39.8747],[-0.3367,39.8783],[-0.3358,39.8865],[-0.3295,39.8866],[-0.3261,39.8976],[-0.3186,39.9025],[-0.3122,39.9021],[-0.306,39.9086],[-0.3006,39.9091],[-0.295,39.9074],[-0.2909,39.9079],[-0.2898,39.9106],[-0.2806,39.909],[-0.2775,39.9208],[-0.2792,39.9217],[-0.2773,39.9233],[-0.2672,39.9226],[-0.2596,39.9264],[-0.2743,39.9331],[-0.2871,39.9468],[-0.2886,39.9525],[-0.2912,39.9536],[-0.2997,39.9509],[-0.2943,39.9546],[-0.2941,39.9678],[-0.3117,39.9757],[-0.2985,39.9836],[-0.2905,39.9943],[-0.2801,40.0022],[-0.2835,40.0119],[-0.2798,40.0137],[-0.2697,40.0117],[-0.2601,40.016],[-0.2538,40.0115],[-0.2485,40.0159],[-0.2474,40.021],[-0.2571,40.022],[-0.2642,40.0247],[-0.2749,40.0403],[-0.2864,40.0483],[-0.2819,40.0487],[-0.2754,40.0439],[-0.2626,40.0393],[-0.254,40.034],[-0.2423,40.0316],[-0.2311,40.0264],[-0.2238,40.0262],[-0.2182,40.0232],[-0.2125,40.023],[-0.2095,40.0212],[-0.2062,40.0118],[-0.1711,40.0228],[-0.16,40.0202],[-0.1601,40.0261],[-0.1632,40.0294],[-0.1568,40.0334],[-0.1595,40.0369],[-0.1534,40.0501],[-0.1558,40.0532],[-0.1508,40.056],[-0.1505,40.059],[-0.1534,40.0623],[-0.163,40.0663],[-0.1646,40.0713],[-0.1617,40.0759],[-0.1543,40.0811],[-0.1524,40.0864],[-0.1476,40.0884],[-0.1421,40.0899],[-0.1469,40.1028],[-0.1402,40.1059],[-0.1418,40.111],[-0.1363,40.1119],[-0.1417,40.1165],[-0.1368,40.1209],[-0.1339,40.1275],[-0.1289,40.1299],[-0.1063,40.1305],[-0.0965,40.1432],[-0.0953,40.1501],[-0.0846,40.1649],[-0.0805,40.1691],[-0.0805,40.1739],[-0.0749,40.1872],[-0.0789,40.199],[-0.079,40.2073],[-0.0834,40.2131],[-0.079,40.2183],[-0.0843,40.2204],[-0.0837,40.2257],[-0.0802,40.2267],[-0.0765,40.2388],[-0.0743,40.2537],[-0.0805,40.257],[-0.0806,40.2612],[-0.0693,40.2649],[-0.0678,40.2749],[-0.0639,40.2755],[-0.0672,40.2791],[-0.056,40.2852],[-0.0543,40.3001],[-0.0474,40.3025],[-0.0435,40.3149],[-0.0382,40.3152],[-0.0324,40.3223],[-0.0305,40.3298],[-0.0164,40.3448],[-0.0146,40.3523],[-0.0274,40.3628]]]]}},{"type":"Feature","properties":{"code":"774601","name":"Interior norte de Valencia","province":"Valencia","province_code":"46","area_km2":3617.8,"label_lon":-1.0954,"label_lat":39.6121},"geometry":{"type":"MultiPolygon","coordinates":[[[[-0.5879,39.4854],[-0.5875,39.4893],[-0.595,39.5004],[-0.5782,39.4954],[-0.5736,39.5035],[-0.5681,39.501],[-0.5672,39.4963],[-0.5531,39.5011],[-0.5439,39.4918],[-0.5389,39.4906],[-0.5345,39.4866],[-0.5451,39.4877],[-0.5584,39.4863],[-0.5609,39.4846],[-0.5674,39.4859],[-0.5879,39.4854]]],[[[-0.6592,39.6447],[-0.6664,39.6464],[-0.6744,39.6455],[-0.6721,39.6495],[-0.6746,39.6625],[-0.6793,39.6681],[-0.6869,39.6713],[-0.6879,39.6728],[-0.6847,39.6756],[-0.6571,39.661],[-0.6639,39.6521],[-0.6592,39.6447]]],[[[-1.5039,39.4184],[-1.5024,39.4237],[-1.4954,39.4297],[-1.5045,39.4294],[-1.5104,39.4354],[-1.5123,39.4342],[-1.5124,39.4294],[-1.5196,39.4319],[-1.5204,39.4349],[-1.5142,39.4391],[-1.5234,39.4437],[-1.5172,39.4493],[-1.5269,39.4526],[-1.5276,39.4557],[-1.5258,39.4577],[-1.5225,39.4582],[-1.5179,39.4562],[-1.5122,39.4587],[-1.5118,39.4716],[-1.5079,39.4781],[-1.5032,39.4781],[-1.502,39.4797],[-1.5046,39.4816],[-1.5097,39.4816],[-1.5113,39.4836],[-1.5097,39.4861],[-1.5038,39.4881],[-1.5097,39.4908],[-1.5113,39.4964],[-1.5098,39.4969],[-1.5028,39.4918],[-1.4994,39.4957],[-1.5004,39.4978],[-1.4979,39.5008],[-1.506,39.5082],[-1.5061,39.513],[-1.5015,39.5148],[-1.5002,39.5167],[-1.5058,39.5213],[-1.5034,39.5231],[-1.5025,39.5278],[-1.5046,39.5325],[-1.4997,39.5344],[-1.5049,39.5404],[-1.5014,39.5449],[-1.5021,39.5475],[-1.51,39.5459],[-1.5145,39.5491],[-1.5196,39.5492],[-1.5166,39.5518],[-1.5016,39.5526],[-1.5019,39.5566],[-1.4994,39.5585],[-1.5031,39.5643],[-1.4823,39.5695],[-1.4756,39.5695],[-1.4689,39.5722],[-1.4608,39.577],[-1.455,39.5859],[-1.4353,39.6292],[-1.4167,39.6553],[-1.3673,39.69],[-1.3415,39.682],[-1.3246,39.6735],[-1.3066,39.6712],[-1.2907,39.6729],[-1.2784,39.6783],[-1.2608,39.6993],[-1.2701,39.7139],[-1.2697,39.7316],[-1.2743,39.738],[-1.2608,39.7568],[-1.248,39.7729],[-1.2329,39.7832],[-1.22,39.8035],[-1.2138,39.8091],[-1.2157,39.8148],[-1.2105,39.8207],[-1.2095,39.8336],[-1.2096,39.8386],[-1.2056,39.8464],[-1.199,39.8585],[-1.1995,39.8712],[-1.1964,39.8734],[-1.1989,39.8741],[-1.1988,39.8888],[-1.1969,39.9092],[-1.1946,39.9143],[-1.1974,39.9164],[-1.1961,39.9188],[-1.1995,39.9235],[-1.2077,39.9285],[-1.2057,39.9325],[-1.2085,39.9344],[-1.2056,39.9406],[-1.207,39.9442],[-1.2024,39.9499],[-1.1527,39.9642],[-1.1412,39.9722],[-1.1298,39.9711],[-1.1272,39.9633],[-1.1205,39.9612],[-1.1226,39.9664],[-1.1134,39.9731],[-1.1115,39.9735],[-1.1086,39.9694],[-1.1038,39.9753],[-1.0909,39.9682],[-1.0833,39.9722],[-1.0857,39.9736],[-1.0847,39.9767],[-1.0715,39.9799],[-1.0563,39.9808],[-1.0245,39.975],[-1.0013,39.9822],[-0.9979,39.9805],[-0.9882,39.9822],[-0.9751,39.9761],[-0.9672,39.9748],[-0.952,39.9677],[-0.948,39.9676],[-0.9433,39.9632],[-0.9336,39.9603],[-0.9307,39.9564],[-0.9237,39.9594],[-0.9192,39.9648],[-0.9147,39.959],[-0.916,39.9553],[-0.9048,39.9443],[-0.9014,39.9322],[-0.9023,39.9265],[-0.9064,39.9283],[-0.9126,39.9184],[-0.9064,39.9011],[-0.9084,39.899],[-0.9017,39.8975],[-0.899,39.8922],[-0.9069,39.8864],[-0.9073,39.8809],[-0.9116,39.8734],[-0.9075,39.8669],[-0.8874,39.8525],[-0.8781,39.8527],[-0.8728,39.8487],[-0.8623,39.8478],[-0.8568,39.8509],[-0.8552,39.8559],[-0.8475,39.8575],[-0.8376,39.8629],[-0.8275,39.8715],[-0.8138,39.8739],[-0.7965,39.8814],[-0.7919,39.8816],[-0.7723,39.8702],[-0.7528,39.8436],[-0.7439,39.8361],[-0.744,39.8323],[-0.7392,39.8323],[-0.7354,39.8295],[-0.7367,39.8278],[-0.7356,39.8211],[-0.7324,39.8188],[-0.7292,39.8152],[-0.7265,39.8166],[-0.7247,39.8149],[-0.7213,39.8136],[-0.7113,39.8172],[-0.7092,39.7913],[-0.6991,39.7755],[-0.7318,39.7825],[-0.7403,39.7807],[-0.767,39.7616],[-0.7859,39.7426],[-0.7934,39.7397],[-0.7952,39.7299],[-0.7921,39.7207],[-0.7348,39.7366],[-0.7125,39.7252],[-0.7046,39.7101],[-0.6865,39.6978],[-0.6952,39.6888],[-0.7404,39.6715],[-0.7447,39.6671],[-0.7882,39.6985],[-0.7864,39.661],[-0.7498,39.659],[-0.7287,39.656],[-0.7284,39.6537],[-0.7332,39.6511],[-0.7365,39.6459],[-0.7534,39.595],[-0.7583,39.5906],[-0.7748,39.5528],[-0.7905,39.5565],[-0.7941,39.555],[-0.8286,39.5429],[-0.8667,39.5522],[-0.8869,39.554],[-0.9185,39.5443],[-0.9189,39.539],[-0.8666,39.5108],[-0.8591,39.4944],[-0.852,39.4889],[-0.8629,39.4687],[-0.8646,39.4606],[-0.8797,39.4393],[-0.9053,39.4272],[-0.9346,39.4228],[-0.9656,39.4249],[-0.9762,39.4284],[-0.9741,39.3971],[-0.9753,39.374],[-0.9835,39.3578],[-0.9808,39.3509],[-0.9826,39.3466],[-0.9807,39.3432],[-0.9816,39.3371],[-0.9943,39.3407],[-1.0274,39.3241],[-1.0581,39.3159],[-1.072,39.312],[-1.091,39.3123],[-1.0877,39.2945],[-1.0911,39.2916],[-1.0978,39.2932],[-1.1007,39.2895],[-1.1109,39.2856],[-1.1111,39.2827],[-1.114,39.2842],[-1.1176,39.2763],[-1.1746,39.266],[-1.1735,39.2796],[-1.1607,39.3058],[-1.1638,39.3109],[-1.1769,39.315],[-1.1874,39.316],[-1.1903,39.3148],[-1.193,39.3164],[-1.1971,39.3142],[-1.2026,39.3182],[-1.2023,39.3213],[-1.2067,39.3266],[-1.2121,39.3239],[-1.2134,39.3195],[-1.2221,39.3165],[-1.2266,39.3199],[-1.2372,39.323],[-1.2425,39.3218],[-1.2459,39.329],[-1.2496,39.3229],[-1.2537,39.3275],[-1.2614,39.3303],[-1.2671,39.3291],[-1.2725,39.3336],[-1.2762,39.3331],[-1.2807,39.329],[-1.2894,39.3351],[-1.2923,39.332],[-1.2968,39.3315],[-1.3005,39.3344],[-1.2979,39.3381],[-1.3086,39.3408],[-1.3112,39.3435],[-1.3172,39.3436],[-1.3206,39.3398],[-1.3269,39.3427],[-1.3328,39.3409],[-1.3336,39.3399],[-1.3288,39.3367],[-1.3354,39.3344],[-1.3415,39.3406],[-1.352,39.3406],[-1.3563,39.3477],[-1.3609,39.3493],[-1.3662,39.3565],[-1.3763,39.3568],[-1.3839,39.3547],[-1.3804,39.3599],[-1.3825,39.3666],[-1.3897,39.3679],[-1.3979,39.3642],[-1.4018,39.3643],[-1.4079,39.3681],[-1.4055,39.3697],[-1.3978,39.3696],[-1.395,39.3739],[-1.3961,39.3761],[-1.3998,39.3773],[-1.4064,39.3721],[-1.4113,39.3798],[-1.4217,39.3815],[-1.4247,39.3794],[-1.4218,39.374],[-1.4224,39.3644],[-1.4275,39.3623],[-1.4308,39.3645],[-1.4266,39.3717],[-1.4274,39.3765],[-1.4311,39.378],[-1.4329,39.3768],[-1.4309,39.3729],[-1.4373,39.3735],[-1.4417,39.368],[-1.443,39.3621],[-1.4539,39.3612],[-1.4544,39.3639],[-1.4482,39.3669],[-1.451,39.3734],[-1.4476,39.3786],[-1.4565,39.3805],[-1.4614,39.3798],[-1.467,39.3837],[-1.4626,39.3878],[-1.4579,39.3865],[-1.4548,39.3835],[-1.4517,39.3841],[-1.4522,39.3863],[-1.457,39.3891],[-1.4511,39.3906],[-1.4532,39.3934],[-1.4515,39.3991],[-1.4547,39.4011],[-1.4605,39.4007],[-1.465,39.3913],[-1.4721,39.3915],[-1.476,39.3941],[-1.4744,39.3985],[-1.4653,39.4022],[-1.4693,39.4079],[-1.4743,39.4088],[-1.4811,39.4014],[-1.4862,39.4007],[-1.4876,39.402],[-1.4872,39.4178],[-1.4812,39.4192],[-1.482,39.4228],[-1.489,39.4224],[-1.4963,39.4156],[-1.5039,39.4184]]],[[[-1.4064,40.1018],[-1.409,40.1049],[-1.4281,40.114],[-1.4416,40.1184],[-1.455,40.1313],[-1.456,40.1354],[-1.4476,40.1457],[-1.4306,40.1396],[-1.4212,40.1427],[-1.4105,40.1412],[-1.3923,40.1347],[-1.3837,40.1386],[-1.3756,40.1406],[-1.3624,40.139],[-1.3626,40.1322],[-1.3605,40.13],[-1.3559,40.1293],[-1.3348,40.1425],[-1.3185,40.1468],[-1.3154,40.15],[-1.3182,40.1565],[-1.3161,40.1645],[-1.3213,40.172],[-1.3218,40.1852],[-1.3138,40.2017],[-1.2995,40.2067],[-1.2959,40.2099],[-1.297,40.212],[-1.2918,40.2073],[-1.2955,40.1996],[-1.2858,40.1823],[-1.2831,40.1719],[-1.2755,40.1676],[-1.2753,40.1626],[-1.2512,40.1437],[-1.2445,40.1474],[-1.2431,40.1463],[-1.2476,40.136],[-1.2446,40.1284],[-1.2494,40.1243],[-1.2437,40.1165],[-1.2351,40.1138],[-1.2204,40.116],[-1.2072,40.1107],[-1.2001,40.1114],[-1.1902,40.1111],[-1.1643,40.1152],[-1.1486,40.1151],[-1.1464,40.1146],[-1.1427,40.1089],[-1.1344,40.1045],[-1.1322,40.0978],[-1.1215,40.0961],[-1.1166,40.0932],[-1.1106,40.0932],[-1.0815,40.0716],[-1.0769,40.0692],[-1.0782,40.0674],[-1.0709,40.0608],[-1.0705,40.052],[-1.0754,40.0482],[-1.083,40.0366],[-1.0967,40.033],[-1.106,40.0267],[-1.1329,40.0161],[-1.145,40.0171],[-1.1522,40.013],[-1.164,40.0105],[-1.1717,40.0112],[-1.1905,40.0019],[-1.1983,40.0038],[-1.2059,40.0022],[-1.2154,40.0019],[-1.2468,39.9954],[-1.2661,40.0005],[-1.2736,40.004],[-1.2852,40.0085],[-1.3068,40.0108],[-1.3271,40.0138],[-1.3345,40.017],[-1.3488,40.0155],[-1.3577,40.0127],[-1.3631,40.0125],[-1.3756,40.0169],[-1.38,40.0275],[-1.3819,40.0393],[-1.3925,40.0535],[-1.3995,40.0674],[-1.4119,40.0816],[-1.4123,40.0864],[-1.419,40.0939],[-1.4064,40.1018]]]]}},{"type":"Feature","properties":{"code":"774602","name":"Litoral norte de Valencia","province":"Valencia","province_code":"46","area_km2":2379.0,"label_lon":-0.5245,"label_lat":39.5655},"geometry":{"type":"Polygon","coordinates":[[[-0.9816,39.3371],[-0.9807,39.3432],[-0.9826,39.3466],[-0.9808,39.3509],[-0.9835,39.3578],[-0.9753,39.374],[-0.9741,39.3971],[-0.9762,39.4284],[-0.9656,39.4249],[-0.9346,39.4228],[-0.9053,39.4272],[-0.8797,39.4393],[-0.8646,39.4606],[-0.8629,39.4687],[-0.852,39.4889],[-0.8591,39.4944],[-0.8666,39.5108],[-0.9189,39.539],[-0.9185,39.5443],[-0.8869,39.554],[-0.8667,39.5522],[-0.8286,39.5429],[-0.7941,39.555],[-0.7905,39.5565],[-0.7748,39.5528],[-0.7583,39.5906],[-0.7534,39.595],[-0.7365,39.6459],[-0.7332,39.6511],[-0.7284,39.6537],[-0.7287,39.656],[-0.7498,39.659],[-0.7864,39.661],[-0.7882,39.6985],[-0.7447,39.6671],[-0.7404,39.6715],[-0.6952,39.6888],[-0.6865,39.6978],[-0.7046,39.7101],[-0.7125,39.7252],[-0.7348,39.7366],[-0.7921,39.7207],[-0.7952,39.7299],[-0.7934,39.7397],[-0.7859,39.7426],[-0.767,39.7616],[-0.7403,39.7807],[-0.7318,39.7825],[-0.6991,39.7755],[-0.7092,39.7913],[-0.7113,39.8172],[-0.7058,39.8355],[-0.6939,39.8504],[-0.6899,39.8528],[-0.6673,39.8408],[-0.6549,39.8363],[-0.6435,39.792],[-0.6465,39.7883],[-0.6511,39.7545],[-0.6298,39.7467],[-0.587,39.7421],[-0.5801,39.7571],[-0.5758,39.7736],[-0.5573,39.7909],[-0.5472,39.7961],[-0.5294,39.7963],[-0.5126,39.7795],[-0.5123,39.7762],[-0.5073,39.7711],[-0.5047,39.7598],[-0.497,39.7479],[-0.4815,39.7346],[-0.4739,39.7322],[-0.4695,39.7268],[-0.4625,39.7209],[-0.4598,39.7157],[-0.4472,39.7168],[-0.4439,39.7193],[-0.4382,39.7304],[-0.4363,39.7335],[-0.4379,39.7372],[-0.4318,39.7368],[-0.418,39.7464],[-0.4084,39.7456],[-0.3949,39.759],[-0.3878,39.7691],[-0.3857,39.7695],[-0.3847,39.7768],[-0.3906,39.7803],[-0.3876,39.7904],[-0.3767,39.8002],[-0.3271,39.8018],[-0.3148,39.8002],[-0.3074,39.7974],[-0.2963,39.7855],[-0.2753,39.7709],[-0.2744,39.7648],[-0.2704,39.7607],[-0.2725,39.7555],[-0.27,39.7508],[-0.2586,39.7439],[-0.2456,39.7434],[-0.2396,39.7406],[-0.2328,39.7404],[-0.2246,39.7358],[-0.1944,39.7247],[-0.1873,39.7223],[-0.1955,39.7032],[-0.2002,39.6857],[-0.2024,39.6721],[-0.2084,39.6605],[-0.207,39.6435],[-0.2084,39.6528],[-0.2145,39.6557],[-0.219,39.6502],[-0.2166,39.6485],[-0.2278,39.6397],[-0.237,39.6361],[-0.2577,39.6153],[-0.2669,39.5986],[-0.2728,39.5782],[-0.2792,39.5665],[-0.2819,39.5603],[-0.281,39.5645],[-0.2831,39.5609],[-0.2855,39.5605],[-0.2982,39.5455],[-0.3096,39.5308],[-0.3128,39.5254],[-0.3178,39.5149],[-0.3223,39.485],[-0.3201,39.4581],[-0.316,39.4522],[-0.3007,39.4495],[-0.301,39.4408],[-0.3019,39.4491],[-0.3125,39.451],[-0.3134,39.4482],[-0.3139,39.451],[-0.3169,39.4518],[-0.3222,39.4593],[-0.3241,39.4583],[-0.3238,39.4618],[-0.3281,39.4623],[-0.3302,39.4593],[-0.3259,39.4556],[-0.3221,39.4545],[-0.3249,39.4521],[-0.3193,39.4501],[-0.32,39.4489],[-0.3244,39.45],[-0.3238,39.4441],[-0.3149,39.4436],[-0.3239,39.4437],[-0.326,39.4461],[-0.3306,39.4438],[-0.3347,39.4343],[-0.3317,39.4339],[-0.3314,39.4279],[-0.3346,39.425],[-0.3325,39.4242],[-0.3247,39.3898],[-0.3146,39.3605],[-0.2909,39.3097],[-0.2971,39.3099],[-0.2905,39.3081],[-0.274,39.2799],[-0.2731,39.2793],[-0.2904,39.2835],[-0.3044,39.2997],[-0.3111,39.3038],[-0.317,39.3036],[-0.3173,39.3122],[-0.3214,39.3144],[-0.3277,39.3135],[-0.3318,39.316],[-0.3329,39.3176],[-0.3346,39.315],[-0.336,39.3167],[-0.3464,39.3158],[-0.349,39.3114],[-0.3547,39.3126],[-0.358,39.3071],[-0.3635,39.3055],[-0.3666,39.3081],[-0.3748,39.3079],[-0.3789,39.3115],[-0.3756,39.3126],[-0.3803,39.317],[-0.3835,39.318],[-0.3896,39.3155],[-0.3906,39.3234],[-0.3933,39.3237],[-0.3944,39.3266],[-0.4045,39.3261],[-0.425,39.3308],[-0.4204,39.3101],[-0.4284,39.3023],[-0.4418,39.3012],[-0.4859,39.3026],[-0.4953,39.3048],[-0.5028,39.3113],[-0.5179,39.3199],[-0.5376,39.3243],[-0.5546,39.3351],[-0.5811,39.3241],[-0.5875,39.3313],[-0.5945,39.3325],[-0.6009,39.3373],[-0.6026,39.3421],[-0.608,39.3438],[-0.6376,39.3692],[-0.6426,39.3708],[-0.6528,39.366],[-0.6674,39.3448],[-0.6868,39.3253],[-0.6936,39.3156],[-0.7116,39.3233],[-0.744,39.3256],[-0.764,39.3216],[-0.7622,39.3501],[-0.7632,39.3808],[-0.7822,39.3909],[-0.7942,39.3922],[-0.802,39.3703],[-0.8403,39.3365],[-0.847,39.3248],[-0.8464,39.3206],[-0.8985,39.3105],[-0.9266,39.3159],[-0.9451,39.325],[-0.9643,39.3309],[-0.9676,39.3339],[-0.9816,39.3371]],[[-0.5879,39.4854],[-0.5875,39.4893],[-0.595,39.5004],[-0.5782,39.4954],[-0.5736,39.5035],[-0.5681,39.501],[-0.5672,39.4963],[-0.5531,39.5011],[-0.5439,39.4918],[-0.5389,39.4906],[-0.5345,39.4866],[-0.5451,39.4877],[-0.5584,39.4863],[-0.5609,39.4846],[-0.5674,39.4859],[-0.5879,39.4854]],[[-0.6592,39.6447],[-0.6664,39.6464],[-0.6744,39.6455],[-0.6721,39.6495],[-0.6746,39.6625],[-0.6793,39.6681],[-0.6869,39.6713],[-0.6879,39.6728],[-0.6847,39.6756],[-0.6571,39.661],[-0.6639,39.6521],[-0.6592,39.6447]]]}},{"type":"Feature","properties":{"code":"774603","name":"Interior sur de Valencia","province":"Valencia","province_code":"46","area_km2":3103.9,"label_lon":-0.7922,"label_lat":39.0151},"geometry":{"type":"MultiPolygon","coordinates":[[[[-1.2311,39.1341],[-1.2258,39.1521],[-1.2093,39.1626],[-1.1959,39.1771],[-1.188,39.1998],[-1.1794,39.2127],[-1.1752,39.2306],[-1.1757,39.2471],[-1.1746,39.266],[-1.1176,39.2763],[-1.114,39.2842],[-1.1111,39.2827],[-1.1109,39.2856],[-1.1007,39.2895],[-1.0978,39.2932],[-1.0911,39.2916],[-1.0877,39.2945],[-1.091,39.3123],[-1.072,39.312],[-1.0581,39.3159],[-1.0274,39.3241],[-0.9943,39.3407],[-0.9816,39.3371],[-0.9676,39.3339],[-0.9643,39.3309],[-0.9451,39.325],[-0.9266,39.3159],[-0.8985,39.3105],[-0.8917,39.2921],[-0.888,39.2881],[-0.8889,39.2761],[-0.8869,39.2717],[-0.8856,39.2746],[-0.8807,39.2773],[-0.8766,39.2734],[-0.8652,39.2723],[-0.8603,39.2757],[-0.8519,39.2752],[-0.85,39.2796],[-0.8526,39.284],[-0.8489,39.2853],[-0.8466,39.2824],[-0.8366,39.2809],[-0.8379,39.2772],[-0.8353,39.2747],[-0.8228,39.2715],[-0.8136,39.2735],[-0.8063,39.2661],[-0.8012,39.2651],[-0.7982,39.2612],[-0.7943,39.2605],[-0.7919,39.2619],[-0.7907,39.2674],[-0.7799,39.2657],[-0.773,39.2503],[-0.7667,39.2505],[-0.7564,39.242],[-0.7516,39.2431],[-0.7379,39.2366],[-0.7364,39.2339],[-0.7316,39.236],[-0.7241,39.2265],[-0.7172,39.2272],[-0.715,39.2236],[-0.7147,39.2194],[-0.7069,39.2183],[-0.7069,39.2156],[-0.7004,39.2107],[-0.6974,39.2036],[-0.7061,39.2041],[-0.7113,39.2024],[-0.7155,39.195],[-0.7277,39.1855],[-0.7314,39.1769],[-0.7305,39.173],[-0.7248,39.1702],[-0.7252,39.1679],[-0.7282,39.1672],[-0.7249,39.1588],[-0.7225,39.1591],[-0.7087,39.1527],[-0.6968,39.1377],[-0.6724,39.1188],[-0.6634,39.1075],[-0.6559,39.0958],[-0.6594,39.087],[-0.6276,39.0598],[-0.624,39.0569],[-0.6214,39.046],[-0.5991,39.0483],[-0.591,39.0513],[-0.5775,39.0504],[-0.5738,39.044],[-0.5663,39.0386],[-0.5663,39.0419],[-0.5556,39.045],[-0.5493,39.0476],[-0.5437,39.0449],[-0.5407,39.0468],[-0.537,39.0408],[-0.5292,39.0417],[-0.5246,39.0401],[-0.5193,39.0401],[-0.5175,39.0426],[-0.5081,39.0459],[-0.5099,39.0498],[-0.5047,39.046],[-0.4985,39.0454],[-0.495,39.0378],[-0.4933,39.0407],[-0.4852,39.0378],[-0.4809,39.0408],[-0.4685,39.029],[-0.4591,39.0269],[-0.4496,39.0291],[-0.4424,39.0266],[-0.4353,39.0296],[-0.4307,39.0327],[-0.4171,39.0341],[-0.4149,39.0375],[-0.4064,39.0357],[-0.4065,39.0343],[-0.3899,39.0332],[-0.3868,39.0371],[-0.3819,39.0387],[-0.3838,39.0336],[-0.3789,39.022],[-0.3753,39.019],[-0.3763,39.017],[-0.3723,39.0173],[-0.3644,39.0131],[-0.3584,39.0126],[-0.3551,39.0077],[-0.3303,39.0071],[-0.3204,39.0007],[-0.329,38.9995],[-0.3384,38.9954],[-0.3496,38.983],[-0.3514,38.975],[-0.3496,38.9728],[-0.3511,38.9705],[-0.3484,38.9659],[-0.3407,38.9629],[-0.332,38.9627],[-0.3217,38.9818],[-0.3022,38.9844],[-0.2912,38.9888],[-0.2949,38.9672],[-0.2946,38.9657],[-0.2995,38.9628],[-0.2957,38.9604],[-0.2975,38.9556],[-0.3017,38.9531],[-0.3016,38.9503],[-0.2984,38.9494],[-0.2949,38.9508],[-0.2907,38.9485],[-0.2903,38.9455],[-0.2985,38.9356],[-0.3026,38.934],[-0.3021,38.924],[-0.3061,38.9172],[-0.3035,38.9174],[-0.2998,38.8995],[-0.3019,38.8909],[-0.2936,38.8896],[-0.2976,38.8857],[-0.2981,38.8821],[-0.3096,38.8819],[-0.3115,38.8754],[-0.3225,38.8639],[-0.3345,38.8644],[-0.3436,38.8622],[-0.3522,38.859],[-0.3487,38.8577],[-0.3501,38.8567],[-0.354,38.8502],[-0.3812,38.8349],[-0.392,38.8366],[-0.401,38.8402],[-0.4032,38.8393],[-0.4029,38.8335],[-0.4303,38.8269],[-0.4391,38.8242],[-0.4421,38.8195],[-0.4431,38.8209],[-0.4463,38.8201],[-0.4594,38.8153],[-0.4607,38.808],[-0.4733,38.8043],[-0.4783,38.805],[-0.5146,38.8072],[-0.5244,38.811],[-0.5341,38.8108],[-0.5471,38.8061],[-0.559,38.8045],[-0.5664,38.8021],[-0.579,38.8013],[-0.594,38.7955],[-0.5924,38.7923],[-0.5951,38.7907],[-0.5888,38.7849],[-0.5888,38.7773],[-0.5831,38.7688],[-0.5742,38.7645],[-0.5644,38.7558],[-0.5587,38.7543],[-0.5553,38.7579],[-0.5406,38.7622],[-0.5407,38.7642],[-0.5303,38.7676],[-0.5247,38.7643],[-0.524,38.7606],[-0.5197,38.7571],[-0.5063,38.7557],[-0.5059,38.7434],[-0.511,38.7438],[-0.5147,38.7401],[-0.5221,38.7385],[-0.5234,38.736],[-0.5337,38.7334],[-0.55,38.7175],[-0.583,38.709],[-0.5926,38.7003],[-0.6077,38.6948],[-0.6156,38.6901],[-0.6169,38.6871],[-0.6275,38.687],[-0.6283,38.69],[-0.6413,38.7045],[-0.6388,38.7076],[-0.6424,38.7187],[-0.6422,38.7282],[-0.652,38.7309],[-0.6699,38.732],[-0.6764,38.7295],[-0.6876,38.7417],[-0.706,38.7342],[-0.7072,38.7396],[-0.716,38.751],[-0.721,38.7541],[-0.7321,38.7521],[-0.7348,38.754],[-0.7308,38.7567],[-0.7337,38.7598],[-0.736,38.7571],[-0.7436,38.7597],[-0.7422,38.756],[-0.7509,38.7558],[-0.7603,38.7495],[-0.7645,38.7514],[-0.7784,38.7471],[-0.7825,38.7488],[-0.7864,38.7469],[-0.7915,38.7396],[-0.7999,38.7376],[-0.8054,38.7357],[-0.8092,38.7386],[-0.8162,38.7384],[-0.8305,38.7328],[-0.8334,38.7328],[-0.8364,38.7369],[-0.8345,38.7416],[-0.859,38.7698],[-0.8605,38.7713],[-0.8813,38.7724],[-0.8866,38.7695],[-0.9038,38.7675],[-0.912,38.77],[-0.9163,38.7766],[-0.9137,38.7818],[-0.9277,38.7842],[-0.9326,38.7944],[-0.9316,38.8117],[-0.9266,38.8161],[-0.9237,38.8238],[-0.93,38.8302],[-0.9345,38.8563],[-0.9295,38.864],[-0.9314,38.8683],[-0.9307,38.8801],[-0.9233,38.8922],[-0.9396,38.9],[-0.9493,38.9119],[-0.9522,38.9199],[-0.9553,38.9205],[-0.9582,38.945],[-0.9761,38.9432],[-0.9866,38.9481],[-0.9981,38.9499],[-1.0059,38.9465],[-1.0122,38.9396],[-1.0334,38.9348],[-1.0414,38.9372],[-1.1047,38.9289],[-1.1279,38.9298],[-1.1371,38.928],[-1.1454,38.9298],[-1.1533,38.9401],[-1.1597,38.9552],[-1.192,38.9886],[-1.2006,38.9934],[-1.2074,39.0054],[-1.2253,39.0251],[-1.2383,39.031],[-1.2508,39.0399],[-1.258,39.0417],[-1.2627,39.0455],[-1.2655,39.0514],[-1.2626,39.0687],[-1.2645,39.0759],[-1.2546,39.0844],[-1.2545,39.1066],[-1.2393,39.1141],[-1.2311,39.1341]]],[[[-0.3819,39.0387],[-0.4061,39.0434],[-0.4062,39.0403],[-0.4133,39.0485],[-0.4246,39.0524],[-0.4337,39.0521],[-0.4307,39.0718],[-0.413,39.0685],[-0.3902,39.0571],[-0.3846,39.0588],[-0.3803,39.0577],[-0.3731,39.0507],[-0.373,39.0468],[-0.3819,39.0387]]],[[[-0.547,39.0492],[-0.5518,39.0491],[-0.5535,39.0569],[-0.5502,39.0573],[-0.5435,39.0554],[-0.5428,39.0475],[-0.5458,39.0475],[-0.547,39.0492]]]]}},{"type":"Feature","properties":{"code":"774604","name":"Litoral sur de Valencia","province":"Valencia","province_code":"46","area_km2":1707.3,"label_lon":-0.4574,"label_lat":39.1278},"geometry":{"type":"Polygon","coordinates":[[[-0.8464,39.3206],[-0.847,39.3248],[-0.8403,39.3365],[-0.802,39.3703],[-0.7942,39.3922],[-0.7822,39.3909],[-0.7632,39.3808],[-0.7622,39.3501],[-0.764,39.3216],[-0.744,39.3256],[-0.7116,39.3233],[-0.6936,39.3156],[-0.6868,39.3253],[-0.6674,39.3448],[-0.6528,39.366],[-0.6426,39.3708],[-0.6376,39.3692],[-0.608,39.3438],[-0.6026,39.3421],[-0.6009,39.3373],[-0.5945,39.3325],[-0.5875,39.3313],[-0.5811,39.3241],[-0.5546,39.3351],[-0.5376,39.3243],[-0.5179,39.3199],[-0.5028,39.3113],[-0.4953,39.3048],[-0.4859,39.3026],[-0.4418,39.3012],[-0.4284,39.3023],[-0.4204,39.3101],[-0.425,39.3308],[-0.4045,39.3261],[-0.3944,39.3266],[-0.3933,39.3237],[-0.3906,39.3234],[-0.3896,39.3155],[-0.3835,39.318],[-0.3803,39.317],[-0.3756,39.3126],[-0.3789,39.3115],[-0.3748,39.3079],[-0.3666,39.3081],[-0.3635,39.3055],[-0.358,39.3071],[-0.3547,39.3126],[-0.349,39.3114],[-0.3464,39.3158],[-0.336,39.3167],[-0.3346,39.315],[-0.3329,39.3176],[-0.3318,39.316],[-0.3277,39.3135],[-0.3214,39.3144],[-0.3173,39.3122],[-0.317,39.3036],[-0.3111,39.3038],[-0.3044,39.2997],[-0.2904,39.2835],[-0.2731,39.2793],[-0.2435,39.2258],[-0.221,39.1891],[-0.2145,39.1864],[-0.2187,39.1808],[-0.2212,39.1823],[-0.2262,39.182],[-0.2277,39.1789],[-0.2317,39.1809],[-0.2358,39.1787],[-0.24,39.1644],[-0.2383,39.1521],[-0.2346,39.1511],[-0.2381,39.1499],[-0.2376,39.1447],[-0.2345,39.1415],[-0.2364,39.1413],[-0.2349,39.1368],[-0.2208,39.1062],[-0.1983,39.0589],[-0.18,39.0312],[-0.1548,38.9973],[-0.1474,38.997],[-0.1554,38.9959],[-0.1597,38.9927],[-0.1502,38.9963],[-0.1512,38.9945],[-0.1507,38.9902],[-0.1458,38.9838],[-0.1348,38.9714],[-0.1177,38.9544],[-0.1066,38.9439],[-0.0688,38.9107],[-0.0365,38.8868],[-0.0359,38.881],[-0.0322,38.8797],[-0.0281,38.8743],[-0.0236,38.8727],[-0.0272,38.8676],[-0.0262,38.862],[-0.0335,38.8573],[-0.041,38.8568],[-0.0447,38.865],[-0.0558,38.8695],[-0.0637,38.8752],[-0.064,38.879],[-0.0694,38.8861],[-0.0775,38.8845],[-0.0771,38.8809],[-0.0886,38.8796],[-0.0909,38.8719],[-0.0943,38.8753],[-0.1009,38.8754],[-0.1469,38.8588],[-0.1539,38.8609],[-0.1526,38.8723],[-0.1596,38.8878],[-0.1611,38.8832],[-0.1664,38.8803],[-0.1789,38.8792],[-0.1875,38.8738],[-0.1965,38.8667],[-0.1951,38.8598],[-0.2294,38.8539],[-0.2409,38.861],[-0.2447,38.859],[-0.2591,38.8603],[-0.2722,38.8644],[-0.2879,38.873],[-0.2981,38.8821],[-0.2976,38.8857],[-0.2936,38.8896],[-0.3019,38.8909],[-0.2998,38.8995],[-0.3035,38.9174],[-0.3061,38.9172],[-0.3021,38.924],[-0.3026,38.934],[-0.2985,38.9356],[-0.2903,38.9455],[-0.2907,38.9485],[-0.2949,38.9508],[-0.2984,38.9494],[-0.3016,38.9503],[-0.3017,38.9531],[-0.2975,38.9556],[-0.2957,38.9604],[-0.2995,38.9628],[-0.2946,38.9657],[-0.2949,38.9672],[-0.2912,38.9888],[-0.3022,38.9844],[-0.3217,38.9818],[-0.332,38.9627],[-0.3407,38.9629],[-0.3484,38.9659],[-0.3511,38.9705],[-0.3496,38.9728],[-0.3514,38.975],[-0.3496,38.983],[-0.3384,38.9954],[-0.329,38.9995],[-0.3204,39.0007],[-0.3303,39.0071],[-0.3551,39.0077],[-0.3584,39.0126],[-0.3644,39.0131],[-0.3723,39.0173],[-0.3763,39.017],[-0.3753,39.019],[-0.3789,39.022],[-0.3838,39.0336],[-0.3819,39.0387],[-0.3868,39.0371],[-0.3899,39.0332],[-0.4065,39.0343],[-0.4064,39.0357],[-0.4149,39.0375],[-0.4171,39.0341],[-0.4307,39.0327],[-0.4353,39.0296],[-0.4424,39.0266],[-0.4496,39.0291],[-0.4591,39.0269],[-0.4685,39.029],[-0.4809,39.0408],[-0.4852,39.0378],[-0.4933,39.0407],[-0.495,39.0378],[-0.4985,39.0454],[-0.5047,39.046],[-0.5099,39.0498],[-0.5081,39.0459],[-0.5175,39.0426],[-0.5193,39.0401],[-0.5246,39.0401],[-0.5292,39.0417],[-0.537,39.0408],[-0.5407,39.0468],[-0.5437,39.0449],[-0.5493,39.0476],[-0.5556,39.045],[-0.5663,39.0419],[-0.5663,39.0386],[-0.5738,39.044],[-0.5775,39.0504],[-0.591,39.0513],[-0.5991,39.0483],[-0.6214,39.046],[-0.624,39.0569],[-0.6276,39.0598],[-0.6594,39.087],[-0.6559,39.0958],[-0.6634,39.1075],[-0.6724,39.1188],[-0.6968,39.1377],[-0.7087,39.1527],[-0.7225,39.1591],[-0.7249,39.1588],[-0.7282,39.1672],[-0.7252,39.1679],[-0.7248,39.1702],[-0.7305,39.173],[-0.7314,39.1769],[-0.7277,39.1855],[-0.7155,39.195],[-0.7113,39.2024],[-0.7061,39.2041],[-0.6974,39.2036],[-0.7004,39.2107],[-0.7069,39.2156],[-0.7069,39.2183],[-0.7147,39.2194],[-0.715,39.2236],[-0.7172,39.2272],[-0.7241,39.2265],[-0.7316,39.236],[-0.7364,39.2339],[-0.7379,39.2366],[-0.7516,39.2431],[-0.7564,39.242],[-0.7667,39.2505],[-0.773,39.2503],[-0.7799,39.2657],[-0.7907,39.2674],[-0.7919,39.2619],[-0.7943,39.2605],[-0.7982,39.2612],[-0.8012,39.2651],[-0.8063,39.2661],[-0.8136,39.2735],[-0.8228,39.2715],[-0.8353,39.2747],[-0.8379,39.2772],[-0.8366,39.2809],[-0.8466,39.2824],[-0.8489,39.2853],[-0.8526,39.284],[-0.85,39.2796],[-0.8519,39.2752],[-0.8603,39.2757],[-0.8652,39.2723],[-0.8766,39.2734],[-0.8807,39.2773],[-0.8856,39.2746],[-0.8869,39.2717],[-0.8889,39.2761],[-0.888,39.2881],[-0.8917,39.2921],[-0.8985,39.3105],[-0.8464,39.3206]],[[-0.3819,39.0387],[-0.4061,39.0434],[-0.4062,39.0403],[-0.4133,39.0485],[-0.4246,39.0524],[-0.4337,39.0521],[-0.4307,39.0718],[-0.413,39.0685],[-0.3902,39.0571],[-0.3846,39.0588],[-0.3803,39.0577],[-0.3731,39.0507],[-0.373,39.0468],[-0.3819,39.0387]],[[-0.547,39.0492],[-0.5518,39.0491],[-0.5535,39.0569],[-0.5502,39.0573],[-0.5435,39.0554],[-0.5428,39.0475],[-0.5458,39.0475],[-0.547,39.0492]]]}}]}